address,city,created_at,description,description_en,description_fr,display_description,display_specialties,email,featured,id,latitude,logo_url,longitude,name,opening_hours,phone,postal_code,province,specialties,specialties_en,specialties_fr,type,updated_at,website
Zuidgoordijkstraat 1,Hulshout,2025-12-27 18:50:15,Belgische chocolatier - 't Pranilleke,Belgian chocolatier - 't Pranilleke,Chocolaterie belge - 't Pranilleke,Belgische chocolatier - 't Pranilleke,,,0,2428,51.07911,,4.8081851,'t Pranilleke,,,2235.0,Antwerpen,,,,winkel,2025-12-27 18:50:15,https://www.pranilleke.be
Rubensstraat 11,Kontich,2025-12-27 18:50:15,Belgische chocolatier - 't Smikkelboetiekske,Belgian chocolatier - 't Smikkelboetiekske,Chocolaterie belge - 't Smikkelboetiekske,Belgische chocolatier - 't Smikkelboetiekske,,,0,2429,51.1340737,,4.4435948,'t Smikkelboetiekske,,,2550.0,Antwerpen,,,,winkel,2025-12-27 18:50:15,http://www.smikkelboetiekske.be
Rucaplein 54,Wilrijk,2025-12-27 18:50:15,Belgische chocolatier,Artisan chocolate shop offering quality Belgian chocolates.,Chocolaterie artisanale offrant des chocolats belges de qualité.,Belgische chocolatier,Ambachtelijke chocolade,,0,2430,51.1781102,,4.42196,'t Snoephuis,,,2610.0,Antwerpen,Ambachtelijke chocolade,Artisan chocolate,Chocolat artisanal,winkel,2025-12-27 18:50:15,https://www.tsnoephuis.be
Pauwengraaf 47,Eisden,2025-12-27 18:50:16,Belgische chocolatier - @Nano's,Belgian chocolatier - @Nano's,Chocolaterie belge - @Nano's,Belgische chocolatier - @Nano's,,,0,2431,50.9882835,,5.69607,@Nano's,,,3630.0,Limburg,,,,winkel,2025-12-27 18:50:16,
Rue de Scrawelle 61,Seneffe,2025-12-27 18:50:16,Belgische chocolatier - ADK IMPERIUM,Belgian chocolatier - ADK IMPERIUM,Chocolaterie belge - ADK IMPERIUM,Belgische chocolatier - ADK IMPERIUM,,,0,2432,50.5359399,,4.2444263,ADK IMPERIUM,,,7180.0,Henegouwen,,,,winkel,2025-12-27 18:50:16,
Avenue Léopold III 344,Péronnes-lez-Binche,2025-12-27 18:50:16,Belgische chocolatier - ANOBLA BUSINESS CORPORATE,Belgian chocolatier - ANOBLA BUSINESS CORPORATE,Chocolaterie belge - ANOBLA BUSINESS CORPORATE,Belgische chocolatier - ANOBLA BUSINESS CORPORATE,,,0,2436,50.4397726,,4.1592828,ANOBLA BUSINESS CORPORATE,,,7134.0,Henegouwen,,,,winkel,2025-12-27 18:50:16,
Gentstraat 236/B,Ingelmunster,2025-12-27 18:50:16,Belgische chocolatier - ARCUS,Belgian chocolatier - ARCUS,Chocolaterie belge - ARCUS,Belgische chocolatier - ARCUS,,,0,2437,50.9113618,,3.283353,ARCUS,,,8770.0,West-Vlaanderen,,,,winkel,2025-12-27 18:50:16,
Reebokstraat 2/1,Brussel,2025-12-27 18:50:16,Belgische chocolatier - ASSOCIATION BELGE DES PRODUITS DU TERROIR,Belgian chocolatier - ASSOCIATION BELGE DES PRODUITS DU TERROIR,Chocolaterie belge - ASSOCIATION BELGE DES PRODUITS DU TERROIR,Belgische chocolatier - ASSOCIATION BELGE DES PRODUITS DU TERROIR,,,0,2439,50.8378476,,4.3455651,ASSOCIATION BELGE DES PRODUITS DU TERROIR,,,1000.0,Brussels Hoofdstedelijk Gewest,,,,winkel,2025-12-27 18:50:16,
Rue des Ateliers 1,Genval,2025-12-27 18:50:16,Belgische chocolatier - ATELIERS BONBONS & BALLONS,Belgian chocolatier - ATELIERS BONBONS & BALLONS,Chocolaterie belge - ATELIERS BONBONS & BALLONS,Belgische chocolatier - ATELIERS BONBONS & BALLONS,,,0,2440,50.722244,,4.5145697,ATELIERS BONBONS & BALLONS,,,1332.0,Waals-Brabant,,,,winkel,2025-12-27 18:50:16,https://www.atelierbonbonsballons.be
Rue du Lieutenant Jüngling 19,Barchon,2025-12-27 18:50:16,Belgische chocolatier - AU COIN FLEURI,Belgian chocolatier - AU COIN FLEURI,Chocolaterie belge - AU COIN FLEURI,Belgische chocolatier - AU COIN FLEURI,,,0,2442,50.6635695,,5.6892692,AU COIN FLEURI,,,4671.0,Luik,,,,winkel,2025-12-27 18:50:16,
Rerum Novarumlaan 54,Merksem,2025-12-27 18:50:16,Belgische chocolatier - Airbrush Design De Kind,Belgian chocolatier - Airbrush Design De Kind,Chocolaterie belge - Airbrush Design De Kind,Belgische chocolatier - Airbrush Design De Kind,,,0,2433,51.252325,,4.453864,Airbrush Design De Kind,,,2170.0,Antwerpen,,,,winkel,2025-12-27 18:50:16,https://twizzi-candystore.be
Avenue Baron de Moreau 1,Namen,2025-12-27 18:50:16,Belgische chocolatier - Anne Furquim d'Almeida,Belgian chocolatier - Anne Furquim d'Almeida,Chocolaterie belge - Anne Furquim d'Almeida,Belgische chocolatier - Anne Furquim d'Almeida,,,0,2434,50.457217,,4.8631477,Anne Furquim d'Almeida,,,5000.0,Namen,,,,winkel,2025-12-27 18:50:16,
Kortemarkstraat 112,Lichtervelde,2025-12-27 18:50:16,Belgische chocolatier - AnniCla,Belgian chocolatier - AnniCla,Chocolaterie belge - AnniCla,Belgische chocolatier - AnniCla,,,0,2435,51.0239354,,3.1135388,AnniCla,,,8810.0,West-Vlaanderen,,,,winkel,2025-12-27 18:50:16,
Irisdreef 23/15,Anderlecht,2025-12-27 18:50:16,Belgische chocolatier - Asmaa Snaibi,Belgian chocolatier - Asmaa Snaibi,Chocolaterie belge - Asmaa Snaibi,Belgische chocolatier - Asmaa Snaibi,,,0,2438,50.8177811,,4.2629262,Asmaa Snaibi,,,1070.0,Brussels Hoofdstedelijk Gewest,,,,winkel,2025-12-27 18:50:16,
Armentieresstraat 144,Le Bizet,2025-12-27 18:50:16,Belgische chocolatier - Au Caprice,Belgian chocolatier - Au Caprice,Chocolaterie belge - Au Caprice,Belgische chocolatier - Au Caprice,,,0,2441,50.7168093,,2.8850906,Au Caprice,,,7782.0,Henegouwen,,,,winkel,2025-12-27 18:50:16,http://www.aucaprice.be
Rue Haute 7-9,Frasnes-lez-Buissenal,2025-12-27 18:50:16,Belgische chocolatier - Au Myosotis,Belgian chocolatier - Au Myosotis,Chocolaterie belge - Au Myosotis,Belgische chocolatier - Au Myosotis,,,0,2443,50.6673593,,3.6203284,Au Myosotis,,,7911.0,Henegouwen,,,,winkel,2025-12-27 18:50:16,
Rue de Marchienne 12/A,Gozée,2025-12-27 18:50:16,Belgische chocolatier - Au Régal Sucré,Belgian chocolatier - Au Régal Sucré,Chocolaterie belge - Au Régal Sucré,Belgische chocolatier - Au Régal Sucré,,,0,2444,50.356277,,4.3637497,Au Régal Sucré,,,6534.0,Henegouwen,,,,winkel,2025-12-27 18:50:16,
Krom Genthof 6/204,Brugge,2025-12-27 18:50:16,Belgische chocolatier - Azalai,Belgian chocolatier - Azalai,Chocolaterie belge - Azalai,Belgische chocolatier - Azalai,,,0,2445,51.2130822,,3.2267132,Azalai,,,8000.0,West-Vlaanderen,,,,winkel,2025-12-27 18:50:16,
Rue du Fer à Cheval 16,Montigny-le-Tilleul,2025-12-27 18:50:16,Belgische chocolatier - BADAN,Belgian chocolatier - BADAN,Chocolaterie belge - BADAN,Belgische chocolatier - BADAN,,,0,2446,50.3639469,,4.3620373,BADAN,,,6110.0,Henegouwen,,,,winkel,2025-12-27 18:50:16,
Grand'Rue 16,Chimay,2025-12-27 18:50:16,Belgische chocolatier - BAMBINO,Belgian chocolatier - BAMBINO,Chocolaterie belge - BAMBINO,Belgische chocolatier - BAMBINO,,,0,2447,50.0487677,,4.3141947,BAMBINO,,,6460.0,Henegouwen,,,,winkel,2025-12-27 18:50:16,
Nieuwstraat 99,Geel,2025-12-27 18:50:16,Belgische chocolatier - BBB ADVIES,Belgian chocolatier - BBB ADVIES,Chocolaterie belge - BBB ADVIES,Belgische chocolatier - BBB ADVIES,,,0,2450,51.1632477,,4.9954822,BBB ADVIES,,,2440.0,Antwerpen,,,,winkel,2025-12-27 18:50:16,http://www.bbbadvies.be
Martelwée 9,Tintange,2025-12-27 18:50:17,Belgische chocolatier - BERNARD CONFISERIE,Belgian chocolatier - BERNARD CONFISERIE,Chocolaterie belge - BERNARD CONFISERIE,Belgische chocolatier - BERNARD CONFISERIE,,,0,2457,49.8600708,,5.7280495,BERNARD CONFISERIE,,,6637.0,Luxemburg,,,,winkel,2025-12-27 18:50:17,
Helenalei 18/10,Antwerpen,2025-12-27 18:50:17,Belgische chocolatier - BIONAOMI,Belgian chocolatier - BIONAOMI,Chocolaterie belge - BIONAOMI,Belgische chocolatier - BIONAOMI,,,0,2458,51.2010322,,4.4215539,BIONAOMI,,,2018.0,Antwerpen,,,,winkel,2025-12-27 18:50:17,
Waardbeekdreef 3,Grimbergen,2025-12-27 18:50:17,Belgische chocolatier - BIREN'S,Belgian chocolatier - BIREN'S,Chocolaterie belge - BIREN'S,Belgische chocolatier - BIREN'S,,,0,2459,50.9393651,,4.3565315,BIREN'S,,,1850.0,Vlaams-Brabant,,,,winkel,2025-12-27 18:50:17,
Maretak 430,Waasmunster,2025-12-27 18:50:17,Belgische chocolatier - BOGEMANS MARC,Belgian chocolatier - BOGEMANS MARC,Chocolaterie belge - BOGEMANS MARC,Belgische chocolatier - BOGEMANS MARC,,,0,2461,51.1335234,,4.0722218,BOGEMANS MARC,,,9250.0,Oost-Vlaanderen,,,,winkel,2025-12-27 18:50:17,
Péri Grindor 12,Beaufays,2025-12-27 18:50:17,Belgische chocolatier - BONIVER INFO. CONSULT.,Belgian chocolatier - BONIVER INFO. CONSULT.,Chocolaterie belge - BONIVER INFO. CONSULT.,Belgische chocolatier - BONIVER INFO. CONSULT.,,,0,2463,50.5568133,,5.6377933,BONIVER INFO. CONSULT.,,,4052.0,Luik,,,,winkel,2025-12-27 18:50:17,http://evenea.be
Stijn Streuvelslaan 19,Sterrebeek,2025-12-27 18:50:17,Belgische chocolatier - BOURDEAUX ALEXANDRE,Belgian chocolatier - BOURDEAUX ALEXANDRE,Chocolaterie belge - BOURDEAUX ALEXANDRE,Belgische chocolatier - BOURDEAUX ALEXANDRE,,,0,2466,50.8648082,,4.4980055,BOURDEAUX ALEXANDRE,,,1933.0,Vlaams-Brabant,,,,winkel,2025-12-27 18:50:17,
Rue Ariste Caussin 68,Anseremme,2025-12-27 18:50:17,Belgische chocolatier - BOUVIER ETIENNE,Belgian chocolatier - BOUVIER ETIENNE,Chocolaterie belge - BOUVIER ETIENNE,Belgische chocolatier - BOUVIER ETIENNE,,,0,2468,50.2386622,,4.914304,BOUVIER ETIENNE,,,5500.0,Namen,,,,winkel,2025-12-27 18:50:17,
Rue de Namur 152,Gosselies,2025-12-27 18:50:16,Belgische chocolatier - Barabouf,Belgian chocolatier - Barabouf,Chocolaterie belge - Barabouf,Belgische chocolatier - Barabouf,,,0,2448,50.4699798,,4.435568,Barabouf,,,6041.0,Henegouwen,,,,winkel,2025-12-27 18:50:16,
Nukkerstraat 33,Bredene,2025-12-27 18:50:16,Belgische chocolatier - Bart's Candy,Belgian chocolatier - Bart's Candy,Chocolaterie belge - Bart's Candy,Belgische chocolatier - Bart's Candy,,,0,2449,51.2223573,,2.9578438,Bart's Candy,,,8450.0,West-Vlaanderen,,,,winkel,2025-12-27 18:50:16,
Rue de Flandre 13,Brussel,2025-12-27 18:50:16,Moderne chocolatier met winkels in verschillende steden. Speelse en kleurrijke creaties.,Artisan chocolate shop offering quality Belgian chocolates.,Chocolaterie artisanale offrant des chocolats belges de qualité.,Moderne chocolatier met winkels in verschillende steden. Speelse en kleurrijke creaties.,Kleurrijke pralines,info@bbyb.be,0,2451,50.8509698,,4.3470143,BbyB,,+32 2 512 24 91,1000.0,Brussels Hoofdstedelijk Gewest,Kleurrijke pralines,Chocolat artisanal,moderne designs,beide,2025-12-27 18:50:16,https://www.bbyb.be
Rue De Neck 20,Koekelberg,2025-12-27 18:50:16,Belgische chocolatier,Belgian chocolatier,Chocolaterie belge,Belgische chocolatier,,,0,2452,50.8647766,,4.3299151,Belgian Chocolate Village,,+32 2 420 70 76,1081.0,Brussels Hoofdstedelijk Gewest,,,,winkel,2025-12-27 18:50:16,http://www.belgianchocolatevillage.be/
Rue des Foulons 30,Bruxelles,2025-12-27 18:50:16,Belgische chocolatier,Belgian chocolatier,Chocolaterie belge,Belgische chocolatier,,,0,2453,50.8428703,,4.3417839,Belgian Chocolate Workshop in Brussels,,+32 2 881 01 78,1000.0,Brussels Hoofdstedelijk Gewest,,,,winkel,2025-12-27 18:50:16,http://www.belgianchocolateworkshop.com/
Avenue Zénobe Gramme 16,Saintes,2025-12-27 18:50:16,Belgische chocolatier - Belgian Sweets Design,Belgian chocolatier - Belgian Sweets Design,Chocolaterie belge - Belgian Sweets Design,Belgische chocolatier - Belgian Sweets Design,,,0,2454,50.7082533,,4.1772764,Belgian Sweets Design,,,1480.0,Waals-Brabant,,,,winkel,2025-12-27 18:50:16,https://www.bsd.be
Grand'Route 83,Mont-Saint-Guibert,2025-12-27 18:50:16,Belgische chocolatier,Belgian chocolatier,Chocolaterie belge,Belgische chocolatier,,,0,2455,50.6411347,,4.6477562,Belgium Chocolatiers,,+32 10 68 86 20,1435.0,Brussels Hoofdstedelijk Gewest,,,,winkel,2025-12-27 18:50:16,https://belgiumchocolatiers.com/
Hoogkouter 35,Tiegem,2025-12-27 18:50:17,Belgische chocolatier - Belion,Belgian chocolatier - Belion,Chocolaterie belge - Belion,Belgische chocolatier - Belion,,,0,2456,50.8065887,,3.4714883,Belion,,,8573.0,West-Vlaanderen,,,,winkel,2025-12-27 18:50:17,
Hogeweg 101,Erembodegem,2025-12-27 18:50:17,Belgische chocolatier - Bo é Belle,Belgian chocolatier - Bo é Belle,Chocolaterie belge - Bo é Belle,Belgische chocolatier - Bo é Belle,,,0,2460,50.921086,,4.0666715,Bo é Belle,,,9320.0,Oost-Vlaanderen,,,,winkel,2025-12-27 18:50:17,https://shop.boebelle.be
Vestingstraat 34,Komen,2025-12-27 18:50:17,Belgische chocolatier - Bonbek,Belgian chocolatier - Bonbek,Chocolaterie belge - Bonbek,Belgische chocolatier - Bonbek,,,0,2462,50.7665456,,3.0033962,Bonbek,,,7780.0,Henegouwen,,,,winkel,2025-12-27 18:50:17,
Hernerweg 17,Sint-Huibrechts-Hern,2025-12-27 18:50:17,Belgische chocolatier - Boontjes the max,Belgian chocolatier - Boontjes the max,Chocolaterie belge - Boontjes the max,Belgische chocolatier - Boontjes the max,,,0,2464,50.8201565,,5.4645972,Boontjes the max,,,3730.0,Limburg,,,,winkel,2025-12-27 18:50:17,https://www.boontjesthemax.be
Rue Saint-Léger 42,Lustin,2025-12-27 18:50:17,Belgische chocolatier - Boulangerie Patisserie De La Place,Belgian chocolatier - Boulangerie Patisserie De La Place,Chocolaterie belge - Boulangerie Patisserie De La Place,Belgische chocolatier - Boulangerie Patisserie De La Place,,,0,2465,50.378736,,4.8987942,Boulangerie Patisserie De La Place,,,5170.0,Namen,,,,winkel,2025-12-27 18:50:17,
Grand'Place 32,Louvain-la-Neuve,2025-12-27 18:50:17,Belgische chocolatier - Boutique Galler Louvain-La-Neuve,Belgian chocolatier - Boutique Galler Louvain-La-Neuve,Chocolaterie belge - Boutique Galler Louvain-La-Neuve,Belgische chocolatier - Boutique Galler Louvain-La-Neuve,,,0,2467,50.6697044,,4.6116513,Boutique Galler Louvain-La-Neuve,,,1348.0,Waals-Brabant,,,,winkel,2025-12-27 18:50:17,https://www.galler.com
Capronstraat 28,Ieper,2025-12-27 18:50:17,Belgische chocolatier - CALINOR,Belgian chocolatier - CALINOR,Chocolaterie belge - CALINOR,Belgische chocolatier - CALINOR,,,0,2471,50.8509369,,2.874693,CALINOR,,,8900.0,West-Vlaanderen,,,,winkel,2025-12-27 18:50:17,http://www.calinor.be
Rue de l'Aîte 14,Hollogne-aux-Pierres,2025-12-27 18:50:17,Belgische chocolatier - CANDY GLITTER,Belgian chocolatier - CANDY GLITTER,Chocolaterie belge - CANDY GLITTER,Belgische chocolatier - CANDY GLITTER,,,0,2473,50.6296472,,5.4592937,CANDY GLITTER,,,4460.0,Luik,,,,winkel,2025-12-27 18:50:17,
Rue César De Paepe 113,Jumet,2025-12-27 18:50:17,Belgische chocolatier - CANDY SHOP'ONE,Belgian chocolatier - CANDY SHOP'ONE,Chocolaterie belge - CANDY SHOP'ONE,Belgische chocolatier - CANDY SHOP'ONE,,,0,2474,50.43549,,4.4137969,CANDY SHOP'ONE,,,6040.0,Henegouwen,,,,winkel,2025-12-27 18:50:17,
Nerviërslaan 9-31,Etterbeek,2025-12-27 18:50:17,Belgische chocolatier - CAOBISCO,Belgian chocolatier - CAOBISCO,Chocolaterie belge - CAOBISCO,Belgische chocolatier - CAOBISCO,,,0,2475,50.8380235,,4.3935513,CAOBISCO,,,1040.0,Brussels Hoofdstedelijk Gewest,,,,winkel,2025-12-27 18:50:17,https://caobisco.eu
de Merodedreef 93 A,Westerlo,2025-12-27 18:50:17,Belgische chocolatier - CARAMELLA,Belgian chocolatier - CARAMELLA,Chocolaterie belge - CARAMELLA,Belgische chocolatier - CARAMELLA,,,0,2476,51.0825762,,4.9129045,CARAMELLA,,,2260.0,Antwerpen,,,,winkel,2025-12-27 18:50:17,https://leonidas.com
Rue des Combattants 36,Terhulpen,2025-12-27 18:50:17,Belgische chocolatier - CARIS LA HULPE,Belgian chocolatier - CARIS LA HULPE,Chocolaterie belge - CARIS LA HULPE,Belgische chocolatier - CARIS LA HULPE,,,0,2477,50.7317482,,4.4895278,CARIS LA HULPE,,,1310.0,Waals-Brabant,,,,winkel,2025-12-27 18:50:17,
Energieweg 3,Oostmalle,2025-12-27 18:50:17,Belgische chocolatier - CARMINA - Confiserie Pierot,Belgian chocolatier - CARMINA - Confiserie Pierot,Chocolaterie belge - CARMINA - Confiserie Pierot,Belgische chocolatier - CARMINA - Confiserie Pierot,,,0,2478,51.293804,,4.7138243,CARMINA - Confiserie Pierot,,,2390.0,Antwerpen,,,,winkel,2025-12-27 18:50:17,http://www.likeurpralines.be
Boterstraat 17,Brussel,2025-12-27 18:50:17,Belgische chocolatier - CDM BELGIQUE,Belgian chocolatier - CDM BELGIQUE,Chocolaterie belge - CDM BELGIQUE,Belgische chocolatier - CDM BELGIQUE,,,0,2480,50.847552,,4.351221,CDM BELGIQUE,,,1000.0,Brussels Hoofdstedelijk Gewest,,,,winkel,2025-12-27 18:50:17,
Meiersplein 4/20,Sint-Pieters-Woluwe,2025-12-27 18:50:18,Belgische chocolatier - CHEZ CHOUPS,Belgian chocolatier - CHEZ CHOUPS,Chocolaterie belge - CHEZ CHOUPS,Belgische chocolatier - CHEZ CHOUPS,,,0,2485,50.8374085,,4.4316298,CHEZ CHOUPS,,,1150.0,Brussels Hoofdstedelijk Gewest,,,,winkel,2025-12-27 18:50:18,
Village 53,Henri-Chapelle,2025-12-27 18:50:18,Belgische chocolatier - CHEZ NONO,Belgian chocolatier - CHEZ NONO,Chocolaterie belge - CHEZ NONO,Belgische chocolatier - CHEZ NONO,,,0,2487,50.6767168,,5.9307735,CHEZ NONO,,,4841.0,Luik,,,,winkel,2025-12-27 18:50:18,
Wijngaardstraat 25,Brugge,2025-12-27 18:50:18,Belgische chocolatier - CHOCOLATE FACTORY,Belgian chocolatier - CHOCOLATE FACTORY,Chocolaterie belge - CHOCOLATE FACTORY,Belgische chocolatier - CHOCOLATE FACTORY,,,0,2494,51.2017694,,3.2250281,CHOCOLATE FACTORY,,,8000.0,West-Vlaanderen,,,,winkel,2025-12-27 18:50:18,
Belfortstraat 30,Gent,2025-12-27 18:50:18,Belgische chocolatier,Artisan chocolate shop offering quality Belgian chocolates.,Chocolaterie artisanale offrant des chocolats belges de qualité.,Belgische chocolatier,Ambachtelijke chocolade,,0,2495,51.0557606,,3.7276749,CHOCOLATERIE BELFORT,,,9000.0,Oost-Vlaanderen,Ambachtelijke chocolade,Artisan chocolate,Chocolat artisanal,winkel,2025-12-27 18:50:18,http://www.chocolaterie-belfort.be
Burgemeester Jos. Chalmetlaan 67,Zelzate,2025-12-27 18:50:18,Belgische chocolatier - CHOCOLATERIE DE GRAEVE,Belgian chocolatier - CHOCOLATERIE DE GRAEVE,Chocolaterie belge - CHOCOLATERIE DE GRAEVE,Belgische chocolatier - CHOCOLATERIE DE GRAEVE,,,0,2497,51.1980327,,3.8041149,CHOCOLATERIE DE GRAEVE,,,9060.0,Oost-Vlaanderen,,,,winkel,2025-12-27 18:50:18,https://chocolateriedegraeve.eatbu.com
Boezingestraat 133,Langemark,2025-12-27 18:50:18,Belgische chocolatier - CHOCOLATERIE LEDOUX,Belgian chocolatier - CHOCOLATERIE LEDOUX,Chocolaterie belge - CHOCOLATERIE LEDOUX,Belgische chocolatier - CHOCOLATERIE LEDOUX,,,0,2502,50.9020972,,2.8945161,CHOCOLATERIE LEDOUX,,,8920.0,West-Vlaanderen,,,,winkel,2025-12-27 18:50:18,https://www.choc-ledoux.be
Dorpsstraat 36,Stabroek,2025-12-27 18:50:18,Belgische chocolatier - CHOCOLATES AND MORE,Belgian chocolatier - CHOCOLATES AND MORE,Chocolaterie belge - CHOCOLATES AND MORE,Belgische chocolatier - CHOCOLATES AND MORE,,,0,2508,51.3317042,,4.3648807,CHOCOLATES AND MORE,,,2940.0,Antwerpen,,,,winkel,2025-12-27 18:50:18,
Grand'Rue 31,Gembloers,2025-12-27 18:50:19,Belgische chocolatier - CHOCOLATEZ-VOUS,Belgian chocolatier - CHOCOLATEZ-VOUS,Chocolaterie belge - CHOCOLATEZ-VOUS,Belgische chocolatier - CHOCOLATEZ-VOUS,,,0,2509,50.5607064,,4.6942055,CHOCOLATEZ-VOUS,,,5030.0,Namen,,,,winkel,2025-12-27 18:50:19,
Diestersesteenweg 61,Paal,2025-12-27 18:50:19,Belgische chocolatier - CHOCOSJIEK,Belgian chocolatier - CHOCOSJIEK,Chocolaterie belge - CHOCOSJIEK,Belgische chocolatier - CHOCOSJIEK,,,0,2515,51.0365952,,5.1673495,CHOCOSJIEK,,,3583.0,Limburg,,,,winkel,2025-12-27 18:50:19,https://valentinobelgium.com
Rue Saint-Léonard 309,Luik,2025-12-27 18:50:19,Belgische chocolatier - CHOUETTE CHIQUE,Belgian chocolatier - CHOUETTE CHIQUE,Chocolaterie belge - CHOUETTE CHIQUE,Belgische chocolatier - CHOUETTE CHIQUE,,,0,2517,50.6515373,,5.5981132,CHOUETTE CHIQUE,,,4000.0,Luik,,,,winkel,2025-12-27 18:50:19,https://www.chouettechique.be
Jozef De Troetselstraat 36,Schoonaarde,2025-12-27 18:50:19,Belgische chocolatier - CLAUS CARINE,Belgian chocolatier - CLAUS CARINE,Chocolaterie belge - CLAUS CARINE,Belgische chocolatier - CLAUS CARINE,,,0,2518,50.9971646,,4.0135712,CLAUS CARINE,,,9200.0,Oost-Vlaanderen,,,,winkel,2025-12-27 18:50:19,
Gistelsteenweg 169,Varsenare,2025-12-27 18:50:19,Belgische chocolatier - CONFISERIE BLOMME,Belgian chocolatier - CONFISERIE BLOMME,Chocolaterie belge - CONFISERIE BLOMME,Belgische chocolatier - CONFISERIE BLOMME,,,0,2519,51.1825189,,3.1411608,CONFISERIE BLOMME,,,8490.0,West-Vlaanderen,,,,winkel,2025-12-27 18:50:19,https://www.confiserieblomme.be
IJzerenleen 3,Mechelen,2025-12-27 18:50:19,Belgische chocolatier - CONFISERIE EN CHOCOLATERIE GAUTHIER,Belgian chocolatier - CONFISERIE EN CHOCOLATERIE GAUTHIER,Chocolaterie belge - CONFISERIE EN CHOCOLATERIE GAUTHIER,Belgische chocolatier - CONFISERIE EN CHOCOLATERIE GAUTHIER,,,0,2525,51.0273015,,4.4794146,CONFISERIE EN CHOCOLATERIE GAUTHIER,,,2800.0,Antwerpen,,,,winkel,2025-12-27 18:50:19,
Rijselstraat 267,Menen,2025-12-27 18:50:19,Belgische chocolatier - CONFISERIE GINO,Belgian chocolatier - CONFISERIE GINO,Chocolaterie belge - CONFISERIE GINO,Belgische chocolatier - CONFISERIE GINO,,,0,2526,50.786894,,3.1265505,CONFISERIE GINO,,,8930.0,West-Vlaanderen,,,,winkel,2025-12-27 18:50:19,https://www.leonidas-menen.be
Rootbeekstraat 17,Wevelgem,2025-12-27 18:50:19,Belgische chocolatier - CONFISERIE GINO,Belgian chocolatier - CONFISERIE GINO,Chocolaterie belge - CONFISERIE GINO,Belgische chocolatier - CONFISERIE GINO,,,0,2527,50.8172445,,3.181052,CONFISERIE GINO,,,8560.0,West-Vlaanderen,,,,winkel,2025-12-27 18:50:19,
Pannenbakkersstraat 2 A,Moen,2025-12-27 18:50:19,Belgische chocolatier - CONFISERIE RIAL,Belgian chocolatier - CONFISERIE RIAL,Chocolaterie belge - CONFISERIE RIAL,Belgische chocolatier - CONFISERIE RIAL,,,0,2530,50.797119,,3.3657088,CONFISERIE RIAL,,,8552.0,West-Vlaanderen,,,,winkel,2025-12-27 18:50:19,
Ninovesteenweg 225,Erembodegem,2025-12-27 18:50:19,Belgische chocolatier - CONFISERIE SABINE,Belgian chocolatier - CONFISERIE SABINE,Chocolaterie belge - CONFISERIE SABINE,Belgische chocolatier - CONFISERIE SABINE,,,0,2531,50.9106814,,4.0509249,CONFISERIE SABINE,,,9320.0,Oost-Vlaanderen,,,,winkel,2025-12-27 18:50:19,https://www.leonidas.com
Stapelstraat 7,Sint-Truiden,2025-12-27 18:50:19,Belgische chocolatier - CONFISERIE SCHREURS,Belgian chocolatier - CONFISERIE SCHREURS,Chocolaterie belge - CONFISERIE SCHREURS,Belgische chocolatier - CONFISERIE SCHREURS,,,0,2532,50.8150677,,5.1840123,CONFISERIE SCHREURS,,,3800.0,Limburg,,,,winkel,2025-12-27 18:50:19,
Industrielaan 26,Hoeselt,2025-12-27 18:50:19,Belgische chocolatier - CONFISERIE VANGERTRUYDEN ONDERNEMINGEN,Belgian chocolatier - CONFISERIE VANGERTRUYDEN ONDERNEMINGEN,Chocolaterie belge - CONFISERIE VANGERTRUYDEN ONDERNEMINGEN,Belgische chocolatier - CONFISERIE VANGERTRUYDEN ONDERNEMINGEN,,,0,2534,50.8598396,,5.4946683,CONFISERIE VANGERTRUYDEN ONDERNEMINGEN,,,3730.0,Limburg,,,,winkel,2025-12-27 18:50:19,
Geneikenstraat 32,Lummen,2025-12-27 18:50:19,Belgische chocolatier - CONFISERIE WALLIE,Belgian chocolatier - CONFISERIE WALLIE,Chocolaterie belge - CONFISERIE WALLIE,Belgische chocolatier - CONFISERIE WALLIE,,,0,2535,51.0134015,,5.2077706,CONFISERIE WALLIE,,,3560.0,Limburg,,,,winkel,2025-12-27 18:50:19,
Industrieweg 15,Boom,2025-12-27 18:50:20,Belgische chocolatier - CONFISERIE-CHOCOLATERIE ROMA,Belgian chocolatier - CONFISERIE-CHOCOLATERIE ROMA,Chocolaterie belge - CONFISERIE-CHOCOLATERIE ROMA,Belgische chocolatier - CONFISERIE-CHOCOLATERIE ROMA,,,0,2536,51.0999507,,4.3528213,CONFISERIE-CHOCOLATERIE ROMA,,,2850.0,Antwerpen,,,,winkel,2025-12-27 18:50:20,
Woluwedal 70/79,Sint-Lambrechts-Woluwe,2025-12-27 18:50:20,Belgische chocolatier - CONFIZZ Woluwe Shopping Center,Belgian chocolatier - CONFIZZ Woluwe Shopping Center,Chocolaterie belge - CONFIZZ Woluwe Shopping Center,Belgische chocolatier - CONFIZZ Woluwe Shopping Center,,,0,2537,50.8532915,,4.4439608,CONFIZZ Woluwe Shopping Center,,,1200.0,Brussels Hoofdstedelijk Gewest,,,,winkel,2025-12-27 18:50:20,https://ohhh.be
Passage Linthout 41,Woluwe-Saint-Lambert,2025-12-27 18:50:20,Belgische chocolatier - CPR Linthout,Belgian chocolatier - CPR Linthout,Chocolaterie belge - CPR Linthout,Belgische chocolatier - CPR Linthout,,,0,2539,50.8408786,,4.4021573,CPR Linthout,,,1200.0,Brussels Hoofdstedelijk Gewest,,,,winkel,2025-12-27 18:50:20,
Rue Saint-Eloi 186,Carnières,2025-12-27 18:50:20,Belgische chocolatier - CULOT NANCY,Belgian chocolatier - CULOT NANCY,Chocolaterie belge - CULOT NANCY,Belgische chocolatier - CULOT NANCY,,,0,2540,50.445311,,4.2377733,CULOT NANCY,,,7141.0,Henegouwen,,,,winkel,2025-12-27 18:50:20,
Koning Albert I-straat 38,Lebbeke,2025-12-27 18:50:17,Belgische chocolatier - Cadice,Belgian chocolatier - Cadice,Chocolaterie belge - Cadice,Belgische chocolatier - Cadice,,,0,2469,50.9997958,,4.1353567,Cadice,,,9280.0,Oost-Vlaanderen,,,,winkel,2025-12-27 18:50:17,
Place De Courquain 1,Macquenoise,2025-12-27 18:50:17,Belgische chocolatier - Café de la Douane,Belgian chocolatier - Café de la Douane,Chocolaterie belge - Café de la Douane,Belgische chocolatier - Café de la Douane,,,0,2470,49.9766443,,4.1742279,Café de la Douane,,,6593.0,Henegouwen,,,,winkel,2025-12-27 18:50:17,
Rue Chant des Oiseaux 1,Rochefort,2025-12-27 18:50:17,Belgische chocolatier - Cam'O - Chocolats & Confiseries,Belgian chocolatier - Cam'O - Chocolats & Confiseries,Chocolaterie belge - Cam'O - Chocolats & Confiseries,Belgische chocolatier - Cam'O - Chocolats & Confiseries,,,0,2472,50.150847,,5.2252263,Cam'O - Chocolats & Confiseries,,,5580.0,Namen,,,,winkel,2025-12-27 18:50:17,
Michel Angelolaan 47,Brussel,2025-12-27 18:50:17,Belgische chocolatier,Belgian chocolatier,Chocolaterie belge,Belgische chocolatier,,,0,2481,50.8448253,/logo/centho.jpg,4.3858406,Centho Brussels,,02/733.69.95,1000.0,Brussels Hoofdstedelijk Gewest,,,,winkel,2025-12-27 18:50:17,https://www.centho.be
Veeweidestraat 3,Duisburg (Tervuren),2025-12-27 18:50:18,Belgische chocolatier,Belgian chocolatier,Chocolaterie belge,Belgische chocolatier,,,1,2482,50.8187877,/logo/centho.jpg,4.5610539,Centho Duisburg,,02/767.07.74,3080.0,Vlaams-Brabant,,,,beide,2025-12-27 18:50:18,https://www.centho.be
Vekestraat 29 - Unit A2,Kampenhout,2025-12-27 18:50:18,Belgische chocolatier,Belgian chocolatier,Chocolaterie belge,Belgische chocolatier,,,0,2483,50.9399828,/logo/centho.jpg,4.5662218,Centho Kampenhout,,02/767.07.74,1910.0,Vlaams-Brabant,,,,winkel,2025-12-27 18:50:18,https://www.centho.be
Rue du Moulin 5A,Etalle,2025-12-27 18:50:18,Belgische chocolatier - Chez Christophe,Belgian chocolatier - Chez Christophe,Chocolaterie belge - Chez Christophe,Belgische chocolatier - Chez Christophe,,,0,2486,49.6732252,,5.5954866,Chez Christophe,,,6740.0,Luxemburg,,,,winkel,2025-12-27 18:50:18,
Rue de Namur 18,Philippeville,2025-12-27 18:50:18,Belgische chocolatier - Choco & Co,Belgian chocolatier - Choco & Co,Chocolaterie belge - Choco & Co,Belgische chocolatier - Choco & Co,,,0,2488,50.1969797,,4.5446046,Choco & Co,,,5600.0,Namen,,,,winkel,2025-12-27 18:50:18,https://valentinobelgium.com
Pathoekeweg 9 B/008,Brugge,2025-12-27 18:50:18,Belgische chocolatier - Choco Holic,Belgian chocolatier - Choco Holic,Chocolaterie belge - Choco Holic,Belgische chocolatier - Choco Holic,,,0,2489,51.244875,,3.2144017,Choco Holic,,,8000.0,West-Vlaanderen,,,,winkel,2025-12-27 18:50:18,
Rue de l'Etuve 41,Bruxelles,2025-12-27 18:50:18,Belgische chocolatier,Belgian chocolatier,Chocolaterie belge,Belgische chocolatier,,,0,2490,50.8453051,,4.3501321,Choco-Story Brussels,,+32 2 514 20 48,1000.0,Brussels Hoofdstedelijk Gewest,,,,winkel,2025-12-27 18:50:18,http://choco-story-brussels.be/
Leuvensesteenweg 125,Kampenhout,2025-12-27 18:50:18,Belgische chocolatier - Chocola-Tuti,Belgian chocolatier - Chocola-Tuti,Chocolaterie belge - Chocola-Tuti,Belgische chocolatier - Chocola-Tuti,,,0,2491,50.9489708,,4.6038256,Chocola-Tuti,,,1910.0,Vlaams-Brabant,,,,winkel,2025-12-27 18:50:18,
Hasseltsestraat 23,Diest,2025-12-27 18:50:18,Belgische chocolatier - Chocolat bvba,Belgian chocolatier - Chocolat bvba,Chocolaterie belge - Chocolat bvba,Belgische chocolatier - Chocolat bvba,,,0,2492,50.9818157,,5.0529103,Chocolat bvba,,,3290.0,Vlaams-Brabant,,,,winkel,2025-12-27 18:50:18,
Wollestraat 4B,Brugge,2025-12-27 18:50:18,Belgische chocolatier - Chocolat de Julie,Belgian chocolatier - Chocolat de Julie,Chocolaterie belge - Chocolat de Julie,Belgische chocolatier - Chocolat de Julie,,,0,2493,51.2075835,,3.226109,Chocolat de Julie,,,8000.0,West-Vlaanderen,,,,winkel,2025-12-27 18:50:18,https://www.chocolatdejulie.be
Schensbossen 15,Reet,2025-12-27 18:50:18,Belgische chocolatier - Chocolaterie Daes,Belgian chocolatier - Chocolaterie Daes,Chocolaterie belge - Chocolaterie Daes,Belgische chocolatier - Chocolaterie Daes,,,0,2496,51.1058596,,4.4034617,Chocolaterie Daes,,,2840.0,Antwerpen,,,,winkel,2025-12-27 18:50:18,
Baron de Gieylaan 22,De Pinte,2025-12-27 18:50:18,Chocolaterie in De Pinte,Artisan chocolate shop offering quality Belgian chocolates.,Chocolaterie artisanale offrant des chocolats belges de qualité.,Chocolaterie in De Pinte,Ambachtelijke chocolade,,0,2498,50.992745,,3.6526377,Chocolaterie Dossche,,,9840.0,Oost-Vlaanderen,Ambachtelijke chocolade,Artisan chocolate,Chocolat artisanal,winkel,2025-12-27 18:50:18,
Stoofstraat 22/B,Brussel,2025-12-27 18:50:18,Belgische chocolatier - Chocolaterie Filip Martin nr 1,Belgian chocolatier - Chocolaterie Filip Martin nr 1,Chocolaterie belge - Chocolaterie Filip Martin nr 1,Belgische chocolatier - Chocolaterie Filip Martin nr 1,,,0,2499,50.8452791,,4.3505871,Chocolaterie Filip Martin nr 1,,,1000.0,Brussels Hoofdstedelijk Gewest,,,,winkel,2025-12-27 18:50:18,https://www.filipmartin.be
Grote Baan 52,Westerlo,2025-12-27 18:50:18,Familiezaak in Vlaams-Brabant. Traditionele Belgische chocolade sinds 1990.,Artisan chocolate shop offering quality Belgian chocolates.,Chocolaterie artisanale offrant des chocolats belges de qualité.,Familiezaak in Vlaams-Brabant. Traditionele Belgische chocolade sinds 1990.,Verse pralines,info@chocolateriegoossens.be,0,2500,51.0720079,,4.8295257,Chocolaterie Goossens,,+32 14 54 67 89,2260.0,Antwerpen,Verse pralines,Chocolat artisanal,chocoladelolly's,winkel,2025-12-27 18:50:18,https://www.chocolateriegoossens.be
Stationsstraat 146,Aalter,2025-12-27 18:50:18,Belgische chocolatier - Chocolaterie Krisley,Belgian chocolatier - Chocolaterie Krisley,Chocolaterie belge - Chocolaterie Krisley,Belgische chocolatier - Chocolaterie Krisley,,,0,2501,51.0890298,,3.4478972,Chocolaterie Krisley,,,9880.0,Oost-Vlaanderen,,,,winkel,2025-12-27 18:50:18,https://www.krisley.be
Sint-Baafsplein 15,Gent,2025-12-27 18:50:18,Belgische chocolatier,Belgian chocolatier,Chocolaterie belge,Belgische chocolatier,,,0,2503,51.0537511,,3.7255907,Chocolaterie Luc Van Hoorebeke,,+32 9 221 03 81,9000.0,Oost-Vlaanderen,,,,winkel,2025-12-27 18:50:18,http://www.chocolatesvanhoorebeke.be/
August Vermeylenstraat 36,Ertvelde,2025-12-27 18:50:18,Belgische chocolatier - Chocolaterie Magalie,Belgian chocolatier - Chocolaterie Magalie,Chocolaterie belge - Chocolaterie Magalie,Belgische chocolatier - Chocolaterie Magalie,,,0,2504,51.1786456,,3.7330223,Chocolaterie Magalie,,,9940.0,Oost-Vlaanderen,,,,winkel,2025-12-27 18:50:18,
Heidestraat 1,Merelbeke,2025-12-27 18:50:18,Belgische chocolatier - Chocolaterie Marioca bvba,Belgian chocolatier - Chocolaterie Marioca bvba,Chocolaterie belge - Chocolaterie Marioca bvba,Belgische chocolatier - Chocolaterie Marioca bvba,,,0,2505,51.0038524,,3.7644496,Chocolaterie Marioca bvba,,,9820.0,Oost-Vlaanderen,,,,winkel,2025-12-27 18:50:18,https://www.marioca.be
"Belgium, Rue du Lombard 28B",Bruxelles,2025-12-27 18:50:18,Belgische chocolatier,Belgian chocolatier,Chocolaterie belge,Belgische chocolatier,,,0,2506,50.8614048,,4.3525494,Chocolaterie Mary,,+32 2 512 34 00,1000.0,Brussels Hoofdstedelijk Gewest,,,,winkel,2025-12-27 18:50:18,http://mary.be/
Mageleinstraat 46,Gent,2025-12-27 18:50:18,Belgische chocolatier,Belgian chocolatier,Chocolaterie belge,Belgische chocolatier,,,0,2507,51.0527216,,3.7245917,Chocolaterie Vandenbouhede,,+32 9 222 17 81,9000.0,Oost-Vlaanderen,,,,winkel,2025-12-27 18:50:18,https://www.chocolaterie-vandenbouhede.be/
Vredestraat 1,Kapellen,2025-12-27 18:50:19,Belgische chocolatier,Artisan chocolate shop offering quality Belgian chocolates.,Chocolaterie artisanale offrant des chocolats belges de qualité.,Belgische chocolatier,Ambachtelijke chocolade,,0,2510,51.3146566,,4.4301257,Chocolatier Ashley,,,2950.0,Antwerpen,Ambachtelijke chocolade,Artisan chocolate,Chocolat artisanal,winkel,2025-12-27 18:50:19,https://www.chocolatier-ashley.be
Eiermarkt 6,Brugge,2025-12-27 18:50:19,Traditionele chocolatier in Brugge sinds 1992. Alles handgemaakt met verse ingrediënten.,Artisan chocolate shop offering quality Belgian chocolates.,Chocolaterie artisanale offrant des chocolats belges de qualité.,Traditionele chocolatier in Brugge sinds 1992. Alles handgemaakt met verse ingrediënten.,Handgemaakte pralines,info@chocolatierdumon.be,0,2511,51.2094082,,3.2230107,Chocolatier Dumon,,+32 50 34 62 82,8000.0,West-Vlaanderen,Handgemaakte pralines,Chocolat artisanal,brugse beren,winkel,2025-12-27 18:50:19,https://www.chocolatierdumon.be
Gauwelstraat 65,Heestert,2025-12-27 18:50:19,Belgische chocolatier - Chocolatier Dumon Heestert,Belgian chocolatier - Chocolatier Dumon Heestert,Chocolaterie belge - Chocolatier Dumon Heestert,Belgische chocolatier - Chocolatier Dumon Heestert,,,0,2512,50.7799354,,3.4041577,Chocolatier Dumon Heestert,,,8551.0,West-Vlaanderen,,,,winkel,2025-12-27 18:50:19,https://www.chocolatierdumon.be
Sylvain Dupuisstraat 38,Knokke-Heist,2025-12-27 18:50:19,Belgische chocolatier,Belgian chocolatier,Chocolaterie belge,Belgische chocolatier,,,0,2513,51.3514919,,3.2860964,Chocolatier M,,+32 50 61 44 60,8300.0,West-Vlaanderen,,,,winkel,2025-12-27 18:50:19,http://www.chocolatier-m.be/
Nieuwstraat 123,Brussel,2025-12-27 18:50:19,Belgische chocolatier - Chocolats LINDT,Belgian chocolatier - Chocolats LINDT,Chocolaterie belge - Chocolats LINDT,Belgische chocolatier - Chocolats LINDT,,,0,2514,50.8542659,,4.3580653,Chocolats LINDT,,,1000.0,Brussels Hoofdstedelijk Gewest,,,,winkel,2025-12-27 18:50:19,
Dorpsstraat 37/B,Houthalen,2025-12-27 18:50:19,Belgische chocolatier - Chokado,Belgian chocolatier - Chokado,Chocolaterie belge - Chokado,Belgische chocolatier - Chokado,,,0,2516,51.0306897,,5.3727969,Chokado,,,3530.0,Limburg,,,,winkel,2025-12-27 18:50:19,
Hoogstraat 33,Antwerpen,2025-12-27 18:50:18,Belgische chocolatier - Château Blanc,Belgian chocolatier - Château Blanc,Chocolaterie belge - Château Blanc,Belgische chocolatier - Château Blanc,,,0,2484,51.2196864,,4.3984073,Château Blanc,,,2000.0,Antwerpen,,,,winkel,2025-12-27 18:50:18,http://www.chateaublanc.biz
Kerkstraat 17,Blankenberge,2025-12-27 18:50:19,Belgische chocolatier - Confiserie Caroline,Belgian chocolatier - Confiserie Caroline,Chocolaterie belge - Confiserie Caroline,Belgische chocolatier - Confiserie Caroline,,,0,2520,51.3156893,,3.1284645,Confiserie Caroline,,,8370.0,West-Vlaanderen,,,,winkel,2025-12-27 18:50:19,http://www.leonidas-blankenberge.be
Bellegemstraat 44,Zwevegem,2025-12-27 18:50:19,Belgische chocolatier - Confiserie Clément,Belgian chocolatier - Confiserie Clément,Chocolaterie belge - Confiserie Clément,Belgische chocolatier - Confiserie Clément,,,0,2521,50.7996904,,3.3377446,Confiserie Clément,,,8550.0,West-Vlaanderen,,,,winkel,2025-12-27 18:50:19,
Marktplaats 4/6,Le Bizet,2025-12-27 18:50:19,Belgische chocolatier - Confiserie Corinne,Belgian chocolatier - Confiserie Corinne,Chocolaterie belge - Confiserie Corinne,Belgische chocolatier - Confiserie Corinne,,,0,2522,50.7080629,,2.8844781,Confiserie Corinne,,,7783.0,Henegouwen,,,,winkel,2025-12-27 18:50:19,https://www.leonidas.com
Rue Mandenne 15,Momignies,2025-12-27 18:50:19,Belgische chocolatier - Confiserie Kaline Léonidas,Belgian chocolatier - Confiserie Kaline Léonidas,Chocolaterie belge - Confiserie Kaline Léonidas,Belgische chocolatier - Confiserie Kaline Léonidas,,,0,2528,50.0268777,,4.1565979,Confiserie Kaline Léonidas,,,6590.0,Henegouwen,,,,winkel,2025-12-27 18:50:19,
Provinciale Steenweg 24/1,Schelle,2025-12-27 18:50:19,Belgische chocolatier - Confiserie Katja Philips,Belgian chocolatier - Confiserie Katja Philips,Chocolaterie belge - Confiserie Katja Philips,Belgische chocolatier - Confiserie Katja Philips,,,0,2529,51.1304009,,4.3358036,Confiserie Katja Philips,,,2627.0,Antwerpen,,,,winkel,2025-12-27 18:50:19,
Voordestraat 34,Wetteren,2025-12-27 18:50:19,Belgische chocolatier - Confiserie Van Damme,Belgian chocolatier - Confiserie Van Damme,Chocolaterie belge - Confiserie Van Damme,Belgische chocolatier - Confiserie Van Damme,,,0,2533,51.0090137,,3.8553877,Confiserie Van Damme,,,9230.0,Oost-Vlaanderen,,,,winkel,2025-12-27 18:50:19,http://www.vandammegroup.com
Rue de France 6,Rochefort,2025-12-27 18:50:19,Belgische chocolatier - Confiserie de Lyse,Belgian chocolatier - Confiserie de Lyse,Chocolaterie belge - Confiserie de Lyse,Belgische chocolatier - Confiserie de Lyse,,,0,2523,50.1574396,,5.2224203,Confiserie de Lyse,,,5580.0,Namen,,,,winkel,2025-12-27 18:50:19,
Avenue des Artisans 29,Ghislenghien,2025-12-27 18:50:19,Belgische chocolatier - Confiserie du Chaudron,Belgian chocolatier - Confiserie du Chaudron,Chocolaterie belge - Confiserie du Chaudron,Belgische chocolatier - Confiserie du Chaudron,,,0,2524,50.6596457,,3.8609507,Confiserie du Chaudron,,,7822.0,Henegouwen,,,,winkel,2025-12-27 18:50:19,https://www.confiserieduchaudron.com
Boondaalse Steenweg 481,Elsene,2025-12-27 18:50:10,Belgische chocolatier,Belgian chocolatier,Chocolaterie belge,Belgische chocolatier,,,0,2287,50.8153919,/logo/corne-port-royal.jpg,4.3898414,Corné Port Royal - Ixelles,,,1050.0,Brussels Hoofdstedelijk Gewest,,,,winkel,2025-12-27 18:50:10,
Brussels National Airport,Zaventem,2025-12-27 18:50:10,Belgische chocolatier,Belgian chocolatier,Chocolaterie belge,Belgische chocolatier,,,0,2288,50.8983361,/logo/corne-port-royal.jpg,4.4832587,Corné Port-Royal - Brussels Airport Terminal A,,02/715.10.20,1930.0,Vlaams-Brabant,,,,winkel,2025-12-27 18:50:10,https://www.corneportroyal.be
Brussels National Airport,Zaventem,2025-12-27 18:50:10,Belgische chocolatier,Belgian chocolatier,Chocolaterie belge,Belgische chocolatier,,,0,2289,50.8983361,/logo/corne-port-royal.jpgne-port-royal.jpg,4.4832587,Corné Port-Royal - Brussels Airport Terminal B,,02/715.10.20,1930.0,Vlaams-Brabant,,,,winkel,2025-12-27 18:50:10,https://www.corneportroyal.be
Galerie de la Reine / Koninginnegalerij 5,Brussel,2025-12-27 18:50:10,Belgische chocolatier,Belgian chocolatier,Chocolaterie belge,Belgische chocolatier,,,0,2290,50.8470236,/logo/corne-port-royal.jpg,4.3544739,Corné Port-Royal - Galerie de la Reine,,02/213.62.22,1000.0,Brussels Hoofdstedelijk Gewest,,,,winkel,2025-12-27 18:50:10,https://www.corneportroyal.be
Avenue Fonsny 47B,Sint-Gillis,2025-12-27 18:50:10,Belgische chocolatier,Belgian chocolatier,Chocolaterie belge,Belgische chocolatier,,,0,2291,50.835367,/logo/corne-port-royal.jpg,4.3372063,Corné Port-Royal - Gare du Midi,,02/524.53.30,1060.0,Brussels Hoofdstedelijk Gewest,,,,winkel,2025-12-27 18:50:10,https://www.corneportroyal.be
Route de Landen 61,Hannut,2025-12-27 18:50:10,Belgische chocolatier,Belgian chocolatier,Chocolaterie belge,Belgische chocolatier,,,0,2292,50.6573213,/logo/corne-port-royal.jpg,5.0662114,Corné Port-Royal - Hannut,,019/51.61.11,4280.0,Luik,,,,winkel,2025-12-27 18:50:10,https://www.corneportroyal.be
"Rue de Piétrain 7, Les Gotteaux",Jodoigne,2025-12-27 18:50:10,Belgische chocolatier,Belgian chocolatier,Chocolaterie belge,Belgische chocolatier,,,0,2293,50.7255834,/logo/corne-port-royal.jpg,4.8729681,Corné Port-Royal - Jodoigne,,010/81.49.12,1370.0,Waals-Brabant,,,,winkel,2025-12-27 18:50:10,https://www.corneportroyal.be
"Avenue Albert 1er, Centre commercial de La Mazerine",La Hulpe,2025-12-27 18:50:10,Belgische chocolatier,Belgian chocolatier,Chocolaterie belge,Belgische chocolatier,,,0,2294,50.7362626,/logo/corne-port-royal.jpg,4.4659227,Corné Port-Royal - La Hulpe,,02/654.00.43,1310.0,Waals-Brabant,,,,winkel,2025-12-27 18:50:10,https://www.corneportroyal.be
Rue au Beurre / Boterstraat 46,Brussel,2025-12-27 18:50:10,Belgische chocolatier,Belgian chocolatier,Chocolaterie belge,Belgische chocolatier,,,0,2295,50.8472715,/logo/corne-port-royal.jpg,4.3522382,Corné Port-Royal - Rue au Beurre,,02/511.11.26,1000.0,Brussels Hoofdstedelijk Gewest,,,,winkel,2025-12-27 18:50:10,https://www.corneportroyal.be
Avenue Vésale 12,Wavre,2025-12-27 18:50:10,Belgische chocolatier,Belgian chocolatier,Chocolaterie belge,Belgische chocolatier,,,1,2296,50.7331669,/logo/corne-port-royal.jpg,4.5836178,Corné Port-Royal - Wavre,,02/568.23.65,1300.0,Waals-Brabant,,,,winkel,2025-12-27 18:50:10,https://www.corneportroyal.be
Rue t'Serstevens 61,Thuin,2025-12-27 18:50:20,Belgische chocolatier - Couleur Chocolat,Belgian chocolatier - Couleur Chocolat,Chocolaterie belge - Couleur Chocolat,Belgische chocolatier - Couleur Chocolat,,,0,2538,50.3419316,,4.2812325,Couleur Chocolat,,,6530.0,Henegouwen,,,,winkel,2025-12-27 18:50:20,https://valentinobelgium.com
Bergensesteenweg 1530,Sint-Pieters-Leeuw,2025-12-27 18:50:10,Iconisch Belgisch merk sinds 1883. De olifant op de verpakking is wereldberoemd.,Iconic Belgian brand since 1883. The elephant on the packaging is world-famous.,Marque belge emblématique depuis 1883. L'éléphant sur l'emballage est mondialement connu.,Iconisch Belgisch merk sinds 1883. De olifant op de verpakking is wereldberoemd.,Chocoladetabletten,info@cotedor.be,0,2297,50.7553846,,4.2490601,Côte d'Or,,+32 2 363 45 45,1600.0,Vlaams-Brabant,Chocoladetabletten,Tablettes de chocolat,Bouchée,fabrikant,2025-12-27 18:50:10,https://www.cotedor.be
Rue du Grand Hornu 49,Hornu,2025-12-27 18:50:20,Belgische chocolatier - DELCOURT PASCAL,Belgian chocolatier - DELCOURT PASCAL,Chocolaterie belge - DELCOURT PASCAL,Belgische chocolatier - DELCOURT PASCAL,,,0,2547,50.4377787,,3.8407843,DELCOURT PASCAL,,,7301.0,Henegouwen,,,,winkel,2025-12-27 18:50:20,
Witteweg 75,Le Bizet,2025-12-27 18:50:20,Belgische chocolatier - DELFORGE,Belgian chocolatier - DELFORGE,Chocolaterie belge - DELFORGE,Belgische chocolatier - DELFORGE,,,0,2549,50.7138992,,2.8878866,DELFORGE,,,7782.0,Henegouwen,,,,winkel,2025-12-27 18:50:20,
Walstraat 16,Brugge,2025-12-27 18:50:20,Belgische chocolatier - DELICIOUS@BRUGES,Belgian chocolatier - DELICIOUS@BRUGES,Chocolaterie belge - DELICIOUS@BRUGES,Belgische chocolatier - DELICIOUS@BRUGES,,,0,2551,51.2028991,,3.2244021,DELICIOUS@BRUGES,,,8000.0,West-Vlaanderen,,,,winkel,2025-12-27 18:50:20,
Rue du Tiège 14,Mortier,2025-12-27 18:50:20,Belgische chocolatier - DESCAMPS VERONIQUE,Belgian chocolatier - DESCAMPS VERONIQUE,Chocolaterie belge - DESCAMPS VERONIQUE,Belgische chocolatier - DESCAMPS VERONIQUE,,,0,2553,50.6787154,,5.7520994,DESCAMPS VERONIQUE,,,4670.0,Luik,,,,winkel,2025-12-27 18:50:20,
Steenstraat 12,Brugge,2025-12-27 18:50:20,Belgische chocolatier - DISTRICHOC BELGIUM,Belgian chocolatier - DISTRICHOC BELGIUM,Chocolaterie belge - DISTRICHOC BELGIUM,Belgische chocolatier - DISTRICHOC BELGIUM,,,0,2554,51.2081058,,3.2236646,DISTRICHOC BELGIUM,,,8000.0,West-Vlaanderen,,,,winkel,2025-12-27 18:50:20,
Chemin de Stoquois 49,Rebecq-Rognon,2025-12-27 18:50:21,Chocolatier in Rebecq,Artisan chocolate shop offering quality Belgian chocolates.,Chocolaterie artisanale offrant des chocolats belges de qualité.,Chocolatier in Rebecq,Ambachtelijke chocolade,,0,2564,50.6530237,,4.129577,DURIEUX NATACHA,,,1430.0,Waals-Brabant,Ambachtelijke chocolade,Artisan chocolate,Chocolat artisanal,winkel,2025-12-27 18:50:21,
Hoogstraat 23,Wolvertem,2025-12-27 18:50:20,Belgische chocolatier - Daskalidès,Belgian chocolatier - Daskalidès,Chocolaterie belge - Daskalidès,Belgische chocolatier - Daskalidès,,,0,2541,50.9518813,,4.3104513,Daskalidès,,,1861.0,Vlaams-Brabant,,,,winkel,2025-12-27 18:50:20,https://www.daskalides.be
Baksteenkaai 36,Brussel,2025-12-27 18:50:20,Belgische chocolatier - De Chocoladekaai,Belgian chocolatier - De Chocoladekaai,Chocolaterie belge - De Chocoladekaai,Belgische chocolatier - De Chocoladekaai,,,0,2542,50.8518722,,4.3475127,De Chocoladekaai,,,1000.0,Brussels Hoofdstedelijk Gewest,,,,winkel,2025-12-27 18:50:20,https://www.frederic-blondeel.be
Antwerpsesteenweg 150,Westmalle,2025-12-27 18:50:20,Ambachtelijke chocolaterie in Westmalle,Artisan chocolate shop offering quality Belgian chocolates.,Chocolaterie artisanale offrant des chocolats belges de qualité.,Ambachtelijke chocolaterie in Westmalle,Ambachtelijke chocolade,,0,2543,51.2980966,,4.7020896,De Chocolaterie,,,2390.0,Antwerpen,Ambachtelijke chocolade,Artisan chocolate,Chocolat artisanal,winkel,2025-12-27 18:50:20,
Bergstraat 17,Heist-op-den-Berg,2025-12-27 18:50:20,Belgische chocolatier - De Vier Bollekes,Belgian chocolatier - De Vier Bollekes,Chocolaterie belge - De Vier Bollekes,Belgische chocolatier - De Vier Bollekes,,,0,2544,51.0752999,,4.7257714,De Vier Bollekes,,,2220.0,Antwerpen,,,,winkel,2025-12-27 18:50:20,
Lievevrouwestraat 12,Ranst,2025-12-27 18:50:20,Belgische chocolatier - De Zoete Zonde,Belgian chocolatier - De Zoete Zonde,Chocolaterie belge - De Zoete Zonde,Belgische chocolatier - De Zoete Zonde,,,0,2545,51.1902062,,4.5615814,De Zoete Zonde,,,2520.0,Antwerpen,,,,winkel,2025-12-27 18:50:20,
Appelmansstraat 5,Antwerpen,2025-12-27 18:50:20,Derde generatie chocolatiers in Antwerpen. Specialist in ambachtelijke chocolade.,Third-generation chocolatiers in Antwerp. Specialist in artisan chocolate.,Chocolatiers de troisième génération à Anvers. Spécialiste du chocolat artisanal.,Derde generatie chocolatiers in Antwerpen. Specialist in ambachtelijke chocolade.,Antwerpse handjes,info@delrey.be,0,2546,51.2171137,,4.4177315,Del Rey,,+32 3 230 82 30,2018.0,Antwerpen,Antwerpse handjes,Mains d'Anvers,pralines,fabrikant,2025-12-27 18:50:20,https://www.delrey.be
Rue de l'Yser 36,Doornik,2025-12-27 18:50:20,Belgische chocolatier,Artisan chocolate shop offering quality Belgian chocolates.,Chocolaterie artisanale offrant des chocolats belges de qualité.,Belgische chocolatier,Ambachtelijke chocolade,,0,2548,50.6072481,,3.3861308,Delfab Valentino,,,7500.0,Henegouwen,Ambachtelijke chocolade,Artisan chocolate,Chocolat artisanal,winkel,2025-12-27 18:50:20,https://valentinobelgium.com/nl/collections
Naamsesteenweg 288,Heverlee,2025-12-27 18:50:20,Belgische chocolatier - Demeestere-Ambachtelijke Chocolaterie,Belgian chocolatier - Demeestere-Ambachtelijke Chocolaterie,Chocolaterie belge - Demeestere-Ambachtelijke Chocolaterie,Belgische chocolatier - Demeestere-Ambachtelijke Chocolaterie,,,0,2552,50.8590047,,4.6955291,Demeestere-Ambachtelijke Chocolaterie,,,3001.0,Vlaams-Brabant,,,,winkel,2025-12-27 18:50:20,https://www.chocolade-demeestere.be
Mechelseweg 229,Kapelle-op-den-Bos,2025-12-27 18:50:20,Belgische chocolatier,Artisan chocolate shop offering quality Belgian chocolates.,Chocolaterie artisanale offrant des chocolats belges de qualité.,Belgische chocolatier,Ambachtelijke chocolade,,0,2555,51.01241,,4.3603945,Doopsuiker De Buyser,,,1880.0,Vlaams-Brabant,Ambachtelijke chocolade,Artisan chocolate,Chocolat artisanal,winkel,2025-12-27 18:50:20,https://www.doopsuikerdebuyser.be
Kolmstraat 61,Huise,2025-12-27 18:50:20,Belgische chocolatier - Doopsuikerke,Belgian chocolatier - Doopsuikerke,Chocolaterie belge - Doopsuikerke,Belgische chocolatier - Doopsuikerke,,,0,2556,50.9112943,,3.6345298,Doopsuikerke,,,9750.0,Oost-Vlaanderen,,,,winkel,2025-12-27 18:50:20,
Bevrijdingslaan 244,Meerhout,2025-12-27 18:50:20,Belgische chocolatier - Dora Design & Gifts,Belgian chocolatier - Dora Design & Gifts,Chocolaterie belge - Dora Design & Gifts,Belgische chocolatier - Dora Design & Gifts,,,0,2557,51.1212383,,5.051364,Dora Design & Gifts,,,2450.0,Antwerpen,,,,winkel,2025-12-27 18:50:20,
Hulstsestraat 51,Veerle,2025-12-27 18:50:20,Belgische chocolatier - Dora Design & Gifts,Belgian chocolatier - Dora Design & Gifts,Chocolaterie belge - Dora Design & Gifts,Belgische chocolatier - Dora Design & Gifts,,,0,2558,51.0722004,,4.97562,Dora Design & Gifts,,,2431.0,Antwerpen,,,,winkel,2025-12-27 18:50:20,
Nierlenderstraat 4/C,Broechem,2025-12-27 18:50:20,Belgische chocolatier - Dotje,Belgian chocolatier - Dotje,Chocolaterie belge - Dotje,Belgische chocolatier - Dotje,,,0,2559,51.1791954,,4.5919923,Dotje,,,2520.0,Antwerpen,,,,winkel,2025-12-27 18:50:20,
Avenue Paul Pastur 57,Mont-sur-Marchienne,2025-12-27 18:50:20,Belgische chocolatier - Douceur Chocolat,Belgian chocolatier - Douceur Chocolat,Chocolaterie belge - Douceur Chocolat,Belgische chocolatier - Douceur Chocolat,,,0,2560,50.3895826,,4.4066136,Douceur Chocolat,,,6032.0,Henegouwen,,,,winkel,2025-12-27 18:50:20,https://www.douce-chocolat.be
Rue Francq 12,Aarlen,2025-12-27 18:50:21,Belgische chocolatier,Artisan chocolate shop offering quality Belgian chocolates.,Chocolaterie artisanale offrant des chocolats belges de qualité.,Belgische chocolatier,Ambachtelijke chocolade,,0,2562,49.68175,,5.8105887,Douceurs Royales,,,6700.0,Luxemburg,Ambachtelijke chocolade,Artisan chocolate,Chocolat artisanal,winkel,2025-12-27 18:50:21,https://boutiquedouceursro.wixsite.com/mysite
Chaussée de Nivelles 400,Liberchies,2025-12-27 18:50:20,Belgische chocolatier - Douceurs du coin,Belgian chocolatier - Douceurs du coin,Chocolaterie belge - Douceurs du coin,Belgische chocolatier - Douceurs du coin,,,0,2561,50.5161545,,4.4108204,Douceurs du coin,,,6238.0,Henegouwen,,,,winkel,2025-12-27 18:50:20,
Woluwedal 4/42,Sint-Stevens-Woluwe,2025-12-27 18:50:21,Belgische chocolatier - Ducobu Roger,Belgian chocolatier - Ducobu Roger,Chocolaterie belge - Ducobu Roger,Belgische chocolatier - Ducobu Roger,,,0,2563,50.8568412,,4.4468027,Ducobu Roger,,,1932.0,Vlaams-Brabant,,,,winkel,2025-12-27 18:50:21,
Avenue des Combattants 32/1,Geldenaken,2025-12-27 18:50:21,Belgische chocolatier - Duroy Jodoigne RC,Belgian chocolatier - Duroy Jodoigne RC,Chocolaterie belge - Duroy Jodoigne RC,Belgische chocolatier - Duroy Jodoigne RC,,,0,2565,50.7237696,,4.869764,Duroy Jodoigne RC,,,1370.0,Waals-Brabant,,,,winkel,2025-12-27 18:50:21,https://www.duroy.be
Clos du Duc 14,Falisolle,2025-12-27 18:50:20,Belgische chocolatier - Délices Nonolulu,Belgian chocolatier - Délices Nonolulu,Chocolaterie belge - Délices Nonolulu,Belgische chocolatier - Délices Nonolulu,,,0,2550,50.4163079,,4.6156295,Délices Nonolulu,,,5060.0,Namen,,,,winkel,2025-12-27 18:50:20,
Eikenlaan 8,Bazel,2025-12-27 18:50:21,Belgische chocolatier - ELILIE,Belgian chocolatier - ELILIE,Chocolaterie belge - ELILIE,Belgische chocolatier - ELILIE,,,0,2566,51.1386999,,4.2994947,ELILIE,,,9150.0,Oost-Vlaanderen,,,,winkel,2025-12-27 18:50:21,https://leonidas.com
Oude Vijversstraat 40,Vorst,2025-12-27 18:50:21,Belgische chocolatier - ELYSBERG CONFISERIE,Belgian chocolatier - ELYSBERG CONFISERIE,Chocolaterie belge - ELYSBERG CONFISERIE,Belgische chocolatier - ELYSBERG CONFISERIE,,,0,2573,50.8179143,,4.3181372,ELYSBERG CONFISERIE,,,1190.0,Brussels Hoofdstedelijk Gewest,,,,winkel,2025-12-27 18:50:21,https://www.elysberg.be
Rue des Mâles Vignes 29/3,Antheit,2025-12-27 18:50:21,Belgische chocolatier - ENTRE SUCRES ET CHOCOLATS,Belgian chocolatier - ENTRE SUCRES ET CHOCOLATS,Chocolaterie belge - ENTRE SUCRES ET CHOCOLATS,Belgische chocolatier - ENTRE SUCRES ET CHOCOLATS,,,0,2574,50.5456547,,5.1997854,ENTRE SUCRES ET CHOCOLATS,,,4520.0,Luik,,,,winkel,2025-12-27 18:50:21,https://www.entre-sucres-et-chocolats.be
Rue du Pairibonnier 8,Wépion,2025-12-27 18:50:21,Belgische chocolatier - EVERARTS JEAN PIERRE,Belgian chocolatier - EVERARTS JEAN PIERRE,Chocolaterie belge - EVERARTS JEAN PIERRE,Belgische chocolatier - EVERARTS JEAN PIERRE,,,0,2575,50.4197108,,4.873388,EVERARTS JEAN PIERRE,,,5100.0,Namen,,,,winkel,2025-12-27 18:50:21,
Grote Markt 2,Antwerpen,2025-12-27 18:50:21,Pralinewinkel op Grote Markt Antwerpen,Artisan chocolate shop offering quality Belgian chocolates.,Chocolaterie artisanale offrant des chocolats belges de qualité.,Pralinewinkel op Grote Markt Antwerpen,Pralines,,0,2567,51.2206244,,4.3994071,Elisa pralines,,,2000.0,Antwerpen,Pralines,Chocolat artisanal,geschenkverpakkingen,winkel,2025-12-27 18:50:21,
Maastrichterstraat 77,Hasselt,2025-12-27 18:50:21,Artisanale chocolatier in Hasselt. Biologische en eerlijke handel chocolade.,Artisan chocolate shop offering quality Belgian chocolates.,Chocolaterie artisanale offrant des chocolats belges de qualité.,Artisanale chocolatier in Hasselt. Biologische en eerlijke handel chocolade.,Bio chocolade,info@elisabeth-chocolade.be,0,2568,50.9298222,,5.3412802,Elisabeth,,+32 11 22 44 55,3500.0,Limburg,Bio chocolade,Chocolat artisanal,fairtrade,beide,2025-12-27 18:50:21,https://www.elisabeth-chocolade.be
Rue au Beurre 43,Bruxelles,2025-12-27 18:50:21,Belgische chocolatier,Belgian chocolatier,Chocolaterie belge,Belgische chocolatier,,,0,2569,50.8473185,,4.3518502,Elisabeth,,+32 2 344 33 03,1000.0,Brussels Hoofdstedelijk Gewest,,,,winkel,2025-12-27 18:50:21,http://www.elisabeth.be/
Av. Louise 49,Bruxelles,2025-12-27 18:50:21,Belgische chocolatier,Belgian chocolatier,Chocolaterie belge,Belgische chocolatier,,,0,2570,50.8338285,,4.3569539,Elisabeth Chocolaterie,,+32 2 269 80 78,1060.0,Brussels Hoofdstedelijk Gewest,,,,winkel,2025-12-27 18:50:21,http://www.elisabeth.be/
Rue de l'Etuve 55,Bruxelles,2025-12-27 18:50:21,Belgische chocolatier,Belgian chocolatier,Chocolaterie belge,Belgische chocolatier,,,0,2571,50.8450582,,4.3498847,Elisabeth Chocolatier Manneken Pis,,+32 2 513 48 55,1000.0,Brussels Hoofdstedelijk Gewest,,,,winkel,2025-12-27 18:50:21,http://www.elisabeth.be/
Riemsterweg 224A,Kleine-Spouwen,2025-12-27 18:50:21,Belgische chocolatier - Ellenoor,Belgian chocolatier - Ellenoor,Chocolaterie belge - Ellenoor,Belgische chocolatier - Ellenoor,,,0,2572,50.8465444,,5.5417626,Ellenoor,,,3740.0,Limburg,,,,winkel,2025-12-27 18:50:21,https://www.ellenoor.be
Stanislaw Maczekpark 70,Sint-Niklaas,2025-12-27 18:50:21,Belgische chocolatier - Fairy Chocolates,Belgian chocolatier - Fairy Chocolates,Chocolaterie belge - Fairy Chocolates,Belgische chocolatier - Fairy Chocolates,,,0,2576,51.1522193,,4.1504422,Fairy Chocolates,,,9100.0,Oost-Vlaanderen,,,,winkel,2025-12-27 18:50:21,http://www.fairychocolates.be
Kapelseweg 65,Hombeek,2025-12-27 18:50:21,Belgische chocolatier - Feron,Belgian chocolatier - Feron,Chocolaterie belge - Feron,Belgische chocolatier - Feron,,,0,2577,51.0182285,,4.4284907,Feron,,,2811.0,Antwerpen,,,,winkel,2025-12-27 18:50:21,
Edingsesteenweg 3,Gooik,2025-12-27 18:50:21,Belgische chocolatier,Artisan chocolate shop offering quality Belgian chocolates.,Chocolaterie artisanale offrant des chocolats belges de qualité.,Belgische chocolatier,Ambachtelijke chocolade,,0,2578,50.8064135,,4.131296,Flavor Shop,,,1755.0,Vlaams-Brabant,Ambachtelijke chocolade,Artisan chocolate,Chocolat artisanal,winkel,2025-12-27 18:50:21,https://www.flavor.shop/nl
Quai aux Briques 24,Brussel,2025-12-27 18:50:21,Ambachtelijke chocolatier in hartje Brussel. Pure chocolade met natuurlijke ingrediënten.,Artisan chocolate shop offering quality Belgian chocolates.,Chocolaterie artisanale offrant des chocolats belges de qualité.,Ambachtelijke chocolatier in hartje Brussel. Pure chocolade met natuurlijke ingrediënten.,Ambachtelijke chocolade,info@fredericblondeel.be,0,2579,50.8515455,,4.3478435,Frederic Blondeel,,+32 2 502 35 60,1000.0,Brussels Hoofdstedelijk Gewest,Ambachtelijke chocolade,Chocolat artisanal,macarons,beide,2025-12-27 18:50:21,https://www.fredericblondeel.be
Rue de Ganshoren 39,Koekelberg,2025-12-27 18:50:21,Belgische chocolatier,Belgian chocolatier,Chocolaterie belge,Belgische chocolatier,,,0,2580,50.8598084,,4.3290426,Frederic Blondeel Chocolate Factory & Shop,,+32 468 31 50 80,1081.0,Brussels Hoofdstedelijk Gewest,,,,winkel,2025-12-27 18:50:21,http://www.frederic-blondeel.be/
Steenstraat 5,Brugge,2025-12-27 18:50:21,Belgische chocolatier - GALLER BRUGGE,Belgian chocolatier - GALLER BRUGGE,Chocolaterie belge - GALLER BRUGGE,Belgische chocolatier - GALLER BRUGGE,,,0,2583,51.2081677,,3.2241004,GALLER BRUGGE,,,8000.0,West-Vlaanderen,,,,winkel,2025-12-27 18:50:21,https://www.galler.com
Rue de la Taille 11/A000,Jemeppe-sur-Sambre,2025-12-27 18:50:21,Belgische chocolatier - GARCIA CHRISTOPHE,Belgian chocolatier - GARCIA CHRISTOPHE,Chocolaterie belge - GARCIA CHRISTOPHE,Belgische chocolatier - GARCIA CHRISTOPHE,,,0,2584,50.4668114,,4.6729889,GARCIA CHRISTOPHE,,,5190.0,Namen,,,,winkel,2025-12-27 18:50:21,
Oevelseweg 102,Olen,2025-12-27 18:50:21,Belgische chocolatier - GEENS VANESSA,Belgian chocolatier - GEENS VANESSA,Chocolaterie belge - GEENS VANESSA,Belgische chocolatier - GEENS VANESSA,,,0,2585,51.1600572,,4.8984129,GEENS VANESSA,,,2250.0,Antwerpen,,,,winkel,2025-12-27 18:50:21,
Zomerlindestraat 1,Dudzele,2025-12-27 18:50:21,Belgische chocolatier - GILDE VAN DE BRUGSE CHOCOLATIERS,Belgian chocolatier - GILDE VAN DE BRUGSE CHOCOLATIERS,Chocolaterie belge - GILDE VAN DE BRUGSE CHOCOLATIERS,Belgische chocolatier - GILDE VAN DE BRUGSE CHOCOLATIERS,,,0,2587,51.2641103,,3.2202395,GILDE VAN DE BRUGSE CHOCOLATIERS,,,8380.0,West-Vlaanderen,,,,winkel,2025-12-27 18:50:21,
Grasmarkt 38-40,Brussel,2025-12-27 18:50:22,Belgische chocolatier - GULLUOGLU,Belgian chocolatier - GULLUOGLU,Chocolaterie belge - GULLUOGLU,Belgische chocolatier - GULLUOGLU,,,0,2590,50.8480935,,4.3522091,GULLUOGLU,,,1000.0,Brussels Hoofdstedelijk Gewest,,,,winkel,2025-12-27 18:50:22,
Schaperstraat 35,Lemberge,2025-12-27 18:50:22,Belgische chocolatier - GVH Tuinen,Belgian chocolatier - GVH Tuinen,Chocolaterie belge - GVH Tuinen,Belgische chocolatier - GVH Tuinen,,,0,2592,50.9831471,,3.7598129,GVH Tuinen,,,9820.0,Oost-Vlaanderen,,,,winkel,2025-12-27 18:50:22,http://www.chocolaterievanhecke.be
Rue de Brichebo 689,Vezin,2025-12-27 18:50:21,Belgische chocolatier - Gabao,Belgian chocolatier - Gabao,Chocolaterie belge - Gabao,Belgische chocolatier - Gabao,,,0,2581,50.4942319,,5.0220333,Gabao,,,5300.0,Namen,,,,winkel,2025-12-27 18:50:21,
Rue du Vieux Moulin 5,Vaux-sous-Chèvremont,2025-12-27 18:50:21,Sinds 1976 gekend om innovatieve chocolade creaties. Hun gevulde tabletten zijn wereldberoemd.,known for innovative chocolate creations. Their filled bars are world-famous.,Depuis 1976. connu pour ses créations chocolatées innovantes. Leurs tablettes fourrées sont mondialement célèbres.,Sinds 1976 gekend om innovatieve chocolade creaties. Hun gevulde tabletten zijn wereldberoemd.,55542571.0,info@galler.com,0,2582,50.6018004,,5.6339283,Galler,506877469.0,+32 4 338 23 40,4051.0,Luik,55542571.0,Gevulde tabletten,,fabrikant,2025-12-27 18:50:21,https://www.galler.com
Manegemstraat 6,Izegem,2025-12-27 18:50:21,Traditionele chocolaterie in Izegem,Artisan chocolate shop offering quality Belgian chocolates.,Chocolaterie artisanale offrant des chocolats belges de qualité.,Traditionele chocolaterie in Izegem,Ambachtelijke pralines,,0,2586,50.908749,,3.2085028,Geldhof-Dewulf Chocolaterie Parfait,,,8870.0,West-Vlaanderen,Ambachtelijke pralines,Artisan chocolate,Chocolat artisanal,winkel,2025-12-27 18:50:21,
Chaussée de l'Europe 7,Wavre,2025-12-27 18:50:22,Wereldberoemd Belgisch chocolademerk opgericht in 1926. Staat bekend om luxe pralines en hoogwaardige chocolade.,World-famous Belgian chocolate brand founded in 1926. Known for luxury pralines and high-quality chocolate.,Marque de chocolat belge de renommée mondiale fondée en 1926. Connue pour ses pralines luxueuses et son chocolat de haute qualité.,Wereldberoemd Belgisch chocolademerk opgericht in 1926. Staat bekend om luxe pralines en hoogwaardige chocolade.,Luxe pralines,contact@godiva.com,0,2588,50.7231225,/logo/godiva.jpg,4.6152531,Godiva,,+32 10 24 24 11,1300.0,Waals-Brabant,Luxe pralines,tabletten,truffels,fabrikant,2025-12-27 18:50:22,https://www.godiva.com
Zuidgoordijkstraat 1,Hulshout,2025-12-27 18:50:22,Belgische chocolatier - Goed Zoet,Belgian chocolatier - Goed Zoet,Chocolaterie belge - Goed Zoet,Belgische chocolatier - Goed Zoet,,,0,2589,51.07911,,4.8081851,Goed Zoet,,,2235.0,Antwerpen,,,,winkel,2025-12-27 18:50:22,
Europaweg 7,Beveren,2025-12-27 18:50:22,Beroemd om hun zeeschelpen pralines sinds 1958. Exporteren naar meer dan 100 landen.,Famous for their seashell-shaped pralines since 1958. Export to over 100 countries.,Célèbre pour ses pralines en forme de coquillages depuis 1958. Exportent vers plus de 100 pays.,Beroemd om hun zeeschelpen pralines sinds 1958. Exporteren naar meer dan 100 landen.,Zeeschelpen,info@guylian.be,0,2591,51.2149837,,4.2313099,Guylian,,+32 3 750 35 00,9120.0,Oost-Vlaanderen,Zeeschelpen,Coquillages,pralines,fabrikant,2025-12-27 18:50:22,https://www.guylian.com
Lenniksebaan 168,Itterbeek,2025-12-27 18:50:22,Belgische chocolatier - HAMZ AND CO,Belgian chocolatier - HAMZ AND CO,Chocolaterie belge - HAMZ AND CO,Belgische chocolatier - HAMZ AND CO,,,0,2593,50.8183147,,4.2354425,HAMZ AND CO,,,1701.0,Vlaams-Brabant,,,,winkel,2025-12-27 18:50:22,
Jetsesteenweg 264/1,Koekelberg,2025-12-27 18:50:22,Belgische chocolatier - HAZIQ,Belgian chocolatier - HAZIQ,Chocolaterie belge - HAZIQ,Belgische chocolatier - HAZIQ,,,0,2595,50.859077,,4.3355703,HAZIQ,,,1081.0,Brussels Hoofdstedelijk Gewest,,,,winkel,2025-12-27 18:50:22,
Burgstraat 43,Gent,2025-12-27 18:50:22,Belgische chocolatier - HILDE DEVOLDER CHOCOLATIER,Belgian chocolatier - HILDE DEVOLDER CHOCOLATIER,Chocolaterie belge - HILDE DEVOLDER CHOCOLATIER,Belgische chocolatier - HILDE DEVOLDER CHOCOLATIER,,,0,2599,51.0561861,,3.7175605,HILDE DEVOLDER CHOCOLATIER,,,9000.0,Oost-Vlaanderen,,,,winkel,2025-12-27 18:50:22,
Gentstraat 43,Deinze,2025-12-27 18:50:22,Belgische chocolatier - HOKUS POKUS TOVERBOL,Belgian chocolatier - HOKUS POKUS TOVERBOL,Chocolaterie belge - HOKUS POKUS TOVERBOL,Belgische chocolatier - HOKUS POKUS TOVERBOL,,,0,2600,50.9798017,,3.5334834,HOKUS POKUS TOVERBOL,,,9800.0,Oost-Vlaanderen,,,,winkel,2025-12-27 18:50:22,https://www.hokus-pokus-toverbol.be
Maastrichterstraat 23,Hasselt,2025-12-27 18:50:22,Belgische chocolatier - Hassolaté,Belgian chocolatier - Hassolaté,Chocolaterie belge - Hassolaté,Belgische chocolatier - Hassolaté,,,0,2594,50.9289271,,5.3387128,Hassolaté,,,3500.0,Limburg,,,,winkel,2025-12-27 18:50:22,
Diestsestraat 23,Leuven,2025-12-27 18:50:22,Belgische chocolatier - Hearts & Flowers,Belgian chocolatier - Hearts & Flowers,Chocolaterie belge - Hearts & Flowers,Belgische chocolatier - Hearts & Flowers,,,0,2596,50.8799962,,4.7026099,Hearts & Flowers,,,3000.0,Vlaams-Brabant,,,,winkel,2025-12-27 18:50:22,
Kerkhofstraat 29,Londerzeel,2025-12-27 18:50:22,Belgische chocolatier - Hendrik Chocolates,Belgian chocolatier - Hendrik Chocolates,Chocolaterie belge - Hendrik Chocolates,Belgische chocolatier - Hendrik Chocolates,,,0,2597,51.0027444,,4.3046392,Hendrik Chocolates,,,1840.0,Vlaams-Brabant,,,,winkel,2025-12-27 18:50:22,
Franklin Rooseveltplein 31,Ronse,2025-12-27 18:50:22,Chocolatier in Ronse,Artisan chocolate shop offering quality Belgian chocolates.,Chocolaterie artisanale offrant des chocolats belges de qualité.,Chocolatier in Ronse,Artisanale chocolade,,0,2598,50.7466447,,3.5995027,Hermes Chocolatier,,,9600.0,Oost-Vlaanderen,Artisanale chocolade,Artisan chocolate,Chocolat artisanal,winkel,2025-12-27 18:50:22,
Zandstraat 71,Diepenbeek,2025-12-27 18:50:22,Belgische chocolatier - Holle Bolle,Belgian chocolatier - Holle Bolle,Chocolaterie belge - Holle Bolle,Belgische chocolatier - Holle Bolle,,,0,2601,50.9191161,,5.4618582,Holle Bolle,,,3590.0,Limburg,,,,winkel,2025-12-27 18:50:22,http://www.hollebolle.be
Oudergemselaan 360,Brussel,2025-12-27 18:50:22,Belgische chocolatier - Hot Chocolate,Belgian chocolatier - Hot Chocolate,Chocolaterie belge - Hot Chocolate,Belgische chocolatier - Hot Chocolate,,,0,2602,50.8398215,,4.3852764,Hot Chocolate,,,1040.0,Brussels Hoofdstedelijk Gewest,,,,winkel,2025-12-27 18:50:22,https://www.leonidas.com
Rue de l'Europe 15,Farciennes,2025-12-27 18:50:22,Belgische chocolatier - INFINY CHOCOLAT,Belgian chocolatier - INFINY CHOCOLAT,Chocolaterie belge - INFINY CHOCOLAT,Belgische chocolatier - INFINY CHOCOLAT,,,0,2603,50.4328866,,4.5432746,INFINY CHOCOLAT,,,6240.0,Henegouwen,,,,winkel,2025-12-27 18:50:22,
Koeisteert 41,Londerzeel,2025-12-27 18:50:22,Belgische chocolatier - JKN INVEST,Belgian chocolatier - JKN INVEST,Chocolaterie belge - JKN INVEST,Belgische chocolatier - JKN INVEST,,,0,2605,51.0336961,,4.2929729,JKN INVEST,,,1840.0,Vlaams-Brabant,,,,winkel,2025-12-27 18:50:22,
Rozenhoedkaai 1,Brugge,2025-12-27 18:50:22,Belgische chocolatier - JT coffee and pralines,Belgian chocolatier - JT coffee and pralines,Chocolaterie belge - JT coffee and pralines,Belgische chocolatier - JT coffee and pralines,,,0,2606,51.2069705,,3.2273492,JT coffee and pralines,,,8000.0,West-Vlaanderen,,,,winkel,2025-12-27 18:50:22,
Place Verte 48,Spa,2025-12-27 18:50:22,Belgische chocolatier - JUBACE,Belgian chocolatier - JUBACE,Chocolaterie belge - JUBACE,Belgische chocolatier - JUBACE,,,0,2607,50.4912534,,5.8632328,JUBACE,,,4900.0,Luik,,,,winkel,2025-12-27 18:50:22,http://www.leonidas-spa.be
Rue de l'Hôtel de Ville 15,Habay-la-Neuve,2025-12-27 18:50:22,Belgische chocolatier - Jean FV Chocolatier,Belgian chocolatier - Jean FV Chocolatier,Chocolaterie belge - Jean FV Chocolatier,Belgische chocolatier - Jean FV Chocolatier,,,0,2604,49.7287859,,5.6485746,Jean FV Chocolatier,,,6720.0,Luxemburg,,,,winkel,2025-12-27 18:50:22,https://www.jeanlechocolatier.be
Bogaardenstraat 2/c,Heist-op-den-Berg,2025-12-27 18:50:22,Belgische chocolatier - Jurgen De Weyer,Belgian chocolatier - Jurgen De Weyer,Chocolaterie belge - Jurgen De Weyer,Belgische chocolatier - Jurgen De Weyer,,,0,2608,51.0558157,,4.6774395,Jurgen De Weyer,,,2220.0,Antwerpen,,,,winkel,2025-12-27 18:50:22,https://www.jurgendeweyer.be
Steenhout 53,Denderwindeke,2025-12-27 18:50:22,Belgische chocolatier - KINE 95,Belgian chocolatier - KINE 95,Chocolaterie belge - KINE 95,Belgische chocolatier - KINE 95,,,0,2612,50.7846347,,4.0312065,KINE 95,,,9400.0,Oost-Vlaanderen,,,,winkel,2025-12-27 18:50:22,
Kouterstraat 91,Overijse,2025-12-27 18:50:22,Belgische chocolatier - KOEL,Belgian chocolatier - KOEL,Chocolaterie belge - KOEL,Belgische chocolatier - KOEL,,,0,2613,50.7783394,,4.5457512,KOEL,,,3090.0,Vlaams-Brabant,,,,winkel,2025-12-27 18:50:22,
Chaussée de Namur 109,Sart-Saint-Laurent,2025-12-27 18:50:22,Belgische chocolatier,Artisan chocolate shop offering quality Belgian chocolates.,Chocolaterie artisanale offrant des chocolats belges de qualité.,Belgische chocolatier,Ambachtelijke chocolade,,0,2609,50.4052667,,4.7427818,Kandy by Kléane,,,5070.0,Namen,Ambachtelijke chocolade,Artisan chocolate,Chocolat artisanal,winkel,2025-12-27 18:50:22,https://kandy-by-kleane.odoo.com
Ruelle de Forêt 2,Mont-sur-Marchienne,2025-12-27 18:50:22,Belgische chocolatier - Kandylicious,Belgian chocolatier - Kandylicious,Chocolaterie belge - Kandylicious,Belgische chocolatier - Kandylicious,,,0,2610,50.3986632,,4.4064223,Kandylicious,,,6032.0,Henegouwen,,,,winkel,2025-12-27 18:50:22,
Koning Albertstraat 16,Hasselt,2025-12-27 18:50:22,Belgische chocolatier - Keeble en Keeble,Belgian chocolatier - Keeble en Keeble,Chocolaterie belge - Keeble en Keeble,Belgische chocolatier - Keeble en Keeble,,,0,2611,50.9288362,,5.3373501,Keeble en Keeble,,,3500.0,Limburg,,,,winkel,2025-12-27 18:50:22,https://www.keebleenkeeble.be
Quai des Vicinaux 24/4,Doornik,2025-12-27 18:50:22,Atelier in Doornik,Artisan chocolate shop offering quality Belgian chocolates.,Chocolaterie artisanale offrant des chocolats belges de qualité.,Atelier in Doornik,Artisanale chocolade,,0,2614,50.6183525,,3.3797764,L Atelier de la Gourmandise,,,7500.0,Henegouwen,Artisanale chocolade,Artisan chocolate,Chocolat artisanal,winkel,2025-12-27 18:50:22,
Rue de la Vaussale 35,Angleur,2025-12-27 18:50:23,Belgische chocolatier - L'ETERNEL EPHEMERE,Belgian chocolatier - L'ETERNEL EPHEMERE,Chocolaterie belge - L'ETERNEL EPHEMERE,Belgische chocolatier - L'ETERNEL EPHEMERE,,,0,2616,50.6117514,,5.6001723,L'ETERNEL EPHEMERE,,,4031.0,Luik,,,,winkel,2025-12-27 18:50:23,
Rue du Baron d'Obin 148,Wasseiges,2025-12-27 18:50:22,Belgische chocolatier - L'Epi d'Or,Belgian chocolatier - L'Epi d'Or,Chocolaterie belge - L'Epi d'Or,Belgische chocolatier - L'Epi d'Or,,,0,2615,50.6229731,,5.0069413,L'Epi d'Or,,,4219.0,Luik,,,,winkel,2025-12-27 18:50:22,
Bosstraat 237,Sint-Pieters-Woluwe,2025-12-27 18:50:23,Belgische chocolatier - LA CABOSSE,Belgian chocolatier - LA CABOSSE,Chocolaterie belge - LA CABOSSE,Belgische chocolatier - LA CABOSSE,,,0,2618,50.8325651,,4.448538,LA CABOSSE,,,1150.0,Brussels Hoofdstedelijk Gewest,,,,winkel,2025-12-27 18:50:23,
Rue de la Station 39,Vaux-sous-Chèvremont,2025-12-27 18:50:23,Belgische chocolatier - LA CHOCOLATERIE GALLER,Belgian chocolatier - LA CHOCOLATERIE GALLER,Chocolaterie belge - LA CHOCOLATERIE GALLER,Belgische chocolatier - LA CHOCOLATERIE GALLER,,,0,2620,50.6036431,,5.6296948,LA CHOCOLATERIE GALLER,,,4051.0,Luik,,,,winkel,2025-12-27 18:50:23,https://www.galler.com
Eugène Flageyplein 24,Elsene,2025-12-27 18:50:23,Belgische chocolatier - LA FLEUR DU PAIN DISTRIBUTION,Belgian chocolatier - LA FLEUR DU PAIN DISTRIBUTION,Chocolaterie belge - LA FLEUR DU PAIN DISTRIBUTION,Belgische chocolatier - LA FLEUR DU PAIN DISTRIBUTION,,,0,2621,50.8278558,,4.3734901,LA FLEUR DU PAIN DISTRIBUTION,,,1050.0,Brussels Hoofdstedelijk Gewest,,,,winkel,2025-12-27 18:50:23,https://www.lafleurdupain.com
Rue Porte Basse 27,Marche-en-Famenne,2025-12-27 18:50:23,Belgische chocolatier - LA PAUSE CHOCOLAT THE,Belgian chocolatier - LA PAUSE CHOCOLAT THE,Chocolaterie belge - LA PAUSE CHOCOLAT THE,Belgische chocolatier - LA PAUSE CHOCOLAT THE,,,0,2623,50.2289237,,5.3442261,LA PAUSE CHOCOLAT THE,,,6900.0,Luxemburg,,,,winkel,2025-12-27 18:50:23,https://www.lapausechocolatthe.be
Rue Menil 88,Freux,2025-12-27 18:50:23,Belgische chocolatier - LA PAUSE CHOCOLAT THE,Belgian chocolatier - LA PAUSE CHOCOLAT THE,Chocolaterie belge - LA PAUSE CHOCOLAT THE,Belgische chocolatier - LA PAUSE CHOCOLAT THE,,,0,2624,49.9757035,,5.4498659,LA PAUSE CHOCOLAT THE,,,6800.0,Luxemburg,,,,winkel,2025-12-27 18:50:23,
Rue de Rotheux 100,Seraing,2025-12-27 18:50:23,Belgische chocolatier - LA PLUME,Belgian chocolatier - LA PLUME,Chocolaterie belge - LA PLUME,Belgische chocolatier - LA PLUME,,,0,2625,50.5850285,,5.5045197,LA PLUME,,,4100.0,Luik,,,,winkel,2025-12-27 18:50:23,
Belliardstraat 208/5,Brussel,2025-12-27 18:50:23,Belgische chocolatier - LAURANS - Haute Chocolaterie,Belgian chocolatier - LAURANS - Haute Chocolaterie,Chocolaterie belge - LAURANS - Haute Chocolaterie,Belgische chocolatier - LAURANS - Haute Chocolaterie,,,0,2628,50.8406804,,4.3775201,LAURANS - Haute Chocolaterie,,,1040.0,Brussels Hoofdstedelijk Gewest,,,,winkel,2025-12-27 18:50:23,
Georges Henrilaan 348,Sint-Lambrechts-Woluwe,2025-12-27 18:50:23,Belgische chocolatier - LE COIN GOURMET,Belgian chocolatier - LE COIN GOURMET,Chocolaterie belge - LE COIN GOURMET,Belgische chocolatier - LE COIN GOURMET,,,0,2633,50.8429986,,4.4087927,LE COIN GOURMET,,,1200.0,Brussels Hoofdstedelijk Gewest,,,,winkel,2025-12-27 18:50:23,
Rue de Behogne 43,Rochefort,2025-12-27 18:50:23,Belgische chocolatier,Artisan chocolate shop offering quality Belgian chocolates.,Chocolaterie artisanale offrant des chocolats belges de qualité.,Belgische chocolatier,Ambachtelijke chocolade,,0,2634,50.1613015,,5.2232363,LE FIGARO,,,5580.0,Namen,Ambachtelijke chocolade,Artisan chocolate,Chocolat artisanal,winkel,2025-12-27 18:50:23,https://www.galler.com
Avenue John-Fitzgerald Kennedy 46,Rixensart,2025-12-27 18:50:23,Belgische chocolatier - LE PLAISIR DU CHOCOLAT SC,Belgian chocolatier - LE PLAISIR DU CHOCOLAT SC,Chocolaterie belge - LE PLAISIR DU CHOCOLAT SC,Belgische chocolatier - LE PLAISIR DU CHOCOLAT SC,,,0,2637,50.7133548,,4.5272897,LE PLAISIR DU CHOCOLAT SC,,,1330.0,Waals-Brabant,,,,winkel,2025-12-27 18:50:23,
Rue de Le Roux 78,Aiseau,2025-12-27 18:50:23,Belgische chocolatier - LEAL MELISSA,Belgian chocolatier - LEAL MELISSA,Chocolaterie belge - LEAL MELISSA,Belgische chocolatier - LEAL MELISSA,,,0,2639,50.4191651,,4.6011694,LEAL MELISSA,,,6250.0,Henegouwen,,,,winkel,2025-12-27 18:50:23,
Dokter Paul Janssenstraat 19,Beerse,2025-12-27 18:50:23,Belgische chocolatier - LENAERTS ANKE,Belgian chocolatier - LENAERTS ANKE,Chocolaterie belge - LENAERTS ANKE,Belgische chocolatier - LENAERTS ANKE,,,0,2640,51.3090784,,4.8218253,LENAERTS ANKE,,,2340.0,Antwerpen,,,,winkel,2025-12-27 18:50:23,
Rue du Commerce 20,Ciney,2025-12-27 18:50:23,Belgische chocolatier,Artisan chocolate shop offering quality Belgian chocolates.,Chocolaterie artisanale offrant des chocolats belges de qualité.,Belgische chocolatier,Ambachtelijke chocolade,,0,2642,50.2948551,,5.0994212,LES DELICES D'HEBE,,,5590.0,Namen,Ambachtelijke chocolade,Artisan chocolate,Chocolat artisanal,winkel,2025-12-27 18:50:23,
Chaussée de Dinant 1147,Wépion,2025-12-27 18:50:24,Belgische chocolatier,Artisan chocolate shop offering quality Belgian chocolates.,Chocolaterie artisanale offrant des chocolats belges de qualité.,Belgische chocolatier,Ambachtelijke chocolade,,0,2643,50.4015627,,4.8791962,LES DOUCEURS DE MAMAN,,,5100.0,Namen,Ambachtelijke chocolade,Artisan chocolate,Chocolat artisanal,winkel,2025-12-27 18:50:24,https://leonidas.com
Rue Nacfer 79,Wihéries,2025-12-27 18:50:24,Belgische chocolatier,Artisan chocolate shop offering quality Belgian chocolates.,Chocolaterie artisanale offrant des chocolats belges de qualité.,Belgische chocolatier,Ambachtelijke chocolade,,0,2649,50.3862952,,3.7505151,LIBRAIRIE NICOLE,,,7370.0,Henegouwen,Ambachtelijke chocolade,Artisan chocolate,Chocolat artisanal,winkel,2025-12-27 18:50:24,https://librairienicole.be
Ravensteingalerij 9,Brussel,2025-12-27 18:50:24,Belgische chocolatier - LIBRAIRIE RAVENSTEIN,Belgian chocolatier - LIBRAIRIE RAVENSTEIN,Chocolaterie belge - LIBRAIRIE RAVENSTEIN,Belgische chocolatier - LIBRAIRIE RAVENSTEIN,,,0,2650,50.8450688,,4.3577342,LIBRAIRIE RAVENSTEIN,,,1000.0,Brussels Hoofdstedelijk Gewest,,,,winkel,2025-12-27 18:50:24,
Chaussée de Hannut 364,Bierset,2025-12-27 18:50:23,Belgische chocolatier,Artisan chocolate shop offering quality Belgian chocolates.,Chocolaterie artisanale offrant des chocolats belges de qualité.,Belgische chocolatier,Ambachtelijke chocolade,,0,2619,50.6516799,,5.4505745,La Chocolaterie du Haut Clocher,,,4460.0,Luik,Ambachtelijke chocolade,Artisan chocolate,Chocolat artisanal,winkel,2025-12-27 18:50:23,https://www.lachocolaterieduhautclocher.be
Rue des Dominicains 38,Luik,2025-12-27 18:50:23,Belgische chocolatier - La Gaufrerie,Belgian chocolatier - La Gaufrerie,Chocolaterie belge - La Gaufrerie,Belgische chocolatier - La Gaufrerie,,,0,2622,50.6422404,,5.5707099,La Gaufrerie,,,4000.0,Luik,,,,winkel,2025-12-27 18:50:23,
Rue aux Gâdes 3,Aat,2025-12-27 18:50:23,Belgische chocolatier - Laetitia Michiels,Belgian chocolatier - Laetitia Michiels,Chocolaterie belge - Laetitia Michiels,Belgische chocolatier - Laetitia Michiels,,,0,2626,50.630292,,3.7766346,Laetitia Michiels,,,7800.0,Henegouwen,,,,winkel,2025-12-27 18:50:23,
Place des Grands Prés 55/4ter,Bergen,2025-12-27 18:50:23,Belgische chocolatier - Laetitia Michiels,Belgian chocolatier - Laetitia Michiels,Chocolaterie belge - Laetitia Michiels,Belgische chocolatier - Laetitia Michiels,,,0,2627,50.4553437,,3.9555446,Laetitia Michiels,,,7000.0,Henegouwen,,,,winkel,2025-12-27 18:50:23,https://www.laetitiachocolatier.be
Rue Ravenstein 2D,Brussels Hoofdstedelijk Gewest,2025-12-27 18:50:23,Creativiteit en originaliteit. Combineert chocolade met thee,Artisan chocolate shop offering quality Belgian chocolates.,Chocolaterie artisanale offrant des chocolats belges de qualité.,Creativiteit en originaliteit. Combineert chocolade met thee,,info@chocolatsgerbaud.be,0,2629,50.8440757,,4.3587693,Laurent Gerbaud,,+32 2 511 16 02,1000.0,Brussels Hoofdstedelijk Gewest,,,,beide,2025-12-27 18:50:23,https://www.chocolatsgerbaud.be
Rue du Vivier 28,Bastenaken,2025-12-27 18:50:23,Belgische chocolatier - Le Ballotin,Belgian chocolatier - Le Ballotin,Chocolaterie belge - Le Ballotin,Belgische chocolatier - Le Ballotin,,,0,2630,50.0017324,,5.71703,Le Ballotin,,,6600.0,Luxemburg,,,,winkel,2025-12-27 18:50:23,
Rue de Beaumont 43,Marchienne-au-Pont,2025-12-27 18:50:23,Belgische chocolatier - Le Ballotin,Belgian chocolatier - Le Ballotin,Chocolaterie belge - Le Ballotin,Belgische chocolatier - Le Ballotin,,,0,2631,50.4049278,,4.3958086,Le Ballotin,,,6030.0,Henegouwen,,,,winkel,2025-12-27 18:50:23,
Rue du Commerce 56,Ciney,2025-12-27 18:50:23,Belgische chocolatier - Le Bonbon Fou,Belgian chocolatier - Le Bonbon Fou,Chocolaterie belge - Le Bonbon Fou,Belgische chocolatier - Le Bonbon Fou,,,0,2632,50.2936693,,5.0980379,Le Bonbon Fou,,,5590.0,Namen,,,,winkel,2025-12-27 18:50:23,
Rue de la Marcelle 157,Couvin,2025-12-27 18:50:23,Belgische chocolatier,Artisan chocolate shop offering quality Belgian chocolates.,Chocolaterie artisanale offrant des chocolats belges de qualité.,Belgische chocolatier,Ambachtelijke chocolade,,0,2635,50.0465724,,4.4989523,Le Furet,,,5660.0,Namen,Ambachtelijke chocolade,Artisan chocolate,Chocolat artisanal,winkel,2025-12-27 18:50:23,
Stationsstraat 14,Eeklo,2025-12-27 18:50:23,Belgische chocolatier - Le Gout D'or,Belgian chocolatier - Le Gout D'or,Chocolaterie belge - Le Gout D'or,Belgische chocolatier - Le Gout D'or,,,0,2636,51.1831186,,3.5683548,Le Gout D'or,,,9900.0,Oost-Vlaanderen,,,,winkel,2025-12-27 18:50:23,
Stoofstraat 6,Brussel,2025-12-27 18:50:23,Belgische chocolatier - Le Temps du Sucre,Belgian chocolatier - Le Temps du Sucre,Chocolaterie belge - Le Temps du Sucre,Belgische chocolatier - Le Temps du Sucre,,,0,2638,50.8458659,,4.3514082,Le Temps du Sucre,,,1000.0,Brussels Hoofdstedelijk Gewest,,,,winkel,2025-12-27 18:50:23,
Rue au Beurre 34,Bruxelles,2025-12-27 18:50:10,Sinds 1913 een Belgische klassieker. Bekend om kwaliteit tegen betaalbare prijzen met meer dan 100 verschillende pralines.,Artisan chocolate shop offering quality Belgian chocolates.,Chocolaterie artisanale offrant des chocolats belges de qualité.,Sinds 1913 een Belgische klassieker. Bekend om kwaliteit tegen betaalbare prijzen met meer dan 100 verschillende pralines.,,,0,2298,50.8474452,/logo/leonidas.jpg,4.3518725,Leonidas,,+32 2 512 87 37,1000.0,Brussels Hoofdstedelijk Gewest,,,,winkel,2025-12-27 18:50:10,https://www.leonidas.com/be_en/shops/bruxelles/leonidas-beurre
Avenue Reine Astrid 7/20,Borgworm,2025-12-27 18:50:10,Sinds 1913 een Belgische klassieker. Bekend om kwaliteit tegen betaalbare prijzen met meer dan 100 verschillende pralines.,Artisan chocolate shop offering quality Belgian chocolates.,Chocolaterie artisanale offrant des chocolats belges de qualité.,Sinds 1913 een Belgische klassieker. Bekend om kwaliteit tegen betaalbare prijzen met meer dan 100 verschillende pralines.,,,0,2299,50.6956846,/logo/leonidas.jpg,5.2526344,Leonidas,,,4300.0,Luik,,,,winkel,2025-12-27 18:50:10,https://leonidas.com
Kapellestraat 71,Aartselaar,2025-12-27 18:50:10,Sinds 1913 een Belgische klassieker. Bekend om kwaliteit tegen betaalbare prijzen met meer dan 100 verschillende pralines.,Artisan chocolate shop offering quality Belgian chocolates.,Chocolaterie artisanale offrant des chocolats belges de qualité.,Sinds 1913 een Belgische klassieker. Bekend om kwaliteit tegen betaalbare prijzen met meer dan 100 verschillende pralines.,,,0,2300,51.1313823,/logo/leonidas.jpg,4.3893724,Leonidas,,,2630.0,Antwerpen,,,,winkel,2025-12-27 18:50:10,https://aartselaar.leonidas.com
Boulevard Jules Graindor 41,Anderlecht,2025-12-27 18:50:10,Sinds 1913 een Belgische klassieker. Bekend om kwaliteit tegen betaalbare prijzen met meer dan 100 verschillende pralines.,Artisan chocolate shop offering quality Belgian chocolates.,Chocolaterie artisanale offrant des chocolats belges de qualité.,Sinds 1913 een Belgische klassieker. Bekend om kwaliteit tegen betaalbare prijzen met meer dan 100 verschillende pralines.,Pralines,info@leonidas.com,0,2301,50.8442381,/logo/leonidas.jpg,4.3164205,Leonidas,,+32 2 521 13 37,1070.0,Brussels Hoofdstedelijk Gewest,Pralines,gianduja,manons,beide,2025-12-27 18:50:10,https://www.leonidas.com
Antwerpsestraat 29,Mortsel,2025-12-27 18:50:10,Sinds 1913 een Belgische klassieker. Bekend om kwaliteit tegen betaalbare prijzen met meer dan 100 verschillende pralines.,Artisan chocolate shop offering quality Belgian chocolates.,Chocolaterie artisanale offrant des chocolats belges de qualité.,Sinds 1913 een Belgische klassieker. Bekend om kwaliteit tegen betaalbare prijzen met meer dan 100 verschillende pralines.,Leonidas pralines,,0,2302,51.1714264,/logo/leonidas.jpg,4.447535,Leonidas,,,2640.0,Antwerpen,Leonidas pralines,Leonidas pralines,Pralines Leonidas,winkel,2025-12-27 18:50:10,
IJzerenleen 29,Mechelen,2025-12-27 18:50:10,Sinds 1913 een Belgische klassieker. Bekend om kwaliteit tegen betaalbare prijzen met meer dan 100 verschillende pralines.,Artisan chocolate shop offering quality Belgian chocolates.,Chocolaterie artisanale offrant des chocolats belges de qualité.,Sinds 1913 een Belgische klassieker. Bekend om kwaliteit tegen betaalbare prijzen met meer dan 100 verschillende pralines.,Leonidas pralines,,0,2303,51.0266709,/logo/leonidas.jpg,4.4789305,Leonidas,,,2800.0,Antwerpen,Leonidas pralines,Leonidas pralines,Pralines Leonidas,winkel,2025-12-27 18:50:10,
Passage 3,Bilzen,2025-12-27 18:50:10,Sinds 1913 een Belgische klassieker. Bekend om kwaliteit tegen betaalbare prijzen met meer dan 100 verschillende pralines.,Artisan chocolate shop offering quality Belgian chocolates.,Chocolaterie artisanale offrant des chocolats belges de qualité.,Sinds 1913 een Belgische klassieker. Bekend om kwaliteit tegen betaalbare prijzen met meer dan 100 verschillende pralines.,Leonidas pralines,,0,2304,50.8710247,/logo/leonidas.jpg,5.5165747,Leonidas,,,3740.0,Limburg,Leonidas pralines,Leonidas pralines,Pralines Leonidas,winkel,2025-12-27 18:50:10,
Dorpstraat 20,Ekeren,2025-12-27 18:50:10,Sinds 1913 een Belgische klassieker. Bekend om kwaliteit tegen betaalbare prijzen met meer dan 100 verschillende pralines.,Artisan chocolate shop offering quality Belgian chocolates.,Chocolaterie artisanale offrant des chocolats belges de qualité.,Sinds 1913 een Belgische klassieker. Bekend om kwaliteit tegen betaalbare prijzen met meer dan 100 verschillende pralines.,Leonidas pralines,,0,2305,51.2787138,/logo/leonidas.jpg,4.4184927,Leonidas,,,2180.0,Antwerpen,Leonidas pralines,Leonidas pralines,Pralines Leonidas,winkel,2025-12-27 18:50:10,
Marktstraat 3,Harelbeke,2025-12-27 18:50:10,Sinds 1913 een Belgische klassieker. Bekend om kwaliteit tegen betaalbare prijzen met meer dan 100 verschillende pralines.,Artisan chocolate shop offering quality Belgian chocolates.,Chocolaterie artisanale offrant des chocolats belges de qualité.,Sinds 1913 een Belgische klassieker. Bekend om kwaliteit tegen betaalbare prijzen met meer dan 100 verschillende pralines.,Leonidas pralines,,0,2306,50.8570008,/logo/leonidas.jpg,3.3118774,Leonidas,,,8530.0,West-Vlaanderen,Leonidas pralines,Leonidas pralines,Pralines Leonidas,winkel,2025-12-27 18:50:10,
Paalstraat 51,Schoten,2025-12-27 18:50:10,Sinds 1913 een Belgische klassieker. Bekend om kwaliteit tegen betaalbare prijzen met meer dan 100 verschillende pralines.,Artisan chocolate shop offering quality Belgian chocolates.,Chocolaterie artisanale offrant des chocolats belges de qualité.,Sinds 1913 een Belgische klassieker. Bekend om kwaliteit tegen betaalbare prijzen met meer dan 100 verschillende pralines.,Leonidas pralines,,0,2307,51.2523327,/logo/leonidas.jpg,4.5001326,Leonidas,,,2900.0,Antwerpen,Leonidas pralines,Leonidas pralines,Pralines Leonidas,winkel,2025-12-27 18:50:10,
Gasthuisstraat 69,Turnhout,2025-12-27 18:50:10,Sinds 1913 een Belgische klassieker. Bekend om kwaliteit tegen betaalbare prijzen met meer dan 100 verschillende pralines.,Artisan chocolate shop offering quality Belgian chocolates.,Chocolaterie artisanale offrant des chocolats belges de qualité.,Sinds 1913 een Belgische klassieker. Bekend om kwaliteit tegen betaalbare prijzen met meer dan 100 verschillende pralines.,Ambachtelijke chocolade,,0,2308,51.3222888,/logo/leonidas.jpg,4.9434476,Leonidas,,,2300.0,Antwerpen,Ambachtelijke chocolade,Leonidas pralines,Pralines Leonidas,winkel,2025-12-27 18:50:10,https://www.pralinco.be
Roodkruisstraat 16,Hamme,2025-12-27 18:50:11,Sinds 1913 een Belgische klassieker. Bekend om kwaliteit tegen betaalbare prijzen met meer dan 100 verschillende pralines.,Artisan chocolate shop offering quality Belgian chocolates.,Chocolaterie artisanale offrant des chocolats belges de qualité.,Sinds 1913 een Belgische klassieker. Bekend om kwaliteit tegen betaalbare prijzen met meer dan 100 verschillende pralines.,Ambachtelijke chocolade,,0,2309,51.1004871,/logo/leonidas.jpg,4.1417536,Leonidas,,,9220.0,Oost-Vlaanderen,Ambachtelijke chocolade,Leonidas pralines,Pralines Leonidas,winkel,2025-12-27 18:50:11,https://www.leonidas.com
Chaussée de Bruxelles 4/F,Baisy-Thy,2025-12-27 18:50:11,Sinds 1913 een Belgische klassieker. Bekend om kwaliteit tegen betaalbare prijzen met meer dan 100 verschillende pralines.,Artisan chocolate shop offering quality Belgian chocolates.,Chocolaterie artisanale offrant des chocolats belges de qualité.,Sinds 1913 een Belgische klassieker. Bekend om kwaliteit tegen betaalbare prijzen met meer dan 100 verschillende pralines.,,,0,2310,50.5978858,/logo/leonidas.jpg,4.4577469,Leonidas,,,1470.0,Waals-Brabant,,Leonidas pralines,Pralines Leonidas,winkel,2025-12-27 18:50:11,https://www.leonidas.com
Gemeenteplein 24,Hoeilaart,2025-12-27 18:50:11,Sinds 1913 een Belgische klassieker. Bekend om kwaliteit tegen betaalbare prijzen met meer dan 100 verschillende pralines.,Artisan chocolate shop offering quality Belgian chocolates.,Chocolaterie artisanale offrant des chocolats belges de qualité.,Sinds 1913 een Belgische klassieker. Bekend om kwaliteit tegen betaalbare prijzen met meer dan 100 verschillende pralines.,,,0,2311,50.7686801,/logo/leonidas.jpg,4.471805,Leonidas,,,1560.0,Vlaams-Brabant,,Leonidas pralines,Pralines Leonidas,winkel,2025-12-27 18:50:11,
Rue du Sablon 23,Bastenaken,2025-12-27 18:50:11,Sinds 1913 een Belgische klassieker. Bekend om kwaliteit tegen betaalbare prijzen met meer dan 100 verschillende pralines.,Artisan chocolate shop offering quality Belgian chocolates.,Chocolaterie artisanale offrant des chocolats belges de qualité.,Sinds 1913 een Belgische klassieker. Bekend om kwaliteit tegen betaalbare prijzen met meer dan 100 verschillende pralines.,,,0,2312,50.0014856,/logo/leonidas.jpg,5.7162718,Leonidas,,,6600.0,Luxemburg,,Leonidas pralines,Pralines Leonidas,winkel,2025-12-27 18:50:11,https://leonidas.com
Boondaalse Steenweg 451,Elsene,2025-12-27 18:50:11,Sinds 1913 een Belgische klassieker. Bekend om kwaliteit tegen betaalbare prijzen met meer dan 100 verschillende pralines.,Artisan chocolate shop offering quality Belgian chocolates.,Chocolaterie artisanale offrant des chocolats belges de qualité.,Sinds 1913 een Belgische klassieker. Bekend om kwaliteit tegen betaalbare prijzen met meer dan 100 verschillende pralines.,,,0,2313,50.8164002,/logo/leonidas.jpg,4.3890508,Leonidas,,,1050.0,Brussels Hoofdstedelijk Gewest,,Leonidas pralines,Pralines Leonidas,winkel,2025-12-27 18:50:11,https://www.leonidas.com
Grand'Place 72,Doornik,2025-12-27 18:50:11,Sinds 1913 een Belgische klassieker. Bekend om kwaliteit tegen betaalbare prijzen met meer dan 100 verschillende pralines.,Artisan chocolate shop offering quality Belgian chocolates.,Chocolaterie artisanale offrant des chocolats belges de qualité.,Sinds 1913 een Belgische klassieker. Bekend om kwaliteit tegen betaalbare prijzen met meer dan 100 verschillende pralines.,,,0,2314,50.6057298,/logo/leonidas.jpg,3.3875108,Leonidas,,,7500.0,Henegouwen,,Leonidas pralines,Pralines Leonidas,winkel,2025-12-27 18:50:11,http://www.multidelices.be
Rue de Mons 163,Hornu,2025-12-27 18:50:11,Sinds 1913 een Belgische klassieker. Bekend om kwaliteit tegen betaalbare prijzen met meer dan 100 verschillende pralines.,Artisan chocolate shop offering quality Belgian chocolates.,Chocolaterie artisanale offrant des chocolats belges de qualité.,Sinds 1913 een Belgische klassieker. Bekend om kwaliteit tegen betaalbare prijzen met meer dan 100 verschillende pralines.,,,0,2315,50.4375381,/logo/leonidas.jpg,3.8387065,Leonidas,,,7301.0,Henegouwen,,Leonidas pralines,Pralines Leonidas,winkel,2025-12-27 18:50:11,https://www.leonidascommercialagr.be
De Stropersstraat 1,Kemzeke,2025-12-27 18:50:11,Sinds 1913 een Belgische klassieker. Bekend om kwaliteit tegen betaalbare prijzen met meer dan 100 verschillende pralines.,Artisan chocolate shop offering quality Belgian chocolates.,Chocolaterie artisanale offrant des chocolats belges de qualité.,Sinds 1913 een Belgische klassieker. Bekend om kwaliteit tegen betaalbare prijzen met meer dan 100 verschillende pralines.,,,0,2316,51.2474644,/logo/leonidas.jpg,4.0642441,Leonidas,,,9190.0,Oost-Vlaanderen,,Leonidas pralines,Pralines Leonidas,winkel,2025-12-27 18:50:11,https://www.leonidas-fleur.be
Sint-Lambertusstraat 200,Sint-Lambrechts-Woluwe,2025-12-27 18:50:11,Sinds 1913 een Belgische klassieker. Bekend om kwaliteit tegen betaalbare prijzen met meer dan 100 verschillende pralines.,Artisan chocolate shop offering quality Belgian chocolates.,Chocolaterie artisanale offrant des chocolats belges de qualité.,Sinds 1913 een Belgische klassieker. Bekend om kwaliteit tegen betaalbare prijzen met meer dan 100 verschillende pralines.,,,0,2317,50.8462573,/logo/leonidas.jpg,4.4375393,Leonidas,,,1200.0,Brussels Hoofdstedelijk Gewest,,Leonidas pralines,Pralines Leonidas,winkel,2025-12-27 18:50:11,https://www.leonidas.com
Ooststraat 39,Veurne,2025-12-27 18:50:11,Sinds 1913 een Belgische klassieker. Bekend om kwaliteit tegen betaalbare prijzen met meer dan 100 verschillende pralines.,Artisan chocolate shop offering quality Belgian chocolates.,Chocolaterie artisanale offrant des chocolats belges de qualité.,Sinds 1913 een Belgische klassieker. Bekend om kwaliteit tegen betaalbare prijzen met meer dan 100 verschillende pralines.,,,0,2318,51.0727438,/logo/leonidas.jpg,2.6657325,Leonidas,,,8630.0,West-Vlaanderen,,Leonidas pralines,Pralines Leonidas,winkel,2025-12-27 18:50:11,https://www.q8.be
Leuvensesteenweg 3 A,Tervuren,2025-12-27 18:50:11,Sinds 1913 een Belgische klassieker. Bekend om kwaliteit tegen betaalbare prijzen met meer dan 100 verschillende pralines.,Artisan chocolate shop offering quality Belgian chocolates.,Chocolaterie artisanale offrant des chocolats belges de qualité.,Sinds 1913 een Belgische klassieker. Bekend om kwaliteit tegen betaalbare prijzen met meer dan 100 verschillende pralines.,,,0,2319,50.8439715,/logo/leonidas.jpg,4.5582602,Leonidas,,,3080.0,Vlaams-Brabant,,Leonidas pralines,Pralines Leonidas,winkel,2025-12-27 18:50:11,
Wichelse steenweg 194D,Lede,2025-12-27 18:50:11,Sinds 1913 een Belgische klassieker. Bekend om kwaliteit tegen betaalbare prijzen met meer dan 100 verschillende pralines.,Artisan chocolate shop offering quality Belgian chocolates.,Chocolaterie artisanale offrant des chocolats belges de qualité.,Sinds 1913 een Belgische klassieker. Bekend om kwaliteit tegen betaalbare prijzen met meer dan 100 verschillende pralines.,,,0,2320,50.9802616,/logo/leonidas.jpg,3.9735616,Leonidas,,,9340.0,Oost-Vlaanderen,,Leonidas pralines,Pralines Leonidas,winkel,2025-12-27 18:50:11,https://leonidas.com
Wayezstraat 140,Anderlecht,2025-12-27 18:50:11,Sinds 1913 een Belgische klassieker. Bekend om kwaliteit tegen betaalbare prijzen met meer dan 100 verschillende pralines.,Artisan chocolate shop offering quality Belgian chocolates.,Chocolaterie artisanale offrant des chocolats belges de qualité.,Sinds 1913 een Belgische klassieker. Bekend om kwaliteit tegen betaalbare prijzen met meer dan 100 verschillende pralines.,,,0,2321,50.835292,/logo/leonidas.jpg,4.3104553,Leonidas,,,1070.0,Brussels Hoofdstedelijk Gewest,,Leonidas pralines,Pralines Leonidas,winkel,2025-12-27 18:50:11,https://www.leonidas.com
Leuvensestraat 46,Vilvoorde,2025-12-27 18:50:11,Sinds 1913 een Belgische klassieker. Bekend om kwaliteit tegen betaalbare prijzen met meer dan 100 verschillende pralines.,Artisan chocolate shop offering quality Belgian chocolates.,Chocolaterie artisanale offrant des chocolats belges de qualité.,Sinds 1913 een Belgische klassieker. Bekend om kwaliteit tegen betaalbare prijzen met meer dan 100 verschillende pralines.,,,0,2322,50.928069,/logo/leonidas.jpg,4.4264725,Leonidas,,,1800.0,Vlaams-Brabant,,Leonidas pralines,Pralines Leonidas,winkel,2025-12-27 18:50:11,https://www.leonidas.com
Aachener Straße 53B,Eynatten,2025-12-27 18:50:11,Sinds 1913 een Belgische klassieker. Bekend om kwaliteit tegen betaalbare prijzen met meer dan 100 verschillende pralines.,Artisan chocolate shop offering quality Belgian chocolates.,Chocolaterie artisanale offrant des chocolats belges de qualité.,Sinds 1913 een Belgische klassieker. Bekend om kwaliteit tegen betaalbare prijzen met meer dan 100 verschillende pralines.,,,0,2323,50.697514,/logo/leonidas.jpg,6.0834186,Leonidas,,,4731.0,Luik,,Leonidas pralines,Pralines Leonidas,winkel,2025-12-27 18:50:11,
Rue Le Marais 36,Fize-Fontaine,2025-12-27 18:50:11,Sinds 1913 een Belgische klassieker. Bekend om kwaliteit tegen betaalbare prijzen met meer dan 100 verschillende pralines.,Artisan chocolate shop offering quality Belgian chocolates.,Chocolaterie artisanale offrant des chocolats belges de qualité.,Sinds 1913 een Belgische klassieker. Bekend om kwaliteit tegen betaalbare prijzen met meer dan 100 verschillende pralines.,,,0,2324,50.582757,/logo/leonidas.jpg,5.2785889,Leonidas,,,4530.0,Luik,,Leonidas pralines,Pralines Leonidas,winkel,2025-12-27 18:50:11,http://www.leonidas-wh.be
Kapelstraat 131,Bredene,2025-12-27 18:50:11,Sinds 1913 een Belgische klassieker. Bekend om kwaliteit tegen betaalbare prijzen met meer dan 100 verschillende pralines.,Artisan chocolate shop offering quality Belgian chocolates.,Chocolaterie artisanale offrant des chocolats belges de qualité.,Sinds 1913 een Belgische klassieker. Bekend om kwaliteit tegen betaalbare prijzen met meer dan 100 verschillende pralines.,,,0,2325,51.2551115,/logo/leonidas.jpg,2.9852449,Leonidas,,,8450.0,West-Vlaanderen,,Leonidas pralines,Pralines Leonidas,winkel,2025-12-27 18:50:11,https://leonidas.com
Rue de Maire 6,Froyennes,2025-12-27 18:50:11,Sinds 1913 een Belgische klassieker. Bekend om kwaliteit tegen betaalbare prijzen met meer dan 100 verschillende pralines.,Artisan chocolate shop offering quality Belgian chocolates.,Chocolaterie artisanale offrant des chocolats belges de qualité.,Sinds 1913 een Belgische klassieker. Bekend om kwaliteit tegen betaalbare prijzen met meer dan 100 verschillende pralines.,,,0,2326,50.6260391,/logo/leonidas.jpg,3.3697198,Leonidas,,,7503.0,Henegouwen,,Leonidas pralines,Pralines Leonidas,winkel,2025-12-27 18:50:11,http://www.multidelices.be
Route de Philippeville 323,Couillet,2025-12-27 18:50:11,Sinds 1913 een Belgische klassieker. Bekend om kwaliteit tegen betaalbare prijzen met meer dan 100 verschillende pralines.,Artisan chocolate shop offering quality Belgian chocolates.,Chocolaterie artisanale offrant des chocolats belges de qualité.,Sinds 1913 een Belgische klassieker. Bekend om kwaliteit tegen betaalbare prijzen met meer dan 100 verschillende pralines.,,,0,2327,50.3919379,/logo/leonidas.jpg,4.4586233,Leonidas,,,6010.0,Henegouwen,,Leonidas pralines,Pralines Leonidas,winkel,2025-12-27 18:50:11,https://www.confiseriecharleroi.be
Chaussée du Roeulx 437,Bergen,2025-12-27 18:50:11,Sinds 1913 een Belgische klassieker. Bekend om kwaliteit tegen betaalbare prijzen met meer dan 100 verschillende pralines.,Artisan chocolate shop offering quality Belgian chocolates.,Chocolaterie artisanale offrant des chocolats belges de qualité.,Sinds 1913 een Belgische klassieker. Bekend om kwaliteit tegen betaalbare prijzen met meer dan 100 verschillende pralines.,,,0,2328,50.4585516,/logo/leonidas.jpg,3.9950256,Leonidas,,,7000.0,Henegouwen,,Leonidas pralines,Pralines Leonidas,winkel,2025-12-27 18:50:11,https://www.leonidas.com
Rue des Bastions,Doornik,2025-12-27 18:50:11,Sinds 1913 een Belgische klassieker. Bekend om kwaliteit tegen betaalbare prijzen met meer dan 100 verschillende pralines.,Artisan chocolate shop offering quality Belgian chocolates.,Chocolaterie artisanale offrant des chocolats belges de qualité.,Sinds 1913 een Belgische klassieker. Bekend om kwaliteit tegen betaalbare prijzen met meer dan 100 verschillende pralines.,,,0,2329,50.6041265,/logo/leonidas.jpg,3.407141,Leonidas,,,7500.0,Henegouwen,,Leonidas pralines,Pralines Leonidas,winkel,2025-12-27 18:50:11,http://www.multidelices.be
Grand'Rue (CH) 143,Montignies-sur-Sambre,2025-12-27 18:50:11,Sinds 1913 een Belgische klassieker. Bekend om kwaliteit tegen betaalbare prijzen met meer dan 100 verschillende pralines.,Artisan chocolate shop offering quality Belgian chocolates.,Chocolaterie artisanale offrant des chocolats belges de qualité.,Sinds 1913 een Belgische klassieker. Bekend om kwaliteit tegen betaalbare prijzen met meer dan 100 verschillende pralines.,,,0,2330,50.410916,/logo/leonidas.jpg,4.4671248,Leonidas,,,6000.0,Henegouwen,,Leonidas pralines,Pralines Leonidas,winkel,2025-12-27 18:50:11,https://www.confiseriecharleroi.be
Kerkstraat 96/a,Sint-Pieters-Woluwe,2025-12-27 18:50:11,Sinds 1913 een Belgische klassieker. Bekend om kwaliteit tegen betaalbare prijzen met meer dan 100 verschillende pralines.,Artisan chocolate shop offering quality Belgian chocolates.,Chocolaterie artisanale offrant des chocolats belges de qualité.,Sinds 1913 een Belgische klassieker. Bekend om kwaliteit tegen betaalbare prijzen met meer dan 100 verschillende pralines.,,,0,2331,50.84129,/logo/leonidas.jpg,4.4644656,Leonidas,,,1150.0,Brussels Hoofdstedelijk Gewest,,Leonidas pralines,Pralines Leonidas,winkel,2025-12-27 18:50:11,
Rue des Frères Wright 8,Gosselies,2025-12-27 18:50:11,Sinds 1913 een Belgische klassieker. Bekend om kwaliteit tegen betaalbare prijzen met meer dan 100 verschillende pralines.,Artisan chocolate shop offering quality Belgian chocolates.,Chocolaterie artisanale offrant des chocolats belges de qualité.,Sinds 1913 een Belgische klassieker. Bekend om kwaliteit tegen betaalbare prijzen met meer dan 100 verschillende pralines.,,,0,2332,50.4636373,/logo/leonidas.jpg,4.4661733,Leonidas,,,6041.0,Henegouwen,,Leonidas pralines,Pralines Leonidas,winkel,2025-12-27 18:50:11,https://www.leonidas-piettelemille.be
Boondaalse Steenweg 451,Elsene,2025-12-27 18:50:11,Sinds 1913 een Belgische klassieker. Bekend om kwaliteit tegen betaalbare prijzen met meer dan 100 verschillende pralines.,Artisan chocolate shop offering quality Belgian chocolates.,Chocolaterie artisanale offrant des chocolats belges de qualité.,Sinds 1913 een Belgische klassieker. Bekend om kwaliteit tegen betaalbare prijzen met meer dan 100 verschillende pralines.,,,0,2333,50.8164002,/logo/leonidas.jpg,4.3890508,Leonidas,,,1050.0,Brussels Hoofdstedelijk Gewest,,Leonidas pralines,Pralines Leonidas,winkel,2025-12-27 18:50:11,https://www.leonidas.com
Rue de la Libération 68/2,Kasteelbrakel,2025-12-27 18:50:12,Sinds 1913 een Belgische klassieker. Bekend om kwaliteit tegen betaalbare prijzen met meer dan 100 verschillende pralines.,Artisan chocolate shop offering quality Belgian chocolates.,Chocolaterie artisanale offrant des chocolats belges de qualité.,Sinds 1913 een Belgische klassieker. Bekend om kwaliteit tegen betaalbare prijzen met meer dan 100 verschillende pralines.,,,0,2334,50.6824728,/logo/leonidas.jpg,4.2685225,Leonidas,,,1440.0,Waals-Brabant,,Leonidas pralines,Pralines Leonidas,winkel,2025-12-27 18:50:12,https://www.leonidas.com
Leuvensestraat 46,Vilvoorde,2025-12-27 18:50:12,Sinds 1913 een Belgische klassieker. Bekend om kwaliteit tegen betaalbare prijzen met meer dan 100 verschillende pralines.,Artisan chocolate shop offering quality Belgian chocolates.,Chocolaterie artisanale offrant des chocolats belges de qualité.,Sinds 1913 een Belgische klassieker. Bekend om kwaliteit tegen betaalbare prijzen met meer dan 100 verschillende pralines.,,,0,2335,50.928069,/logo/leonidas.jpg,4.4264725,Leonidas,,,1800.0,Vlaams-Brabant,,Leonidas pralines,Pralines Leonidas,winkel,2025-12-27 18:50:12,https://www.leonidas.com
Mudakkers 19,Lommel,2025-12-27 18:50:12,Sinds 1913 een Belgische klassieker. Bekend om kwaliteit tegen betaalbare prijzen met meer dan 100 verschillende pralines.,Artisan chocolate shop offering quality Belgian chocolates.,Chocolaterie artisanale offrant des chocolats belges de qualité.,Sinds 1913 een Belgische klassieker. Bekend om kwaliteit tegen betaalbare prijzen met meer dan 100 verschillende pralines.,,,0,2336,51.2309344,/logo/leonidas.jpg,5.3112445,Leonidas,,,3920.0,Limburg,,Leonidas pralines,Pralines Leonidas,winkel,2025-12-27 18:50:12,https://www.leonidas.com
Chaussée de Lille 957,Blandain,2025-12-27 18:50:12,Sinds 1913 een Belgische klassieker. Bekend om kwaliteit tegen betaalbare prijzen met meer dan 100 verschillende pralines.,Artisan chocolate shop offering quality Belgian chocolates.,Chocolaterie artisanale offrant des chocolats belges de qualité.,Sinds 1913 een Belgische klassieker. Bekend om kwaliteit tegen betaalbare prijzen met meer dan 100 verschillende pralines.,,,0,2337,50.6082017,/logo/leonidas.jpg,3.2718737,Leonidas,,,7522.0,Henegouwen,,Leonidas pralines,Pralines Leonidas,winkel,2025-12-27 18:50:12,https://www.leonidas.com
De Stropersstraat 1,Kemzeke,2025-12-27 18:50:12,Sinds 1913 een Belgische klassieker. Bekend om kwaliteit tegen betaalbare prijzen met meer dan 100 verschillende pralines.,Artisan chocolate shop offering quality Belgian chocolates.,Chocolaterie artisanale offrant des chocolats belges de qualité.,Sinds 1913 een Belgische klassieker. Bekend om kwaliteit tegen betaalbare prijzen met meer dan 100 verschillende pralines.,,,0,2338,51.2474644,/logo/leonidas.jpg,4.0642441,Leonidas,,,9190.0,Oost-Vlaanderen,,Leonidas pralines,Pralines Leonidas,winkel,2025-12-27 18:50:12,https://www.leonidas-fleur.be
Chaussée de Tongres 269,Rocourt,2025-12-27 18:50:12,Sinds 1913 een Belgische klassieker. Bekend om kwaliteit tegen betaalbare prijzen met meer dan 100 verschillende pralines.,Artisan chocolate shop offering quality Belgian chocolates.,Chocolaterie artisanale offrant des chocolats belges de qualité.,Sinds 1913 een Belgische klassieker. Bekend om kwaliteit tegen betaalbare prijzen met meer dan 100 verschillende pralines.,,,0,2339,50.6700118,/logo/leonidas.jpg,5.5452959,Leonidas,,,4000.0,Luik,,Leonidas pralines,Pralines Leonidas,winkel,2025-12-27 18:50:12,https://leonidas.com
Kronenhoekstraat 47,Sint-Gillis-Waas,2025-12-27 18:50:12,Sinds 1913 een Belgische klassieker. Bekend om kwaliteit tegen betaalbare prijzen met meer dan 100 verschillende pralines.,Artisan chocolate shop offering quality Belgian chocolates.,Chocolaterie artisanale offrant des chocolats belges de qualité.,Sinds 1913 een Belgische klassieker. Bekend om kwaliteit tegen betaalbare prijzen met meer dan 100 verschillende pralines.,,,0,2340,51.2217976,/logo/leonidas.jpg,4.1236386,Leonidas,,,9170.0,Oost-Vlaanderen,,Leonidas pralines,Pralines Leonidas,winkel,2025-12-27 18:50:12,https://www.leonidas-fleur.be
Stoofstraat 27,Brussel,2025-12-27 18:50:12,Sinds 1913 een Belgische klassieker. Bekend om kwaliteit tegen betaalbare prijzen met meer dan 100 verschillende pralines.,Artisan chocolate shop offering quality Belgian chocolates.,Chocolaterie artisanale offrant des chocolats belges de qualité.,Sinds 1913 een Belgische klassieker. Bekend om kwaliteit tegen betaalbare prijzen met meer dan 100 verschillende pralines.,,,0,2341,50.8455539,/logo/leonidas.jpg,4.3506082,Leonidas,,,1000.0,Brussels Hoofdstedelijk Gewest,,Leonidas pralines,Pralines Leonidas,winkel,2025-12-27 18:50:12,https://www.leonidas.com
Vredelaan 19/9,Houthalen,2025-12-27 18:50:12,Sinds 1913 een Belgische klassieker. Bekend om kwaliteit tegen betaalbare prijzen met meer dan 100 verschillende pralines.,Artisan chocolate shop offering quality Belgian chocolates.,Chocolaterie artisanale offrant des chocolats belges de qualité.,Sinds 1913 een Belgische klassieker. Bekend om kwaliteit tegen betaalbare prijzen met meer dan 100 verschillende pralines.,,,0,2342,51.0319017,/logo/leonidas.jpg,5.3737104,Leonidas,,,3530.0,Limburg,,Leonidas pralines,Pralines Leonidas,winkel,2025-12-27 18:50:12,
Lange Zoutstraat 37,Aalst,2025-12-27 18:50:12,Sinds 1913 een Belgische klassieker. Bekend om kwaliteit tegen betaalbare prijzen met meer dan 100 verschillende pralines.,Artisan chocolate shop offering quality Belgian chocolates.,Chocolaterie artisanale offrant des chocolats belges de qualité.,Sinds 1913 een Belgische klassieker. Bekend om kwaliteit tegen betaalbare prijzen met meer dan 100 verschillende pralines.,,,0,2343,50.9369887,/logo/leonidas.jpg,4.0392079,Leonidas,,,9300.0,Oost-Vlaanderen,,Leonidas pralines,Pralines Leonidas,winkel,2025-12-27 18:50:12,https://www.leonidas.com
Markt 24,Sint-Katelijne-Waver,2025-12-27 18:50:12,Sinds 1913 een Belgische klassieker. Bekend om kwaliteit tegen betaalbare prijzen met meer dan 100 verschillende pralines.,Artisan chocolate shop offering quality Belgian chocolates.,Chocolaterie artisanale offrant des chocolats belges de qualité.,Sinds 1913 een Belgische klassieker. Bekend om kwaliteit tegen betaalbare prijzen met meer dan 100 verschillende pralines.,,,0,2344,51.0704299,/logo/leonidas.jpg,4.5318406,Leonidas,,,2860.0,Antwerpen,,Leonidas pralines,Pralines Leonidas,winkel,2025-12-27 18:50:12,https://leonidas.com
Chaussée Montgomery 51,La Glanerie,2025-12-27 18:50:12,Sinds 1913 een Belgische klassieker. Bekend om kwaliteit tegen betaalbare prijzen met meer dan 100 verschillende pralines.,Artisan chocolate shop offering quality Belgian chocolates.,Chocolaterie artisanale offrant des chocolats belges de qualité.,Sinds 1913 een Belgische klassieker. Bekend om kwaliteit tegen betaalbare prijzen met meer dan 100 verschillende pralines.,,,0,2345,50.5340325,/logo/leonidas.jpg,3.2904212,Leonidas,,,7611.0,Henegouwen,,Leonidas pralines,Pralines Leonidas,winkel,2025-12-27 18:50:12,https://www.leonidascommercialagr.be
Vanderkinderestraat 200,Ukkel,2025-12-27 18:50:12,Sinds 1913 een Belgische klassieker. Bekend om kwaliteit tegen betaalbare prijzen met meer dan 100 verschillende pralines.,Artisan chocolate shop offering quality Belgian chocolates.,Chocolaterie artisanale offrant des chocolats belges de qualité.,Sinds 1913 een Belgische klassieker. Bekend om kwaliteit tegen betaalbare prijzen met meer dan 100 verschillende pralines.,,,0,2346,50.8140059,/logo/leonidas.jpg,4.3486448,Leonidas,,,1180.0,Brussels Hoofdstedelijk Gewest,,Leonidas pralines,Pralines Leonidas,winkel,2025-12-27 18:50:12,https://www.leonidas.com
Métro Rogier 9,Bruxelles,2025-12-27 18:50:12,Sinds 1913 een Belgische klassieker. Bekend om kwaliteit tegen betaalbare prijzen met meer dan 100 verschillende pralines.,Artisan chocolate shop offering quality Belgian chocolates.,Chocolaterie artisanale offrant des chocolats belges de qualité.,Sinds 1913 een Belgische klassieker. Bekend om kwaliteit tegen betaalbare prijzen met meer dan 100 verschillende pralines.,,,0,2347,50.8614048,/logo/leonidas.jpg,4.3525494,Leonidas,,,1000.0,Brussels Hoofdstedelijk Gewest,,Leonidas pralines,Pralines Leonidas,winkel,2025-12-27 18:50:12,https://www.leonidas.com
Mechelsesteenweg 67,Kampenhout,2025-12-27 18:50:12,Sinds 1913 een Belgische klassieker. Bekend om kwaliteit tegen betaalbare prijzen met meer dan 100 verschillende pralines.,Artisan chocolate shop offering quality Belgian chocolates.,Chocolaterie artisanale offrant des chocolats belges de qualité.,Sinds 1913 een Belgische klassieker. Bekend om kwaliteit tegen betaalbare prijzen met meer dan 100 verschillende pralines.,,,0,2348,50.9591037,/logo/leonidas.jpg,4.5865153,Leonidas,,,1910.0,Vlaams-Brabant,,Leonidas pralines,Pralines Leonidas,winkel,2025-12-27 18:50:12,http://www.balloonwarehouse.be
Charleroise Steenweg 2B,Sint-Gillis,2025-12-27 18:50:12,Sinds 1913 een Belgische klassieker. Bekend om kwaliteit tegen betaalbare prijzen met meer dan 100 verschillende pralines.,Artisan chocolate shop offering quality Belgian chocolates.,Chocolaterie artisanale offrant des chocolats belges de qualité.,Sinds 1913 een Belgische klassieker. Bekend om kwaliteit tegen betaalbare prijzen met meer dan 100 verschillende pralines.,,,0,2349,50.8327135,/logo/leonidas.jpg,4.3571021,Leonidas,,,1060.0,Brussels Hoofdstedelijk Gewest,,Leonidas pralines,Pralines Leonidas,winkel,2025-12-27 18:50:12,https://www.leonidas.com
Bredabaan 424,Merksem,2025-12-27 18:50:12,Sinds 1913 een Belgische klassieker. Bekend om kwaliteit tegen betaalbare prijzen met meer dan 100 verschillende pralines.,Artisan chocolate shop offering quality Belgian chocolates.,Chocolaterie artisanale offrant des chocolats belges de qualité.,Sinds 1913 een Belgische klassieker. Bekend om kwaliteit tegen betaalbare prijzen met meer dan 100 verschillende pralines.,,,0,2350,51.2441149,/logo/leonidas.jpg,4.444149,Leonidas,,,2170.0,Antwerpen,,Leonidas pralines,Pralines Leonidas,winkel,2025-12-27 18:50:12,https://www.leonidas.com
Lennikse Baan 806,Anderlecht,2025-12-27 18:50:12,Sinds 1913 een Belgische klassieker. Bekend om kwaliteit tegen betaalbare prijzen met meer dan 100 verschillende pralines.,Artisan chocolate shop offering quality Belgian chocolates.,Chocolaterie artisanale offrant des chocolats belges de qualité.,Sinds 1913 een Belgische klassieker. Bekend om kwaliteit tegen betaalbare prijzen met meer dan 100 verschillende pralines.,,,0,2351,50.8141532,/logo/leonidas.jpg,4.2671464,Leonidas,,,1070.0,Brussels Hoofdstedelijk Gewest,,Leonidas pralines,Pralines Leonidas,winkel,2025-12-27 18:50:12,https://www.leonidas.com
Chaussée d'Alsemberg 421,Braine-l'Alleud,2025-12-27 18:50:12,Sinds 1913 een Belgische klassieker. Bekend om kwaliteit tegen betaalbare prijzen met meer dan 100 verschillende pralines.,Artisan chocolate shop offering quality Belgian chocolates.,Chocolaterie artisanale offrant des chocolats belges de qualité.,Sinds 1913 een Belgische klassieker. Bekend om kwaliteit tegen betaalbare prijzen met meer dan 100 verschillende pralines.,,,0,2352,50.6964361,/logo/leonidas.jpg,4.3648019,Leonidas,,,1420.0,Waals-Brabant,,Leonidas pralines,Pralines Leonidas,winkel,2025-12-27 18:50:12,https://linktr.ee/bgbraine
Chaussée du Roeulx 437,Bergen,2025-12-27 18:50:12,Sinds 1913 een Belgische klassieker. Bekend om kwaliteit tegen betaalbare prijzen met meer dan 100 verschillende pralines.,Artisan chocolate shop offering quality Belgian chocolates.,Chocolaterie artisanale offrant des chocolats belges de qualité.,Sinds 1913 een Belgische klassieker. Bekend om kwaliteit tegen betaalbare prijzen met meer dan 100 verschillende pralines.,,,0,2353,50.4585516,/logo/leonidas.jpg,3.9950256,Leonidas,,,7000.0,Henegouwen,,Leonidas pralines,Pralines Leonidas,winkel,2025-12-27 18:50:12,https://www.leonidas.com
Neerstraat 14,Tessenderlo,2025-12-27 18:50:12,Sinds 1913 een Belgische klassieker. Bekend om kwaliteit tegen betaalbare prijzen met meer dan 100 verschillende pralines.,Artisan chocolate shop offering quality Belgian chocolates.,Chocolaterie artisanale offrant des chocolats belges de qualité.,Sinds 1913 een Belgische klassieker. Bekend om kwaliteit tegen betaalbare prijzen met meer dan 100 verschillende pralines.,,,0,2354,51.0685801,/logo/leonidas.jpg,5.0882423,Leonidas,,,3980.0,Limburg,,Leonidas pralines,Pralines Leonidas,winkel,2025-12-27 18:50:12,https://leonidas.com
Chaussée de Charleroi 579,Waterloo,2025-12-27 18:50:12,Sinds 1913 een Belgische klassieker. Bekend om kwaliteit tegen betaalbare prijzen met meer dan 100 verschillende pralines.,Artisan chocolate shop offering quality Belgian chocolates.,Chocolaterie artisanale offrant des chocolats belges de qualité.,Sinds 1913 een Belgische klassieker. Bekend om kwaliteit tegen betaalbare prijzen met meer dan 100 verschillende pralines.,,,0,2355,50.6888046,/logo/leonidas.jpg,4.410911,Leonidas,,,1410.0,Waals-Brabant,,Leonidas pralines,Pralines Leonidas,winkel,2025-12-27 18:50:12,https://www.leonidas.com
Parc D'Activités Economiques 35,Rochefort,2025-12-27 18:50:23,Belgische chocolatier - Les Chocolatiers de Rochefort,Belgian chocolatier - Les Chocolatiers de Rochefort,Chocolaterie belge - Les Chocolatiers de Rochefort,Belgische chocolatier - Les Chocolatiers de Rochefort,,,0,2641,50.1789715,,5.210271,Les Chocolatiers de Rochefort,,,5580.0,Namen,,,,winkel,2025-12-27 18:50:23,
Rue Adrien Materne 127,Grâce-Berleur,2025-12-27 18:50:24,Belgische chocolatier - Les Gum's du J,Belgian chocolatier - Les Gum's du J,Chocolaterie belge - Les Gum's du J,Belgische chocolatier - Les Gum's du J,,,0,2644,50.6451892,,5.5083999,Les Gum's du J,,,4460.0,Luik,,,,winkel,2025-12-27 18:50:24,
Rue Victor Fabri 5,Rochefort,2025-12-27 18:50:24,Belgische chocolatier - Les Petits Trésors d'Isa,Belgian chocolatier - Les Petits Trésors d'Isa,Chocolaterie belge - Les Petits Trésors d'Isa,Belgische chocolatier - Les Petits Trésors d'Isa,,,0,2645,50.1636786,,5.2245099,Les Petits Trésors d'Isa,,,5580.0,Namen,,,,winkel,2025-12-27 18:50:24,
Rue Pavée 21,Eupen,2025-12-27 18:50:24,Belgische chocolatier - Les pralines de Céline,Belgian chocolatier - Les pralines de Céline,Chocolaterie belge - Les pralines de Céline,Belgische chocolatier - Les pralines de Céline,,,0,2646,50.5983145,,6.1666211,Les pralines de Céline,,,4700.0,Luik,,,,winkel,2025-12-27 18:50:24,
Louis Mettewielaan 31A,Sint-Jans-Molenbeek,2025-12-27 18:50:24,Belgische chocolatier - Librairie Mettewie,Belgian chocolatier - Librairie Mettewie,Chocolaterie belge - Librairie Mettewie,Belgische chocolatier - Librairie Mettewie,,,0,2647,50.8582511,,4.310319,Librairie Mettewie,,,1080.0,Brussels Hoofdstedelijk Gewest,,,,winkel,2025-12-27 18:50:24,
Alsembergse Steenweg 349,Vorst,2025-12-27 18:50:24,Belgische chocolatier - Librairie Molière,Belgian chocolatier - Librairie Molière,Chocolaterie belge - Librairie Molière,Belgische chocolatier - Librairie Molière,,,0,2648,50.8159737,,4.3397133,Librairie Molière,,,1190.0,Brussels Hoofdstedelijk Gewest,,,,winkel,2025-12-27 18:50:24,
Tongersvenweg 5,Neerpelt,2025-12-27 18:50:24,Belgische chocolatier,Artisan chocolate shop offering quality Belgian chocolates.,Chocolaterie artisanale offrant des chocolats belges de qualité.,Belgische chocolatier,Ambachtelijke chocolade,,0,2651,51.2068474,,5.4449381,Life Creations,,,3910.0,Limburg,Ambachtelijke chocolade,Artisan chocolate,Chocolat artisanal,winkel,2025-12-27 18:50:24,https://www.geefeenbox.be
Heldergemstraat 73,Heldergem,2025-12-27 18:50:24,Belgische chocolatier - Little Things,Belgian chocolatier - Little Things,Chocolaterie belge - Little Things,Belgische chocolatier - Little Things,,,0,2652,50.8754915,,3.9578917,Little Things,,,9450.0,Oost-Vlaanderen,,,,winkel,2025-12-27 18:50:24,
Meenselstraat 16A/3,Molenbeek-Wersbeek,2025-12-27 18:50:24,Belgische chocolatier - Lollipopland,Belgian chocolatier - Lollipopland,Chocolaterie belge - Lollipopland,Belgische chocolatier - Lollipopland,,,0,2653,50.9013854,,4.9364954,Lollipopland,,,3461.0,Vlaams-Brabant,,,,winkel,2025-12-27 18:50:24,https://www.lollipopland.be
Bijstert 10,Aalbeke,2025-12-27 18:50:24,Belgische chocolatier - Lolo's Creations,Belgian chocolatier - Lolo's Creations,Chocolaterie belge - Lolo's Creations,Belgische chocolatier - Lolo's Creations,,,0,2654,50.773446,,3.2314274,Lolo's Creations,,,8511.0,West-Vlaanderen,,,,winkel,2025-12-27 18:50:24,
Industrieweg 49,Tessenderlo,2025-12-27 18:50:24,Belgische chocolatier - MAIL - BOX,Belgian chocolatier - MAIL - BOX,Chocolaterie belge - MAIL - BOX,Belgische chocolatier - MAIL - BOX,,,0,2658,51.0620235,,5.1504924,MAIL - BOX,,,3980.0,Limburg,,,,winkel,2025-12-27 18:50:24,https://www.mailboxcards.be
Waterstraat 9,Beek,2025-12-27 18:50:24,Belgische chocolatier - MARTENS M.P.,Belgian chocolatier - MARTENS M.P.,Chocolaterie belge - MARTENS M.P.,Belgische chocolatier - MARTENS M.P.,,,0,2663,51.1682052,,5.613725,MARTENS M.P.,,,3960.0,Limburg,,,,winkel,2025-12-27 18:50:24,
Weg naar Zwartberg 83A/1,Opglabbeek,2025-12-27 18:50:24,Belgische chocolatier - MARTENS M.P.,Belgian chocolatier - MARTENS M.P.,Chocolaterie belge - MARTENS M.P.,Belgische chocolatier - MARTENS M.P.,,,0,2664,51.0199512,,5.5233694,MARTENS M.P.,,,3660.0,Limburg,,,,winkel,2025-12-27 18:50:24,http://www.leonidasopglabbeekwebshop.be
Heuvelstraat 15,Brussel,2025-12-27 18:50:24,Belgische chocolatier - MAXI-GIFTS,Belgian chocolatier - MAXI-GIFTS,Chocolaterie belge - MAXI-GIFTS,Belgische chocolatier - MAXI-GIFTS,,,0,2667,50.8466676,,4.3535426,MAXI-GIFTS,,,1000.0,Brussels Hoofdstedelijk Gewest,,,,winkel,2025-12-27 18:50:24,
Boulevard Heynen 8,Bouillon,2025-12-27 18:50:24,Belgische chocolatier - MAXI-MUSIC/DASKALIDES,Belgian chocolatier - MAXI-MUSIC/DASKALIDES,Chocolaterie belge - MAXI-MUSIC/DASKALIDES,Belgische chocolatier - MAXI-MUSIC/DASKALIDES,,,0,2668,49.7955558,,5.0700108,MAXI-MUSIC/DASKALIDES,,,6830.0,Luxemburg,,,,winkel,2025-12-27 18:50:24,http://www.daskalides.be
Place Sainte-Gertrude 22/1,Trembleur,2025-12-27 18:50:25,Belgische chocolatier - MELO DECO,Belgian chocolatier - MELO DECO,Chocolaterie belge - MELO DECO,Belgische chocolatier - MELO DECO,,,0,2670,50.672667,,5.725471,MELO DECO,,,4670.0,Luik,,,,winkel,2025-12-27 18:50:25,
Rue de Presles 197,Villers-Poterie,2025-12-27 18:50:25,"Belgische chocolatier - MICHEL, JOANNE","Belgian chocolatier - MICHEL, JOANNE","Chocolaterie belge - MICHEL, JOANNE","Belgische chocolatier - MICHEL, JOANNE",,,0,2671,50.3655924,,4.5547784,"MICHEL, JOANNE",,,6280.0,Henegouwen,,,,winkel,2025-12-27 18:50:25,
Sint-Niklaasstraat 149,Sint-Gillis-Waas,2025-12-27 18:50:25,Belgische chocolatier - MIFAN,Belgian chocolatier - MIFAN,Chocolaterie belge - MIFAN,Belgische chocolatier - MIFAN,,,0,2672,51.20455,,4.1468588,MIFAN,,,9170.0,Oost-Vlaanderen,,,,winkel,2025-12-27 18:50:25,
Wolvenstraat 2 A,Wieze,2025-12-27 18:50:25,Belgische chocolatier - MILA,Belgian chocolatier - MILA,Chocolaterie belge - MILA,Belgische chocolatier - MILA,,,0,2673,50.9820979,,4.0975021,MILA,,,9280.0,Oost-Vlaanderen,,,,winkel,2025-12-27 18:50:25,https://www.mila-chocolade.be
Kerkstraat 32,Wenduine,2025-12-27 18:50:25,Belgische chocolatier - MOEDER BABELUTE WENDUINE,Belgian chocolatier - MOEDER BABELUTE WENDUINE,Chocolaterie belge - MOEDER BABELUTE WENDUINE,Belgische chocolatier - MOEDER BABELUTE WENDUINE,,,0,2676,51.3002743,,3.0806092,MOEDER BABELUTE WENDUINE,,,8420.0,West-Vlaanderen,,,,winkel,2025-12-27 18:50:25,https://moederbabelutte.be
Max Temmermanlaan 5,Kalmthout,2025-12-27 18:50:25,Belgische chocolatier - MONTRIEUX HANNELORE,Belgian chocolatier - MONTRIEUX HANNELORE,Chocolaterie belge - MONTRIEUX HANNELORE,Belgische chocolatier - MONTRIEUX HANNELORE,,,0,2680,51.3650314,,4.4571386,MONTRIEUX HANNELORE,,,2920.0,Antwerpen,,,,winkel,2025-12-27 18:50:25,
Sint-Lambertusstraat 200/UNITE,Sint-Lambrechts-Woluwe,2025-12-27 18:50:25,Belgische chocolatier - MR DONUT,Belgian chocolatier - MR DONUT,Chocolaterie belge - MR DONUT,Belgische chocolatier - MR DONUT,,,0,2681,50.8484767,,4.4349977,MR DONUT,,,1200.0,Brussels Hoofdstedelijk Gewest,,,,winkel,2025-12-27 18:50:25,
Rue des Français 220,Ans,2025-12-27 18:50:24,Belgische chocolatier - Ma boite à cookies shop,Belgian chocolatier - Ma boite à cookies shop,Chocolaterie belge - Ma boite à cookies shop,Belgische chocolatier - Ma boite à cookies shop,,,0,2655,50.663938,,5.5368854,Ma boite à cookies shop,,,4430.0,Luik,,,,winkel,2025-12-27 18:50:24,
Place du Monument 23,Spa,2025-12-27 18:50:24,Belgische chocolatier - Macaron & Chocolat,Belgian chocolatier - Macaron & Chocolat,Chocolaterie belge - Macaron & Chocolat,Belgische chocolatier - Macaron & Chocolat,,,0,2656,50.4920362,,5.8630181,Macaron & Chocolat,,,4900.0,Luik,,,,winkel,2025-12-27 18:50:24,
Rue Chambre au Pont 1A/3,Moustier-sur-Sambre,2025-12-27 18:50:24,Belgische chocolatier - Mahieu Gauthier,Belgian chocolatier - Mahieu Gauthier,Chocolaterie belge - Mahieu Gauthier,Belgische chocolatier - Mahieu Gauthier,,,0,2657,50.4660542,,4.6967162,Mahieu Gauthier,,,5190.0,Namen,,,,winkel,2025-12-27 18:50:24,
Ophovenstraat 73,Neeroeteren,2025-12-27 18:50:24,Belgische chocolatier - Maison Pralikado,Belgian chocolatier - Maison Pralikado,Chocolaterie belge - Maison Pralikado,Belgische chocolatier - Maison Pralikado,,,0,2659,51.0936383,,5.6988027,Maison Pralikado,,,3680.0,Limburg,,,,winkel,2025-12-27 18:50:24,http://www.tisit.be
Leeuwenhof 33,Drongen,2025-12-27 18:50:24,Belgische chocolatier - Maison Sucrée,Belgian chocolatier - Maison Sucrée,Chocolaterie belge - Maison Sucrée,Belgische chocolatier - Maison Sucrée,,,0,2660,51.0685057,,3.6539011,Maison Sucrée,,,9031.0,Oost-Vlaanderen,,,,winkel,2025-12-27 18:50:24,http://www.maisonsucree.be
Rue Nuits Saint-Georges 1,Tamines,2025-12-27 18:50:24,Belgische chocolatier - Marco at home,Belgian chocolatier - Marco at home,Chocolaterie belge - Marco at home,Belgische chocolatier - Marco at home,,,0,2661,50.4323015,,4.6073635,Marco at home,,,5060.0,Namen,,,,winkel,2025-12-27 18:50:24,
Luikersteenweg 328E,Hasselt,2025-12-27 18:50:24,Belgische chocolatier - Marijke Stroobants,Belgian chocolatier - Marijke Stroobants,Chocolaterie belge - Marijke Stroobants,Belgische chocolatier - Marijke Stroobants,,,0,2662,50.9056057,,5.3575573,Marijke Stroobants,,,3500.0,Limburg,,,,winkel,2025-12-27 18:50:24,https://valentinobelgium.com
Rue Royale 73,Bruxelles,2025-12-27 18:50:24,Belgische chocolatier,Belgian chocolatier,Chocolaterie belge,Belgische chocolatier,,,0,2665,50.8497927,,4.3640828,Mary Chocolatier,,+32 2 217 45 00,1000.0,Brussels Hoofdstedelijk Gewest,,,,winkel,2025-12-27 18:50:24,http://www.mary.be/
Terbekehofdreef 26-28,Wilrijk,2025-12-27 18:50:24,Belgische chocolatier - Massepain Sleeubus,Belgian chocolatier - Massepain Sleeubus,Chocolaterie belge - Massepain Sleeubus,Belgische chocolatier - Massepain Sleeubus,,,0,2666,51.153423,,4.3792897,Massepain Sleeubus,,,2610.0,Antwerpen,,,,winkel,2025-12-27 18:50:24,
Wetstraat 23,Brussel,2025-12-27 18:50:24,Belgische chocolatier - Meert Belgique,Belgian chocolatier - Meert Belgique,Chocolaterie belge - Meert Belgique,Belgische chocolatier - Meert Belgique,,,0,2669,50.8451496,,4.3698932,Meert Belgique,,,1040.0,Brussels Hoofdstedelijk Gewest,,,,winkel,2025-12-27 18:50:24,
Bilzersteenweg 50B/1,Hoeselt,2025-12-27 18:50:25,Belgische chocolatier - Minikid & Teens,Belgian chocolatier - Minikid & Teens,Chocolaterie belge - Minikid & Teens,Belgische chocolatier - Minikid & Teens,,,0,2674,50.8583623,,5.4996301,Minikid & Teens,,,3730.0,Limburg,,,,winkel,2025-12-27 18:50:25,https://valentinobelgium.com
Rijksweg 275,Vucht,2025-12-27 18:50:25,Belgische chocolatier - Mirella Monno,Belgian chocolatier - Mirella Monno,Chocolaterie belge - Mirella Monno,Belgische chocolatier - Mirella Monno,,,0,2675,50.9746649,,5.7001328,Mirella Monno,,,3630.0,Limburg,,,,winkel,2025-12-27 18:50:25,
Wollestraat 24,Brugge,2025-12-27 18:50:25,Traditionele snoepwinkel in Brugge,Artisan chocolate shop offering quality Belgian chocolates.,Chocolaterie artisanale offrant des chocolats belges de qualité.,Traditionele snoepwinkel in Brugge,Babelutte,,0,2677,51.2073108,,3.2262895,Moeder Babelutte,,,8000.0,West-Vlaanderen,Babelutte,Chocolat artisanal,chocolade,winkel,2025-12-27 18:50:25,
Graaf d'Ursellaan 6,Heist,2025-12-27 18:50:25,Belgische chocolatier - Moeder Babelutte,Belgian chocolatier - Moeder Babelutte,Chocolaterie belge - Moeder Babelutte,Belgische chocolatier - Moeder Babelutte,,,0,2678,51.340589,,3.2413641,Moeder Babelutte,,,8301.0,West-Vlaanderen,,,,winkel,2025-12-27 18:50:25,https://moederbabelutte.be
Daalbroekstraat 21,Opgrimbie,2025-12-27 18:50:25,"Belgische chocolatier - Monno, Mirella","Belgian chocolatier - Monno, Mirella","Chocolaterie belge - Monno, Mirella","Belgische chocolatier - Monno, Mirella",,,0,2679,50.9438106,,5.6749896,"Monno, Mirella",,,3630.0,Limburg,,,,winkel,2025-12-27 18:50:25,
Gemeenteplein 5,Keerbergen,2025-12-27 18:50:25,Belgische chocolatier - Mucho Gusto,Belgian chocolatier - Mucho Gusto,Chocolaterie belge - Mucho Gusto,Belgische chocolatier - Mucho Gusto,,,0,2682,51.0037985,/logo/mucho-gusto.jpg,4.6286237,Mucho Gusto,,,3140.0,Vlaams-Brabant,,,,winkel,2025-12-27 18:50:25,https://valentinobelgium.com
Gentstraat 236B,Ingelmunster,2025-12-27 18:50:25,Belgische chocolatier - NAERT-DEGRANDE,Belgian chocolatier - NAERT-DEGRANDE,Chocolaterie belge - NAERT-DEGRANDE,Belgische chocolatier - NAERT-DEGRANDE,,,0,2683,50.9113618,,3.283353,NAERT-DEGRANDE,,,8770.0,West-Vlaanderen,,,,winkel,2025-12-27 18:50:25,https://www.naert-degrande.be
Rue Joseph Boccart 6,Sart-Saint-Laurent,2025-12-27 18:50:25,Belgische chocolatier - NATECA,Belgian chocolatier - NATECA,Chocolaterie belge - NATECA,Belgische chocolatier - NATECA,,,0,2684,50.3992654,,4.7466235,NATECA,,,5070.0,Namen,,,,winkel,2025-12-27 18:50:25,
Rue d Garennes - Rés Parc 188,Ressaix,2025-12-27 18:50:25,Belgische chocolatier - NEVERMIND,Belgian chocolatier - NEVERMIND,Chocolaterie belge - NEVERMIND,Belgische chocolatier - NEVERMIND,,,0,2685,50.4177644,,4.2142753,NEVERMIND,,,7134.0,Henegouwen,,,,winkel,2025-12-27 18:50:25,
Yzerhand 3,Beveren,2025-12-27 18:50:25,Belgische chocolatier - NOUGATINE,Belgian chocolatier - NOUGATINE,Chocolaterie belge - NOUGATINE,Belgische chocolatier - NOUGATINE,,,0,2686,51.2150818,,4.2525222,NOUGATINE,,,9120.0,Oost-Vlaanderen,,,,winkel,2025-12-27 18:50:25,https://leonidas.com
Chaussée de Bruxelles 276,Waterloo,2025-12-27 18:50:12,Opgericht in 1857 - uitvinder van de praline. Neuhaus is een van de meest prestigieuze Belgische chocolademerken met een rijke geschiedenis.,inventor of the praline. Neuhaus is one of the most prestigious Belgian chocolate brands with a rich history.,inventeur de la praline. Neuhaus est l'une des marques de chocolat belge les plus prestigieuses avec une riche histoire.,Opgericht in 1857 - uitvinder van de praline. Neuhaus is een van de meest prestigieuze Belgische chocolademerken met een rijke geschiedenis.,,,0,2356,50.7151475,/logo/neuhaus.jpg,4.3986443,Neuhaus,,,1410.0,Waals-Brabant,,,,winkel,2025-12-27 18:50:12,https://www.neuhauschocolates.com
Steenstraat 66,Brugge,2025-12-27 18:50:12,Opgericht in 1857 - uitvinder van de praline. Neuhaus is een van de meest prestigieuze Belgische chocolademerken met een rijke geschiedenis.,inventor of the praline. Neuhaus is one of the most prestigious Belgian chocolate brands with a rich history.,inventeur de la praline. Neuhaus est l'une des marques de chocolat belge les plus prestigieuses avec une riche histoire.,Opgericht in 1857 - uitvinder van de praline. Neuhaus is een van de meest prestigieuze Belgische chocolademerken met een rijke geschiedenis.,,,0,2357,51.2067427,/logo/neuhaus.jpg,3.2220622,Neuhaus,,,8000.0,West-Vlaanderen,,,,winkel,2025-12-27 18:50:12,https://www.neuhauschocolates.com
Albert I laan 291,Nieuwpoort,2025-12-27 18:50:12,Opgericht in 1857 - uitvinder van de praline. Neuhaus is een van de meest prestigieuze Belgische chocolademerken met een rijke geschiedenis.,inventor of the praline. Neuhaus is one of the most prestigious Belgian chocolate brands with a rich history.,inventeur de la praline. Neuhaus est l'une des marques de chocolat belge les plus prestigieuses avec une riche histoire.,Opgericht in 1857 - uitvinder van de praline. Neuhaus is een van de meest prestigieuze Belgische chocolademerken met een rijke geschiedenis.,,,0,2358,51.1455165,/logo/neuhaus.jpg,2.7099497,Neuhaus,,,8620.0,West-Vlaanderen,,,,winkel,2025-12-27 18:50:12,https://www.neuhauschocolates.com
Place de l'Hôtel de Ville 5,Gembloers,2025-12-27 18:50:12,Opgericht in 1857 - uitvinder van de praline. Neuhaus is een van de meest prestigieuze Belgische chocolademerken met een rijke geschiedenis.,inventor of the praline. Neuhaus is one of the most prestigious Belgian chocolate brands with a rich history.,inventeur de la praline. Neuhaus est l'une des marques de chocolat belge les plus prestigieuses avec une riche histoire.,Opgericht in 1857 - uitvinder van de praline. Neuhaus is een van de meest prestigieuze Belgische chocolademerken met een rijke geschiedenis.,,,0,2359,50.5601923,/logo/neuhaus.jpg,4.6929904,Neuhaus,,,5030.0,Namen,,,,winkel,2025-12-27 18:50:12,https://www.neuhauschocolates.com
Rue de Dampremy 1,Charleroi,2025-12-27 18:50:13,Opgericht in 1857 - uitvinder van de praline. Neuhaus is een van de meest prestigieuze Belgische chocolademerken met een rijke geschiedenis.,inventor of the praline. Neuhaus is one of the most prestigious Belgian chocolate brands with a rich history.,inventeur de la praline. Neuhaus est l'une des marques de chocolat belge les plus prestigieuses avec une riche histoire.,Opgericht in 1857 - uitvinder van de praline. Neuhaus is een van de meest prestigieuze Belgische chocolademerken met een rijke geschiedenis.,,,0,2360,50.4088785,/logo/neuhaus.jpg,4.4419178,Neuhaus,,,6000.0,Henegouwen,,,,winkel,2025-12-27 18:50:13,https://www.neuhauschocolates.com
Hogeschoollaan 2,Elsene,2025-12-27 18:50:13,Opgericht in 1857 - uitvinder van de praline. Neuhaus is een van de meest prestigieuze Belgische chocolademerken met een rijke geschiedenis.,inventor of the praline. Neuhaus is one of the most prestigious Belgian chocolate brands with a rich history.,inventeur de la praline. Neuhaus est l'une des marques de chocolat belge les plus prestigieuses avec une riche histoire.,Opgericht in 1857 - uitvinder van de praline. Neuhaus is een van de meest prestigieuze Belgische chocolademerken met een rijke geschiedenis.,,,0,2361,50.8154136,/logo/neuhaus.jpg,4.3895949,Neuhaus,,,1050.0,Brussels Hoofdstedelijk Gewest,,,,winkel,2025-12-27 18:50:13,https://www.neuhauschocolates.com
Kerkstraat 111,Sint-Pieters-Woluwe,2025-12-27 18:50:13,Opgericht in 1857 - uitvinder van de praline. Neuhaus is een van de meest prestigieuze Belgische chocolademerken met een rijke geschiedenis.,inventor of the praline. Neuhaus is one of the most prestigious Belgian chocolate brands with a rich history.,inventeur de la praline. Neuhaus est l'une des marques de chocolat belge les plus prestigieuses avec une riche histoire.,Opgericht in 1857 - uitvinder van de praline. Neuhaus is een van de meest prestigieuze Belgische chocolademerken met een rijke geschiedenis.,,,0,2362,50.8405791,/logo/neuhaus.jpg,4.4633765,Neuhaus,,,1150.0,Brussels Hoofdstedelijk Gewest,,,,winkel,2025-12-27 18:50:13,https://www.neuhauschocolates.com
Grote Markt 39,Mechelen,2025-12-27 18:50:13,Opgericht in 1857 - uitvinder van de praline. Neuhaus is een van de meest prestigieuze Belgische chocolademerken met een rijke geschiedenis.,inventor of the praline. Neuhaus is one of the most prestigious Belgian chocolate brands with a rich history.,inventeur de la praline. Neuhaus est l'une des marques de chocolat belge les plus prestigieuses avec une riche histoire.,Opgericht in 1857 - uitvinder van de praline. Neuhaus is een van de meest prestigieuze Belgische chocolademerken met een rijke geschiedenis.,,,0,2363,51.0278448,/logo/neuhaus.jpg,4.4797156,Neuhaus,,,2800.0,Antwerpen,,,,winkel,2025-12-27 18:50:13,https://www.neuhauschocolates.com
Grote Markt 27,Brussel,2025-12-27 18:50:13,Opgericht in 1857 - uitvinder van de praline. Neuhaus is een van de meest prestigieuze Belgische chocolademerken met een rijke geschiedenis.,inventor of the praline. Neuhaus is one of the most prestigious Belgian chocolate brands with a rich history.,inventeur de la praline. Neuhaus est l'une des marques de chocolat belge les plus prestigieuses avec une riche histoire.,Opgericht in 1857 - uitvinder van de praline. Neuhaus is een van de meest prestigieuze Belgische chocolademerken met een rijke geschiedenis.,,,0,2364,50.8467607,/logo/neuhaus.jpg,4.35302,Neuhaus,,,1000.0,Brussels Hoofdstedelijk Gewest,,,,winkel,2025-12-27 18:50:13,https://www.neuhauschocolates.com
Brusselsestraat 48,Dendermonde,2025-12-27 18:50:13,Opgericht in 1857 - uitvinder van de praline. Neuhaus is een van de meest prestigieuze Belgische chocolademerken met een rijke geschiedenis.,inventor of the praline. Neuhaus is one of the most prestigious Belgian chocolate brands with a rich history.,inventeur de la praline. Neuhaus est l'une des marques de chocolat belge les plus prestigieuses avec une riche histoire.,Opgericht in 1857 - uitvinder van de praline. Neuhaus is een van de meest prestigieuze Belgische chocolademerken met een rijke geschiedenis.,,,0,2365,51.0273775,/logo/neuhaus.jpg,4.0996444,Neuhaus,,,9200.0,Oost-Vlaanderen,,,,winkel,2025-12-27 18:50:13,https://www.neuhauschocolates.com
Rue Neuve 47,Gerpinnes,2025-12-27 18:50:13,Opgericht in 1857 - uitvinder van de praline. Neuhaus is een van de meest prestigieuze Belgische chocolademerken met een rijke geschiedenis.,inventor of the praline. Neuhaus is one of the most prestigious Belgian chocolate brands with a rich history.,inventeur de la praline. Neuhaus est l'une des marques de chocolat belge les plus prestigieuses avec une riche histoire.,Opgericht in 1857 - uitvinder van de praline. Neuhaus is een van de meest prestigieuze Belgische chocolademerken met een rijke geschiedenis.,,,0,2366,50.3447368,/logo/neuhaus.jpg,4.4712278,Neuhaus,,,6280.0,Henegouwen,,,,winkel,2025-12-27 18:50:13,https://www.neuhauschocolates.com
Sint-Baafsplein 22 en 24,Gent,2025-12-27 18:50:13,Opgericht in 1857 - uitvinder van de praline. Neuhaus is een van de meest prestigieuze Belgische chocolademerken met een rijke geschiedenis.,inventor of the praline. Neuhaus is one of the most prestigious Belgian chocolate brands with a rich history.,inventeur de la praline. Neuhaus est l'une des marques de chocolat belge les plus prestigieuses avec une riche histoire.,Opgericht in 1857 - uitvinder van de praline. Neuhaus is een van de meest prestigieuze Belgische chocolademerken met een rijke geschiedenis.,,,0,2367,51.0800055,/logo/neuhaus.jpg,3.7346975,Neuhaus,,,9000.0,Oost-Vlaanderen,,,,winkel,2025-12-27 18:50:13,https://www.neuhauschocolates.com
Waterloolaan 1,Brussel,2025-12-27 18:50:13,Opgericht in 1857 - uitvinder van de praline. Neuhaus is een van de meest prestigieuze Belgische chocolademerken met een rijke geschiedenis.,inventor of the praline. Neuhaus is one of the most prestigious Belgian chocolate brands with a rich history.,inventeur de la praline. Neuhaus est l'une des marques de chocolat belge les plus prestigieuses avec une riche histoire.,Opgericht in 1857 - uitvinder van de praline. Neuhaus is een van de meest prestigieuze Belgische chocolademerken met een rijke geschiedenis.,,,0,2368,50.8388351,/logo/neuhaus.jpg,4.361472,Neuhaus,,,1000.0,Brussels Hoofdstedelijk Gewest,,,,winkel,2025-12-27 18:50:13,https://www.neuhauschocolates.com
Louizalaan 61A,Brussel,2025-12-27 18:50:13,Opgericht in 1857 - uitvinder van de praline. Neuhaus is een van de meest prestigieuze Belgische chocolademerken met een rijke geschiedenis.,inventor of the praline. Neuhaus is one of the most prestigious Belgian chocolate brands with a rich history.,inventeur de la praline. Neuhaus est l'une des marques de chocolat belge les plus prestigieuses avec une riche histoire.,Opgericht in 1857 - uitvinder van de praline. Neuhaus is een van de meest prestigieuze Belgische chocolademerken met een rijke geschiedenis.,,,0,2369,50.833046,/logo/neuhaus.jpg,4.3573486,Neuhaus,,,1050.0,Brussels Hoofdstedelijk Gewest,,,,winkel,2025-12-27 18:50:13,https://www.neuhauschocolates.com
Gulden-Vlieslaan 17-20/22,Elsene,2025-12-27 18:50:13,Opgericht in 1857 - uitvinder van de praline. Neuhaus is een van de meest prestigieuze Belgische chocolademerken met een rijke geschiedenis.,inventor of the praline. Neuhaus is one of the most prestigious Belgian chocolate brands with a rich history.,inventeur de la praline. Neuhaus est l'une des marques de chocolat belge les plus prestigieuses avec une riche histoire.,Opgericht in 1857 - uitvinder van de praline. Neuhaus is een van de meest prestigieuze Belgische chocolademerken met een rijke geschiedenis.,,,1,2370,50.8184778,/logo/neuhaus.jpg,4.3775443,Neuhaus,,,1050.0,Brussels Hoofdstedelijk Gewest,,,,winkel,2025-12-27 18:50:13,https://www.neuhauschocolates.com
Luikerstraat 7,Sint-Truiden,2025-12-27 18:50:13,Opgericht in 1857 - uitvinder van de praline. Neuhaus is een van de meest prestigieuze Belgische chocolademerken met een rijke geschiedenis.,inventor of the praline. Neuhaus is one of the most prestigious Belgian chocolate brands with a rich history.,inventeur de la praline. Neuhaus est l'une des marques de chocolat belge les plus prestigieuses avec une riche histoire.,Opgericht in 1857 - uitvinder van de praline. Neuhaus is een van de meest prestigieuze Belgische chocolademerken met een rijke geschiedenis.,,,0,2371,50.8150776,/logo/neuhaus.jpg,5.1869354,Neuhaus,,,3800.0,Limburg,,,,winkel,2025-12-27 18:50:13,https://www.neuhauschocolates.com
Rue du Luxembourg 13a,Bruxelles,2025-12-27 18:50:13,Opgericht in 1857 - uitvinder van de praline. Neuhaus is een van de meest prestigieuze Belgische chocolademerken met een rijke geschiedenis.,inventor of the praline. Neuhaus is one of the most prestigious Belgian chocolate brands with a rich history.,inventeur de la praline. Neuhaus est l'une des marques de chocolat belge les plus prestigieuses avec une riche histoire.,Opgericht in 1857 - uitvinder van de praline. Neuhaus is een van de meest prestigieuze Belgische chocolademerken met een rijke geschiedenis.,,,1,2372,50.8401635,/logo/neuhaus.jpg,4.3676031,Neuhaus,,+32 2 502 63 20,1000.0,Brussels Hoofdstedelijk Gewest,,,,winkel,2025-12-27 18:50:13,https://m.facebook.com/neuhausluxembourg/
Steenweg 127/C,Eke,2025-12-27 18:50:25,Belgische chocolatier - O'choc,Belgian chocolatier - O'choc,Chocolaterie belge - O'choc,Belgische chocolatier - O'choc,,,0,2687,50.957047,,3.6418911,O'choc,,,9810.0,Oost-Vlaanderen,,,,winkel,2025-12-27 18:50:25,
Rue Le Campinaire 42,Farciennes,2025-12-27 18:50:25,Belgische chocolatier - Oldies Chocolates,Belgian chocolatier - Oldies Chocolates,Chocolaterie belge - Oldies Chocolates,Belgische chocolatier - Oldies Chocolates,,,0,2688,50.4270503,,4.5430682,Oldies Chocolates,,,6240.0,Henegouwen,,,,winkel,2025-12-27 18:50:25,
Kapelstraat 100/49,Sint-Niklaas,2025-12-27 18:50:25,Belgische chocolatier - Olleke Bolleke,Belgian chocolatier - Olleke Bolleke,Chocolaterie belge - Olleke Bolleke,Belgische chocolatier - Olleke Bolleke,,,0,2689,51.1519099,,4.1575394,Olleke Bolleke,,,9100.0,Oost-Vlaanderen,,,,winkel,2025-12-27 18:50:25,https://www.ollekebolleke.eu
Tiensestraat 3,Leuven,2025-12-27 18:50:25,Belgische chocolatier - Olleke Bolleke,Belgian chocolatier - Olleke Bolleke,Chocolaterie belge - Olleke Bolleke,Belgische chocolatier - Olleke Bolleke,,,0,2690,50.8788539,,4.703094,Olleke Bolleke,,,3000.0,Vlaams-Brabant,,,,winkel,2025-12-27 18:50:25,https://www.ollekebolleke.eu
Beddenstraat 2/K5,Antwerpen,2025-12-27 18:50:25,Belgische chocolatier - Olleke Bolleke,Belgian chocolatier - Olleke Bolleke,Chocolaterie belge - Olleke Bolleke,Belgische chocolatier - Olleke Bolleke,,,0,2691,51.2188448,,4.4034182,Olleke Bolleke,,,2000.0,Antwerpen,,,,winkel,2025-12-27 18:50:25,https://www.ollekebolleke.eu
Dreef 42,Zomergem,2025-12-27 18:50:25,Belgische chocolatier - Opbrouck Daisy,Belgian chocolatier - Opbrouck Daisy,Chocolaterie belge - Opbrouck Daisy,Belgische chocolatier - Opbrouck Daisy,,,0,2692,51.1189151,,3.5634906,Opbrouck Daisy,,,9930.0,Oost-Vlaanderen,,,,winkel,2025-12-27 18:50:25,
Sint-Pietersnieuwstraat 208,Gent,2025-12-27 18:50:26,Belgische chocolatier - PORT OF CACAO // Mayana,Belgian chocolatier - PORT OF CACAO // Mayana,Chocolaterie belge - PORT OF CACAO // Mayana,Belgische chocolatier - PORT OF CACAO // Mayana,,,0,2696,51.0445158,,3.7262203,PORT OF CACAO // Mayana,,,9000.0,Oost-Vlaanderen,,,,winkel,2025-12-27 18:50:26,https://mayana.be
Wasserijstraat 13,Herentals,2025-12-27 18:50:26,Belgische chocolatier - PRALINES D.D.,Belgian chocolatier - PRALINES D.D.,Chocolaterie belge - PRALINES D.D.,Belgische chocolatier - PRALINES D.D.,,,0,2698,51.1763901,,4.8315311,PRALINES D.D.,,,2200.0,Antwerpen,,,,winkel,2025-12-27 18:50:26,
Katelijnestraat 22,Brugge,2025-12-27 18:50:26,Belgische chocolatier - PRALINES VERHEECKE,Belgian chocolatier - PRALINES VERHEECKE,Chocolaterie belge - PRALINES VERHEECKE,Belgische chocolatier - PRALINES VERHEECKE,,,0,2699,51.2034658,,3.2246194,PRALINES VERHEECKE,,,8000.0,West-Vlaanderen,,,,winkel,2025-12-27 18:50:26,
Rue Ather 6/3,Hergenrath,2025-12-27 18:50:26,Belgische chocolatier - PROVESO,Belgian chocolatier - PROVESO,Chocolaterie belge - PROVESO,Belgische chocolatier - PROVESO,,,0,2700,50.7170748,,6.0378339,PROVESO,,,4728.0,Luik,,,,winkel,2025-12-27 18:50:26,
Korenmarkt 5,Gent,2025-12-27 18:50:25,Gespecialiseerde chocoladewinkel in Gent. Ruim assortiment Belgische chocolades.,Artisan chocolate shop offering quality Belgian chocolates.,Chocolaterie artisanale offrant des chocolats belges de qualité.,Gespecialiseerde chocoladewinkel in Gent. Ruim assortiment Belgische chocolades.,Geschenkverpakkingen,info@passionchocolate.be,0,2693,51.0547304,,3.7225001,Passion Chocolate,,+32 9 223 12 56,9000.0,Oost-Vlaanderen,Geschenkverpakkingen,Chocolat artisanal,workshops,winkel,2025-12-27 18:50:25,https://www.passionchocolate.be
Rue Jean-Baptiste Vanpetegem 26,Goutroux,2025-12-27 18:50:25,Belgische chocolatier - Paul Maximilien,Belgian chocolatier - Paul Maximilien,Chocolaterie belge - Paul Maximilien,Belgische chocolatier - Paul Maximilien,,,0,2694,50.4222963,,4.3532725,Paul Maximilien,,,6030.0,Henegouwen,,,,winkel,2025-12-27 18:50:25,
Chemin de la Froide Fontaine 4,Horrues,2025-12-27 18:50:26,Belgische chocolatier - Perle et douceur,Belgian chocolatier - Perle et douceur,Chocolaterie belge - Perle et douceur,Belgische chocolatier - Perle et douceur,,,0,2695,50.6190564,,4.0600409,Perle et douceur,,,7060.0,Henegouwen,,,,winkel,2025-12-27 18:50:26,
Place du Grand Sablon 39,Brussel,2025-12-27 18:50:13,Wereldkampioen patisserie en chocolatier. Bekend om grand cru chocolade en innovatieve creaties.,World champion pastry chef and chocolatier. Known for grand cru chocolate and innovative creations.,Champion du monde de pâtisserie et chocolatier. Connu pour le chocolat grand cru et les créations innovantes.,Wereldkampioen patisserie en chocolatier. Bekend om grand cru chocolade en innovatieve creaties.,Grand cru chocolade,info@marcolini.be,0,2373,50.8409473,/logo/pierre-marcolini.jpg,4.3544685,Pierre Marcolini,,+32 2 514 12 06,1000.0,Brussels Hoofdstedelijk Gewest,Grand cru chocolade,taarten,macarons,beide,2025-12-27 18:50:13,https://pierremarcolini.com
Schrijnwerkersstraat 25,Antwerpen,2025-12-27 18:50:13,Wereldkampioen patisserie en chocolatier. Bekend om grand cru chocolade en innovatieve creaties.,World champion pastry chef and chocolatier. Known for grand cru chocolate and innovative creations.,Champion du monde de pâtisserie et chocolatier. Connu pour le chocolat grand cru et les créations innovantes.,Wereldkampioen patisserie en chocolatier. Bekend om grand cru chocolade en innovatieve creaties.,,info@marcolini.be,0,2374,51.2176009,/logo/pierre-marcolini.jpg,4.4040099,Pierre Marcolini - Antwerpen,,+32 2 514 12 06,2000.0,Antwerpen,,,,winkel,2025-12-27 18:50:13,https://pierremarcolini.com
Kelderstraat 4,Antwerpen,2025-12-27 18:50:13,Wereldkampioen patisserie en chocolatier. Bekend om grand cru chocolade en innovatieve creaties.,World champion pastry chef and chocolatier. Known for grand cru chocolate and innovative creations.,Champion du monde de pâtisserie et chocolatier. Connu pour le chocolat grand cru et les créations innovantes.,Wereldkampioen patisserie en chocolatier. Bekend om grand cru chocolade en innovatieve creaties.,,info@marcolini.be,0,2375,51.2161908,/logo/pierre-marcolini.jpg,4.4073388,Pierre Marcolini - Antwerpen,,+32 2 514 12 06,2000.0,Antwerpen,,,,winkel,2025-12-27 18:50:13,https://pierremarcolini.com
Grote Markt 26,Brussel,2025-12-27 18:50:13,Wereldkampioen patisserie en chocolatier. Bekend om grand cru chocolade en innovatieve creaties.,World champion pastry chef and chocolatier. Known for grand cru chocolate and innovative creations.,Champion du monde de pâtisserie et chocolatier. Connu pour le chocolat grand cru et les créations innovantes.,Wereldkampioen patisserie en chocolatier. Bekend om grand cru chocolade en innovatieve creaties.,,info@marcolini.be,0,2376,50.846751,/logo/pierre-marcolini.jpg,4.3530335000000004,Pierre Marcolini - Grand Place,,+32 2 514 12 06,1000.0,Brussels Hoofdstedelijk Gewest,,,,winkel,2025-12-27 18:50:13,https://pierremarcolini.com
Grote Zavel 39,Brussel,2025-12-27 18:50:13,Wereldkampioen patisserie en chocolatier. Bekend om grand cru chocolade en innovatieve creaties.,World champion pastry chef and chocolatier. Known for grand cru chocolate and innovative creations.,Champion du monde de pâtisserie et chocolatier. Connu pour le chocolat grand cru et les créations innovantes.,Wereldkampioen patisserie en chocolatier. Bekend om grand cru chocolade en innovatieve creaties.,,info@marcolini.be,0,2377,50.8409473,/logo/pierre-marcolini.jpg,4.3544685,Pierre Marcolini - Manufacture,,+32 2 514 12 06,1000.0,Brussels Hoofdstedelijk Gewest,,,,winkel,2025-12-27 18:50:13,https://pierremarcolini.com
Galeries de la Reine 21,Bruxelles,2025-12-27 18:50:13,Wereldkampioen patisserie en chocolatier. Bekend om grand cru chocolade en innovatieve creaties.,World champion pastry chef and chocolatier. Known for grand cru chocolate and innovative creations.,Champion du monde de pâtisserie et chocolatier. Connu pour le chocolat grand cru et les créations innovantes.,Wereldkampioen patisserie en chocolatier. Bekend om grand cru chocolade en innovatieve creaties.,,info@marcolini.be,0,2378,50.8614048,/logo/pierre-marcolini.jpg,4.3525494,Pierre Marcolini - Reine I,,+32 2 514 12 06,1000.0,Brussels Hoofdstedelijk Gewest,,,,winkel,2025-12-27 18:50:13,https://pierremarcolini.com
Minimenstraat 1,Brussel,2025-12-27 18:50:13,Wereldkampioen patisserie en chocolatier. Bekend om grand cru chocolade en innovatieve creaties.,World champion pastry chef and chocolatier. Known for grand cru chocolate and innovative creations.,Champion du monde de pâtisserie et chocolatier. Connu pour le chocolat grand cru et les créations innovantes.,Wereldkampioen patisserie en chocolatier. Bekend om grand cru chocolade en innovatieve creaties.,,info@marcolini.be,0,2379,50.8413295,/logo/pierre-marcolini.jpg,4.3536915,Pierre Marcolini - Sablon,,+32 2 514 12 06,1000.0,Brussels Hoofdstedelijk Gewest,,,,winkel,2025-12-27 18:50:13,https://pierremarcolini.com
Tongerenstraat 69,Etterbeek,2025-12-27 18:50:13,Wereldkampioen patisserie en chocolatier. Bekend om grand cru chocolade en innovatieve creaties.,World champion pastry chef and chocolatier. Known for grand cru chocolate and innovative creations.,Champion du monde de pâtisserie et chocolatier. Connu pour le chocolat grand cru et les créations innovantes.,Wereldkampioen patisserie en chocolatier. Bekend om grand cru chocolade en innovatieve creaties.,,info@marcolini.be,0,2380,50.8403792,/logo/pierre-marcolini.jpg,4.4011114,Pierre Marcolini - Tongres,,+32 2 514 12 06,1040.0,Brussels Hoofdstedelijk Gewest,,,,winkel,2025-12-27 18:50:13,https://pierremarcolini.com
Waterloosesteenweg 1302,Ukkel,2025-12-27 18:50:13,Wereldkampioen patisserie en chocolatier. Bekend om grand cru chocolade en innovatieve creaties.,World champion pastry chef and chocolatier. Known for grand cru chocolate and innovative creations.,Champion du monde de pâtisserie et chocolatier. Connu pour le chocolat grand cru et les créations innovantes.,Wereldkampioen patisserie en chocolatier. Bekend om grand cru chocolade en innovatieve creaties.,,info@marcolini.be,0,2381,50.7913572,/logo/pierre-marcolini.jpg,4.37471,Pierre Marcolini - Uccle,,+32 2 514 12 06,1180.0,Brussels Hoofdstedelijk Gewest,,,,winkel,2025-12-27 18:50:13,https://pierremarcolini.com
Hasseltsestraat 12,Herk-de-Stad,2025-12-27 18:50:26,Belgische chocolatier - Pralinehuisje + Dania Projects + Herks Genot,Belgian chocolatier - Pralinehuisje + Dania Projects + Herks Genot,Chocolaterie belge - Pralinehuisje + Dania Projects + Herks Genot,Belgische chocolatier - Pralinehuisje + Dania Projects + Herks Genot,,,0,2697,50.9413077,,5.1675337,Pralinehuisje + Dania Projects + Herks Genot,,,3540.0,Limburg,,,,winkel,2025-12-27 18:50:26,https://www.pralinehuisje.be
Kerkstraat 42,Knesselare,2025-12-27 18:50:26,Belgische chocolatier - ROOSE TANIA CHOCOLATERIE,Belgian chocolatier - ROOSE TANIA CHOCOLATERIE,Chocolaterie belge - ROOSE TANIA CHOCOLATERIE,Belgische chocolatier - ROOSE TANIA CHOCOLATERIE,,,0,2702,51.1367892,,3.4127053,ROOSE TANIA CHOCOLATERIE,,,9910.0,Oost-Vlaanderen,,,,winkel,2025-12-27 18:50:26,http://chocolaterieroose.be
Ringlaan 11/a,Heule,2025-12-27 18:50:26,Belgische chocolatier - ROVACOS,Belgian chocolatier - ROVACOS,Chocolaterie belge - ROVACOS,Belgische chocolatier - ROVACOS,,,0,2704,50.8538133,,3.2498051,ROVACOS,,,8501.0,West-Vlaanderen,,,,winkel,2025-12-27 18:50:26,https://www.rovacos.be
Koolmijnlaan 151,Heusden,2025-12-27 18:50:26,Belgische chocolatier - RTC,Belgian chocolatier - RTC,Chocolaterie belge - RTC,Belgische chocolatier - RTC,,,0,2705,51.0401327,,5.3017506,RTC,,,3550.0,Limburg,,,,winkel,2025-12-27 18:50:26,
Rue Loneux 9,Argenteau,2025-12-27 18:50:26,Belgische chocolatier - René Marnette,Belgian chocolatier - René Marnette,Chocolaterie belge - René Marnette,Belgische chocolatier - René Marnette,,,0,2701,50.6922181,,5.6897636,René Marnette,,,4601.0,Luik,,,,winkel,2025-12-27 18:50:26,
Havenstraat 1,Brugge,2025-12-27 18:50:26,Chocolate World in Brugge,Artisan chocolate shop offering quality Belgian chocolates.,Chocolaterie artisanale offrant des chocolats belges de qualité.,Chocolate World in Brugge,Chocolade workshops,,0,2703,51.2228635,,3.2269905,Rooses Chocolate World,,,8000.0,West-Vlaanderen,Chocolade workshops,Chocolat artisanal,museum,winkel,2025-12-27 18:50:26,
Koningin Astridstraat 56/C,Veldegem,2025-12-27 18:50:26,Belgische chocolatier - Ryckeboer Jeroen,Belgian chocolatier - Ryckeboer Jeroen,Chocolaterie belge - Ryckeboer Jeroen,Belgische chocolatier - Ryckeboer Jeroen,,,0,2706,51.1000067,,3.1701088,Ryckeboer Jeroen,,,8210.0,West-Vlaanderen,,,,winkel,2025-12-27 18:50:26,https://www.choco-lino.be
De Wandstraat 231,Neder-over-Heembeek,2025-12-27 18:50:26,Belgische chocolatier - S&V,Belgian chocolatier - S&V,Chocolaterie belge - S&V,Belgische chocolatier - S&V,,,0,2707,50.8925777,,4.3768928,S&V,,,1020.0,Brussels Hoofdstedelijk Gewest,,,,winkel,2025-12-27 18:50:26,https://www.leonidas.com
Albert I laan 66,Steenkerke,2025-12-27 18:50:26,Belgische chocolatier - SANTOS PALACE,Belgian chocolatier - SANTOS PALACE,Chocolaterie belge - SANTOS PALACE,Belgische chocolatier - SANTOS PALACE,,,0,2709,51.0650483,,2.6832138,SANTOS PALACE,,,8630.0,West-Vlaanderen,,,,winkel,2025-12-27 18:50:26,
Camille Van Exterstraat 16,Ukkel,2025-12-27 18:50:26,Belgische chocolatier - SIMONET YVAN,Belgian chocolatier - SIMONET YVAN,Chocolaterie belge - SIMONET YVAN,Belgische chocolatier - SIMONET YVAN,,,0,2712,50.7972638,,4.3337141,SIMONET YVAN,,,1180.0,Brussels Hoofdstedelijk Gewest,,,,winkel,2025-12-27 18:50:26,
Kabienstraat 41,Lille,2025-12-27 18:50:26,Belgische chocolatier - SMIK & SMAK,Belgian chocolatier - SMIK & SMAK,Chocolaterie belge - SMIK & SMAK,Belgische chocolatier - SMIK & SMAK,,,0,2713,51.2409387,,4.8210198,SMIK & SMAK,,,2275.0,Antwerpen,,,,winkel,2025-12-27 18:50:26,https://www.smik-smak.be
Bredabaan 336,Brasschaat,2025-12-27 18:50:26,Belgische chocolatier - SNOEPHUIS,Belgian chocolatier - SNOEPHUIS,Chocolaterie belge - SNOEPHUIS,Belgische chocolatier - SNOEPHUIS,,,0,2715,51.2921958,,4.4938239,SNOEPHUIS,,,2930.0,Antwerpen,,,,winkel,2025-12-27 18:50:26,https://www.snoephuis.be
Chemin du Saule 1,Macquenoise,2025-12-27 18:50:26,Belgische chocolatier - STEVENS ERINE,Belgian chocolatier - STEVENS ERINE,Chocolaterie belge - STEVENS ERINE,Belgische chocolatier - STEVENS ERINE,,,0,2718,49.9597313,,4.2203609,STEVENS ERINE,,,6593.0,Henegouwen,,,,winkel,2025-12-27 18:50:26,http://www.jsmlocation.be
Dorpstraat 5,Serskamp,2025-12-27 18:50:26,Belgische chocolatier - Sabrina Chocolate & Gifts,Belgian chocolatier - Sabrina Chocolate & Gifts,Chocolaterie belge - Sabrina Chocolate & Gifts,Belgische chocolatier - Sabrina Chocolate & Gifts,,,0,2708,50.9865543,,3.9328882,Sabrina Chocolate & Gifts,,,9260.0,Oost-Vlaanderen,,,,winkel,2025-12-27 18:50:26,https://www.facebook.com/Sabrina.Chocolates.Gifts
August Van de Wielelei 181/101,Deurne,2025-12-27 18:50:26,Belgische chocolatier - Sbhi Ahmed,Belgian chocolatier - Sbhi Ahmed,Chocolaterie belge - Sbhi Ahmed,Belgische chocolatier - Sbhi Ahmed,,,0,2711,51.2193843,,4.4802895,Sbhi Ahmed,,,2100.0,Antwerpen,,,,winkel,2025-12-27 18:50:26,
Kortrijksestraat 29,Ardooie,2025-12-27 18:50:26,Belgische chocolatier - Sneukelmondje,Belgian chocolatier - Sneukelmondje,Chocolaterie belge - Sneukelmondje,Belgische chocolatier - Sneukelmondje,,,0,2714,50.9762388,,3.1980937,Sneukelmondje,,,8850.0,West-Vlaanderen,,,,winkel,2025-12-27 18:50:26,https://www.sneukelmondje.be
Dennenlaan 104,Brecht,2025-12-27 18:50:26,Belgische chocolatier - Snoeppotteke,Belgian chocolatier - Snoeppotteke,Chocolaterie belge - Snoeppotteke,Belgische chocolatier - Snoeppotteke,,,0,2716,51.3020554,,4.5818527,Snoeppotteke,,,2960.0,Antwerpen,,,,winkel,2025-12-27 18:50:26,
Mechelsesteenweg 51,Kontich,2025-12-27 18:50:26,Chocoladewinkel in Kontich,Artisan chocolate shop offering quality Belgian chocolates.,Chocolaterie artisanale offrant des chocolats belges de qualité.,Chocoladewinkel in Kontich,Belgische chocolade,,0,2717,51.1330012,,4.4463211,Soetkin,,,2550.0,Antwerpen,Belgische chocolade,Artisan chocolate,Chocolat artisanal,winkel,2025-12-27 18:50:26,
Rue Pont d'Avroy 2,Luik,2025-12-27 18:50:26,Belgische chocolatier - Sucx,Belgian chocolatier - Sucx,Chocolaterie belge - Sucx,Belgische chocolatier - Sucx,,,0,2719,50.6405624,,5.5698267,Sucx,,,4000.0,Luik,,,,winkel,2025-12-27 18:50:26,
Rue de l'Ange 40,Namen,2025-12-27 18:50:26,Belgische chocolatier - Sucx Namur,Belgian chocolatier - Sucx Namur,Chocolaterie belge - Sucx Namur,Belgische chocolatier - Sucx Namur,,,0,2720,50.4638252,,4.8659442,Sucx Namur,,,5000.0,Namen,,,,winkel,2025-12-27 18:50:26,
Grote Steenweg 142,Eliksem,2025-12-27 18:50:26,Belgische chocolatier - Sugar and Beans,Belgian chocolatier - Sugar and Beans,Chocolaterie belge - Sugar and Beans,Belgische chocolatier - Sugar and Beans,,,0,2721,50.7850675,,5.0116329,Sugar and Beans,,,3400.0,Vlaams-Brabant,,,,winkel,2025-12-27 18:50:26,
Koning Albertstraat 16,Hasselt,2025-12-27 18:50:27,Belgische chocolatier - Sugar and Sweets,Belgian chocolatier - Sugar and Sweets,Chocolaterie belge - Sugar and Sweets,Belgische chocolatier - Sugar and Sweets,,,0,2722,50.9288362,,5.3373501,Sugar and Sweets,,,3500.0,Limburg,,,,winkel,2025-12-27 18:50:27,https://www.sugarandsweets.be
Holenweg 17,Neerpelt,2025-12-27 18:50:27,Belgische chocolatier - Suikerboetiek,Belgian chocolatier - Suikerboetiek,Chocolaterie belge - Suikerboetiek,Belgische chocolatier - Suikerboetiek,,,0,2723,51.23999,,5.458813,Suikerboetiek,,,3910.0,Limburg,,,,winkel,2025-12-27 18:50:27,https://www.suikerboetiek.be
Pamelse Klei 24,Pamel,2025-12-27 18:50:27,Belgische chocolatier - Suikerdraakje,Belgian chocolatier - Suikerdraakje,Chocolaterie belge - Suikerdraakje,Belgische chocolatier - Suikerdraakje,,,0,2724,50.8420279,,4.0772543,Suikerdraakje,,,1760.0,Vlaams-Brabant,,,,winkel,2025-12-27 18:50:27,
Hazebeekstraat 19,Hulste,2025-12-27 18:50:27,Belgische chocolatier - Sweet 4U,Belgian chocolatier - Sweet 4U,Chocolaterie belge - Sweet 4U,Belgische chocolatier - Sweet 4U,,,0,2725,50.8808792,,3.2876698,Sweet 4U,,,8531.0,West-Vlaanderen,,,,winkel,2025-12-27 18:50:27,
Burg.Ch.Ramakersstraat 5,Eisden,2025-12-27 18:50:27,Belgische chocolatier - Sweetcake_sss,Belgian chocolatier - Sweetcake_sss,Chocolaterie belge - Sweetcake_sss,Belgische chocolatier - Sweetcake_sss,,,0,2726,50.9880718,,5.6824366,Sweetcake_sss,,,3630.0,Limburg,,,,winkel,2025-12-27 18:50:27,http://www.sweetcakesss.be
Kasteelstraat 61,Zelzate,2025-12-27 18:50:27,Belgische chocolatier - TASTY CHOCOLATE,Belgian chocolatier - TASTY CHOCOLATE,Chocolaterie belge - TASTY CHOCOLATE,Belgische chocolatier - TASTY CHOCOLATE,,,0,2730,51.1961929,,3.7813861,TASTY CHOCOLATE,,,9060.0,Oost-Vlaanderen,,,,winkel,2025-12-27 18:50:27,
Tiensestraat 200,Leuven,2025-12-27 18:50:27,Belgische chocolatier - TEMMERMAN CONFISERIE - CHOCOLATERIE,Belgian chocolatier - TEMMERMAN CONFISERIE - CHOCOLATERIE,Chocolaterie belge - TEMMERMAN CONFISERIE - CHOCOLATERIE,Belgische chocolatier - TEMMERMAN CONFISERIE - CHOCOLATERIE,,,0,2731,50.8744919,,4.7112103,TEMMERMAN CONFISERIE - CHOCOLATERIE,,,3000.0,Vlaams-Brabant,,,,winkel,2025-12-27 18:50:27,https://www.temmermanleuven.be
Molenstraat 45/1,Aalst,2025-12-27 18:50:27,Belgische chocolatier - TEMMERMAN HOLDING,Belgian chocolatier - TEMMERMAN HOLDING,Chocolaterie belge - TEMMERMAN HOLDING,Belgische chocolatier - TEMMERMAN HOLDING,,,0,2732,50.9391885,,4.0417789,TEMMERMAN HOLDING,,,9300.0,Oost-Vlaanderen,,,,winkel,2025-12-27 18:50:27,https://www.temmermanconfiserie.com
Rue du Centre 41A,Biesme,2025-12-27 18:50:27,Belgische chocolatier - THIRY MICHEL,Belgian chocolatier - THIRY MICHEL,Chocolaterie belge - THIRY MICHEL,Belgische chocolatier - THIRY MICHEL,,,0,2737,50.3334019,,4.6074985,THIRY MICHEL,,,5640.0,Namen,,,,winkel,2025-12-27 18:50:27,
Zeelaan 256,Koksijde,2025-12-27 18:50:27,Belgische chocolatier - Tante Jessy,Belgian chocolatier - Tante Jessy,Chocolaterie belge - Tante Jessy,Belgische chocolatier - Tante Jessy,,,0,2728,51.1185731,,2.6357348,Tante Jessy,,,8670.0,West-Vlaanderen,,,,winkel,2025-12-27 18:50:27,http://www.tante-jessy.be
Distellaan 8,Westende,2025-12-27 18:50:27,Belgische chocolatier - Tante Jessy,Belgian chocolatier - Tante Jessy,Chocolaterie belge - Tante Jessy,Belgische chocolatier - Tante Jessy,,,0,2729,51.1713209,,2.7768645,Tante Jessy,,,8434.0,West-Vlaanderen,,,,winkel,2025-12-27 18:50:27,http://www.tante-jessy.be
Rue Lebeau 11,Bruxelles,2025-12-27 18:50:27,Belgische chocolatier,Belgian chocolatier,Chocolaterie belge,Belgische chocolatier,,,0,2733,50.8428958,,4.3545258,The Belgian Chocolate Makers (Factory),,+32 2 203 92 20,1000.0,Brussels Hoofdstedelijk Gewest,,,,winkel,2025-12-27 18:50:27,https://www.chocolaterie.brussels/
Korenmarkt 23,Mechelen,2025-12-27 18:50:27,Belgische chocolatier,Belgian chocolatier,Chocolaterie belge,Belgische chocolatier,,,0,2734,51.0245944,,4.476444,The Cacao Project,,,2800.0,Vlaams-Brabant,,,,winkel,2025-12-27 18:50:27,https://www.thecacaoproject.be/
Simon Stevinplein 19,Brugge,2025-12-27 18:50:27,Innovatieve chocolatier Dominique Persoone. Bekend om experimentele smaken en chocolade-shooter.,Innovative chocolatier Dominique Persoone. Known for experimental flavors and chocolate shooter.,Chocolatier innovant Dominique Persoone. Connu pour ses saveurs expérimentales et son chocolate shooter.,Innovatieve chocolatier Dominique Persoone. Bekend om experimentele smaken en chocolade-shooter.,Experimentele chocolade,info@thechocolateline.be,0,2735,51.2065141,,3.222325,The Chocolate Line,,+32 50 34 10 90,8000.0,West-Vlaanderen,Experimentele chocolade,Chocolat expérimental,specerijen,beide,2025-12-27 18:50:27,https://www.thechocolateline.be
Mariastraat 3,Brugge,2025-12-27 18:50:27,Belgische chocolatier - The Old Chocolate House,Belgian chocolatier - The Old Chocolate House,Chocolaterie belge - The Old Chocolate House,Belgische chocolatier - The Old Chocolate House,,,0,2736,51.2060143,,3.2231356,The Old Chocolate House,,,8000.0,West-Vlaanderen,,,,winkel,2025-12-27 18:50:27,http://www.hotelnotredame.be
Brusselstraat 51,Antwerpen,2025-12-27 18:50:27,Belgische chocolatier - Titanic Chocolate,Belgian chocolatier - Titanic Chocolate,Chocolaterie belge - Titanic Chocolate,Belgische chocolatier - Titanic Chocolate,,,0,2738,51.2019702,,4.3908187,Titanic Chocolate,,,2018.0,Antwerpen,,,,winkel,2025-12-27 18:50:27,
Rue Franklin Roosevelt 12,Neufchâteau,2025-12-27 18:50:27,Chocolaterie in Neufchâteau,Artisan chocolate shop offering quality Belgian chocolates.,Chocolaterie artisanale offrant des chocolats belges de qualité.,Chocolaterie in Neufchâteau,Artisanale chocolade,,0,2739,49.841115,,5.4348817,Trick or Treat,,,6840.0,Luxemburg,Artisanale chocolade,Artisan chocolate,Chocolat artisanal,winkel,2025-12-27 18:50:27,
Fressendestraat 8,Rollegem,2025-12-27 18:50:27,Belgische chocolatier - UC SWEETS,Belgian chocolatier - UC SWEETS,Chocolaterie belge - UC SWEETS,Belgische chocolatier - UC SWEETS,,,0,2741,50.770473,,3.2595927,UC SWEETS,,,8510.0,West-Vlaanderen,,,,winkel,2025-12-27 18:50:27,
Korte Steenstraat 2,Kortrijk,2025-12-27 18:50:27,Belgische chocolatier - V-Chocolatier by Sweertvaegher,Belgian chocolatier - V-Chocolatier by Sweertvaegher,Chocolaterie belge - V-Chocolatier by Sweertvaegher,Belgische chocolatier - V-Chocolatier by Sweertvaegher,,,0,2742,50.8271178,,3.2672283,V-Chocolatier by Sweertvaegher,,,8500.0,West-Vlaanderen,,,,winkel,2025-12-27 18:50:27,https://v-chocolatier.be
Steenweg op Waver 643,Etterbeek,2025-12-27 18:50:27,Belgische chocolatier,Artisan chocolate shop offering quality Belgian chocolates.,Chocolaterie artisanale offrant des chocolats belges de qualité.,Belgische chocolatier,Ambachtelijke chocolade,,0,2746,50.8309035,,4.3889244,VANDENHENDE Artisan Chocolatier,,,1040.0,Brussels Hoofdstedelijk Gewest,Ambachtelijke chocolade,Artisan chocolate,Chocolat artisanal,winkel,2025-12-27 18:50:27,https://www.chocolatier-vandenhende.be
Perreveld 8,Opwijk,2025-12-27 18:50:27,Belgische chocolatier - VDV WOONDIENST,Belgian chocolatier - VDV WOONDIENST,Chocolaterie belge - VDV WOONDIENST,Belgische chocolatier - VDV WOONDIENST,,,0,2747,50.9601374,,4.1688261,VDV WOONDIENST,,,1745.0,Vlaams-Brabant,,,,winkel,2025-12-27 18:50:27,http://www.vdvchocolaterie.com
Ninoofsesteenweg 1026,Dilbeek,2025-12-27 18:50:13,SCHEPDAAL - FACTORY STORE,SCHEPDAAL - FACTORY STORE,SCHEPDAAL - FACTORY STORE,SCHEPDAAL - FACTORY STORE,,,0,2382,50.8374132,/logo/valentino.jpg,4.1917836,Valentino Chocolatier,,,1703.0,Vlaams-Brabant,,,,beide,2025-12-27 18:50:13,https://valentinobelgium.com
Lange Zoutstraat 2,Aalst,2025-12-27 18:50:13,AALST - FLAGSHIP,AALST - FLAGSHIP,AALST - FLAGSHIP,AALST - FLAGSHIP,,,0,2383,50.9379414,/logo/valentino.jpg,4.0393554,Valentino Chocolatier,,,9300.0,Oost-Vlaanderen,,,,winkel,2025-12-27 18:50:13,https://valentinobelgium.com
Doorniksesteenweg 34,Avelgem,2025-12-27 18:50:13,AVELGEM - LITTLE HANDMADE STORIES,AVELGEM - LITTLE HANDMADE STORIES,AVELGEM - LITTLE HANDMADE STORIES,AVELGEM - LITTLE HANDMADE STORIES,,,0,2384,50.7745095,/logo/valentino.jpg,3.4445651,Valentino Chocolatier,,,8580.0,West-Vlaanderen,,,,winkel,2025-12-27 18:50:13,https://valentinobelgium.com
Keizer Karellaan 420,Sint-Agatha-Berchem,2025-12-27 18:50:14,BASILIX SHOPPING - BRUSSELS,BASILIX SHOPPING - BRUSSELS,BASILIX SHOPPING - BRUSSELS,BASILIX SHOPPING - BRUSSELS,,,0,2385,50.8720986,/logo/valentino.jpg,4.2953692,Valentino Chocolatier,,,1082.0,Brussels Hoofdstedelijk Gewest,,,,winkel,2025-12-27 18:50:14,https://valentinobelgium.com
Gasthuisstraat 20,Beerse,2025-12-27 18:50:14,BEERSE - AU MAISON,BEERSE - AU MAISON,BEERSE - AU MAISON,BEERSE - AU MAISON,,,0,2386,51.3210799,/logo/valentino.jpg,4.8562568,Valentino Chocolatier,,,2340.0,Antwerpen,,,,winkel,2025-12-27 18:50:14,https://valentinobelgium.com
Belseledorp,Sint-Niklaas,2025-12-27 18:50:14,BELSELE - BEANS AND DREAMS,BELSELE - BEANS AND DREAMS,BELSELE - BEANS AND DREAMS,BELSELE - BEANS AND DREAMS,,,0,2387,51.1465417,/logo/valentino.jpg,4.094742,Valentino Chocolatier,,,9111.0,Oost-Vlaanderen,,,,winkel,2025-12-27 18:50:14,https://valentinobelgium.com
Tolpoortstraat 55,Deinze,2025-12-27 18:50:14,DEINZE - FLAGSHIP,DEINZE - FLAGSHIP,DEINZE - FLAGSHIP,DEINZE - FLAGSHIP,,,0,2388,50.9808684,/logo/valentino.jpg,3.5292469,Valentino Chocolatier,,,9800.0,Oost-Vlaanderen,,,,winkel,2025-12-27 18:50:14,https://valentinobelgium.com
Nieuwstraat 133,Diepenbeek,2025-12-27 18:50:14,DIEPENBEEK - 'T CEYZOEN,DIEPENBEEK - 'T CEYZOEN,DIEPENBEEK - 'T CEYZOEN,DIEPENBEEK - 'T CEYZOEN,,,0,2389,50.9220648,/logo/valentino.jpg,5.4465096,Valentino Chocolatier,,,3590.0,Limburg,,,,winkel,2025-12-27 18:50:14,https://valentinobelgium.com
Verheydenstraat 47,Dilbeek,2025-12-27 18:50:14,DILBEEK - FLAGSHIP,DILBEEK - FLAGSHIP,DILBEEK - FLAGSHIP,DILBEEK - FLAGSHIP,,,0,2390,50.8448594,/logo/valentino.jpg,4.2614149,Valentino Chocolatier,,,1700.0,Vlaams-Brabant,,,,winkel,2025-12-27 18:50:14,https://valentinobelgium.com
Hogeweg 101,Aalst (Erembodegem),2025-12-27 18:50:14,EREMBODEGEM - BO E BELLE,EREMBODEGEM - BO E BELLE,EREMBODEGEM - BO E BELLE,EREMBODEGEM - BO E BELLE,,,0,2391,50.921086,/logo/valentino.jpg,4.0666715,Valentino Chocolatier,,,9320.0,Oost-Vlaanderen,,,,winkel,2025-12-27 18:50:14,https://valentinobelgium.com
Stationsstraat 39,Genk,2025-12-27 18:50:14,GENK - FLAGSHIP,GENK - FLAGSHIP,GENK - FLAGSHIP,GENK - FLAGSHIP,,,0,2392,50.9651568,/logo/valentino.jpg,5.5007249,Valentino Chocolatier,,,3600.0,Limburg,,,,winkel,2025-12-27 18:50:14,https://valentinobelgium.com
Groentenmarkt 19,Gent,2025-12-27 18:50:14,GENT - ZOETSE,GENT - ZOETSE,GENT - ZOETSE,GENT - ZOETSE,,,0,2393,51.0559864,/logo/valentino.jpg,3.722524,Valentino Chocolatier,,,9000.0,Oost-Vlaanderen,,,,winkel,2025-12-27 18:50:14,https://valentinobelgium.com
Oudenaardsestraat 3,Geraardsbergen,2025-12-27 18:50:14,GERAARDSBERGEN - FYNELL,GERAARDSBERGEN - FYNELL,GERAARDSBERGEN - FYNELL,GERAARDSBERGEN - FYNELL,,,0,2394,50.7718791,/logo/valentino.jpg,3.8759921,Valentino Chocolatier,,,9500.0,Oost-Vlaanderen,,,,winkel,2025-12-27 18:50:14,https://valentinobelgium.com
Edingsesteenweg 3,Gooik,2025-12-27 18:50:14,GOOIK - FLAVOR SHOP,GOOIK - FLAVOR SHOP,GOOIK - FLAVOR SHOP,GOOIK - FLAVOR SHOP,,,0,2395,50.8064135,/logo/valentino.jpg,4.131296,Valentino Chocolatier,,,1755.0,Vlaams-Brabant,,,,winkel,2025-12-27 18:50:14,https://valentinobelgium.com
Pastoor Woutersstraat 14,Grimbergen,2025-12-27 18:50:14,GRIMBERGEN - FLAGSHIP,GRIMBERGEN - FLAGSHIP,GRIMBERGEN - FLAGSHIP,GRIMBERGEN - FLAGSHIP,,,0,2396,50.9322957,/logo/valentino.jpg,4.3707069,Valentino Chocolatier,,,1850.0,Vlaams-Brabant,,,,winkel,2025-12-27 18:50:14,https://valentinobelgium.com
Beestenmarkt 3,Halle,2025-12-27 18:50:14,HALLE - FLAGSHIP,HALLE - FLAGSHIP,HALLE - FLAGSHIP,HALLE - FLAGSHIP,,,0,2397,50.7358866,/logo/valentino.jpg,4.2361204,Valentino Chocolatier,,,1500.0,Vlaams-Brabant,,,,winkel,2025-12-27 18:50:14,https://valentinobelgium.com
Poststraat 3a,Halle,2025-12-27 18:50:14,HALLE - Streekproductencentrum Halle,HALLE - Streekproductencentrum Halle,HALLE - Streekproductencentrum Halle,HALLE - Streekproductencentrum Halle,,,0,2398,50.7332066,/logo/valentino.jpg,4.2319005,Valentino Chocolatier,,,1500.0,Vlaams-Brabant,,,,winkel,2025-12-27 18:50:14,https://valentinobelgium.com
Hulshoutsesteenweg 37,Heist-op-den-Berg,2025-12-27 18:50:14,HEIST OP DEN BERG - FOTOKUNST,HEIST OP DEN BERG - FOTOKUNST,HEIST OP DEN BERG - FOTOKUNST,HEIST OP DEN BERG - FOTOKUNST,,,0,2399,51.082166,/logo/valentino.jpg,4.7719619,Valentino Chocolatier,,,2220.0,Antwerpen,,,,winkel,2025-12-27 18:50:14,https://valentinobelgium.com
Grote Baan 76,Herk-de-Stad,2025-12-27 18:50:14,HERK DE STAD-HALEN - FLAGSHIP,HERK DE STAD-HALEN - FLAGSHIP,HERK DE STAD-HALEN - FLAGSHIP,HERK DE STAD-HALEN - FLAGSHIP,,,0,2400,50.9482268,/logo/valentino.jpg,5.1229378,Valentino Chocolatier,,,3540.0,Limburg,,,,winkel,2025-12-27 18:50:14,https://valentinobelgium.com
Ninoofsesteenweg 5,Herne,2025-12-27 18:50:14,HERNE - CHOCONELLY,HERNE - CHOCONELLY,HERNE - CHOCONELLY,HERNE - CHOCONELLY,,,0,2401,50.7262926,/logo/valentino.jpg,4.0318824,Valentino Chocolatier,,,1540.0,Vlaams-Brabant,,,,winkel,2025-12-27 18:50:14,https://valentinobelgium.com
Bilzersteenweg 50,Hoeselt,2025-12-27 18:50:14,HOESELT-BILZEN - FLAGSHIP,HOESELT-BILZEN - FLAGSHIP,HOESELT-BILZEN - FLAGSHIP,HOESELT-BILZEN - FLAGSHIP,,,0,2402,50.8561863,/logo/valentino.jpg,5.4966861,Valentino Chocolatier,,,3730.0,Limburg,,,,winkel,2025-12-27 18:50:14,https://valentinobelgium.com
Stationsstraat 45,Kapellen,2025-12-27 18:50:14,KAPELLEN - FLAGSHIP,KAPELLEN - FLAGSHIP,KAPELLEN - FLAGSHIP,KAPELLEN - FLAGSHIP,,,0,2403,51.313895,/logo/valentino.jpg,4.4323319,Valentino Chocolatier,,,2950.0,Antwerpen,,,,winkel,2025-12-27 18:50:14,https://valentinobelgium.com
Gemeenteplein 5,Keerbergen,2025-12-27 18:50:14,KEERBERGEN - MUCHO GUSTO,KEERBERGEN - MUCHO GUSTO,KEERBERGEN - MUCHO GUSTO,KEERBERGEN - MUCHO GUSTO,,,0,2404,51.0037985,/logo/valentino.jpg,4.6286237,Valentino Chocolatier,,,3140.0,Vlaams-Brabant,,,,winkel,2025-12-27 18:50:14,https://valentinobelgium.com
Prosper Thuysbaertlaan 8,Lokeren,2025-12-27 18:50:14,LOKEREN - JEAN.,LOKEREN - JEAN.,LOKEREN - JEAN.,LOKEREN - JEAN.,,,0,2405,51.1060718,/logo/valentino.jpg,3.9889156,Valentino Chocolatier,,,9160.0,Oost-Vlaanderen,,,,winkel,2025-12-27 18:50:14,https://valentinobelgium.com
Koninginnelaan 115 bus 32,Maasmechelen,2025-12-27 18:50:14,MAASMECHELEN M2 - WOONDECORATIE JOHAN,MAASMECHELEN M2 - WOONDECORATIE JOHAN,MAASMECHELEN M2 - WOONDECORATIE JOHAN,MAASMECHELEN M2 - WOONDECORATIE JOHAN,,,0,2406,50.9727019,/logo/valentino.jpg,5.6653085,Valentino Chocolatier,,,3630.0,Limburg,,,,winkel,2025-12-27 18:50:14,https://valentinobelgium.com
Nieuwstraat 8,Merchtem,2025-12-27 18:50:14,MERCHTEM - FLAGSHIP,MERCHTEM - FLAGSHIP,MERCHTEM - FLAGSHIP,MERCHTEM - FLAGSHIP,,,0,2407,50.9586511,/logo/valentino.jpg,4.2318985,Valentino Chocolatier,,,1785.0,Vlaams-Brabant,,,,winkel,2025-12-27 18:50:14,https://valentinobelgium.com
Stationsstraat 17,Pelt,2025-12-27 18:50:14,NEERPELT - SOOF,NEERPELT - SOOF,NEERPELT - SOOF,NEERPELT - SOOF,,,0,2408,51.2273026,/logo/valentino.jpg,5.4356456,Valentino Chocolatier,,,3910.0,Limburg,,,,winkel,2025-12-27 18:50:14,https://valentinobelgium.com
Pieter Deswartelaan 1,Nieuwpoort,2025-12-27 18:50:15,NIEUWPOORT - PONTALBERT,NIEUWPOORT - PONTALBERT,NIEUWPOORT - PONTALBERT,NIEUWPOORT - PONTALBERT,,,0,2409,51.133381,/logo/valentino.jpg,2.7555671,Valentino Chocolatier,,,8620.0,West-Vlaanderen,,,,winkel,2025-12-27 18:50:15,https://valentinobelgium.com
Centrumlaan 4,Ninove,2025-12-27 18:50:15,NINOVE - FLAGSHIP,NINOVE - FLAGSHIP,NINOVE - FLAGSHIP,NINOVE - FLAGSHIP,,,0,2410,50.8345712,/logo/valentino.jpg,4.0224445,Valentino Chocolatier,,,9400.0,Oost-Vlaanderen,,,,winkel,2025-12-27 18:50:15,https://valentinobelgium.com
Diestersesteenweg 61,Beringen,2025-12-27 18:50:15,PAAL-BERINGEN – CHOCOSJIEK,PAAL-BERINGEN – CHOCOSJIEK,PAAL-BERINGEN – CHOCOSJIEK,PAAL-BERINGEN – CHOCOSJIEK,,,0,2411,51.0365952,/logo/valentino.jpg,5.1673495,Valentino Chocolatier,,,3583.0,Limburg,,,,winkel,2025-12-27 18:50:15,https://valentinobelgium.com
Mechelbaan 467,Putte,2025-12-27 18:50:15,PUTTE - TARTUFO,PUTTE - TARTUFO,PUTTE - TARTUFO,PUTTE - TARTUFO,,,0,2412,51.0556963,/logo/valentino.jpg,4.631037,Valentino Chocolatier,,,2580.0,Antwerpen,,,,winkel,2025-12-27 18:50:15,https://valentinobelgium.com
Luikersteenweg 328e,Hasselt,2025-12-27 18:50:15,RAPERTINGEN - FLAGSHIP,RAPERTINGEN - FLAGSHIP,RAPERTINGEN - FLAGSHIP,RAPERTINGEN - FLAGSHIP,,,0,2413,50.9056057,/logo/valentino.jpg,5.3575573,Valentino Chocolatier,,,3500.0,Limburg,,,,winkel,2025-12-27 18:50:15,https://valentinobelgium.com
Europalaan 7,Retie,2025-12-27 18:50:15,RETIE - HORTI HOUSE,RETIE - HORTI HOUSE,RETIE - HORTI HOUSE,RETIE - HORTI HOUSE,,,0,2414,51.2743757,/logo/valentino.jpg,5.0848329,Valentino Chocolatier,,,2470.0,Antwerpen,,,,winkel,2025-12-27 18:50:15,https://valentinobelgium.com
Albertusplein 5,Scherpenheuvel-Zichem,2025-12-27 18:50:15,SCHERPENHEUVEL - FLAGSHIP,SCHERPENHEUVEL - FLAGSHIP,SCHERPENHEUVEL - FLAGSHIP,SCHERPENHEUVEL - FLAGSHIP,,,0,2415,50.979763,/logo/valentino.jpg,4.9766623,Valentino Chocolatier,,,3270.0,Vlaams-Brabant,,,,winkel,2025-12-27 18:50:15,https://valentinobelgium.com
Borredam 28,Ternat,2025-12-27 18:50:15,TERNAT - THE SPOT,TERNAT - THE SPOT,TERNAT - THE SPOT,TERNAT - THE SPOT,,,0,2416,50.8727415,/logo/valentino.jpg,4.1758746,Valentino Chocolatier,,,1740.0,Vlaams-Brabant,,,,winkel,2025-12-27 18:50:15,https://valentinobelgium.com
Maastrichterstraat 33,Tongeren,2025-12-27 18:50:15,TONGEREN - HUIZE PUCK,TONGEREN - HUIZE PUCK,TONGEREN - HUIZE PUCK,TONGEREN - HUIZE PUCK,,,0,2417,50.7816689,/logo/valentino.jpg,5.4655913,Valentino Chocolatier,,,3700.0,Limburg,,,,winkel,2025-12-27 18:50:15,https://valentinobelgium.com
Grote Steenweg 10,Laakdal,2025-12-27 18:50:15,VEERLE LAAKDAL - BLOEMENLAND,VEERLE LAAKDAL - BLOEMENLAND,VEERLE LAAKDAL - BLOEMENLAND,VEERLE LAAKDAL - BLOEMENLAND,,,0,2418,51.0787821,/logo/valentino.jpg,4.955647,Valentino Chocolatier,,,2431.0,Antwerpen,,,,winkel,2025-12-27 18:50:15,https://valentinobelgium.com
Zandberg 10,Zele,2025-12-27 18:50:15,ZELE - BASKETS4AREASON,ZELE - BASKETS4AREASON,ZELE - BASKETS4AREASON,ZELE - BASKETS4AREASON,,,0,2419,51.0681405,/logo/valentino.jpg,4.0451512,Valentino Chocolatier,,,9240.0,Oost-Vlaanderen,,,,winkel,2025-12-27 18:50:15,https://valentinobelgium.com
Handelslei 96,Zoersel,2025-12-27 18:50:15,ZOERSEL - FLAGSHIP,ZOERSEL - FLAGSHIP,ZOERSEL - FLAGSHIP,ZOERSEL - FLAGSHIP,,,0,2420,51.2654365,/logo/valentino.jpg,4.6368145,Valentino Chocolatier,,,2980.0,Antwerpen,,,,winkel,2025-12-27 18:50:15,https://valentinobelgium.com
Ten Ede 91,Zottegem,2025-12-27 18:50:15,ZOTTEGEM - FLAGSHIP,ZOTTEGEM - FLAGSHIP,ZOTTEGEM - FLAGSHIP,ZOTTEGEM - FLAGSHIP,,,0,2421,50.839258,/logo/valentino.jpg,3.8120738,Valentino Chocolatier,,,9620.0,Oost-Vlaanderen,,,,winkel,2025-12-27 18:50:15,https://valentinobelgium.com
Zuidlaan 28,Zwalm,2025-12-27 18:50:15,ZWALM – CONFISERIE ISABELLE,ZWALM – CONFISERIE ISABELLE,ZWALM – CONFISERIE ISABELLE,ZWALM – CONFISERIE ISABELLE,,,0,2422,50.8781951,/logo/valentino.jpg,3.7328724,Valentino Chocolatier,,,9630.0,Oost-Vlaanderen,,,,winkel,2025-12-27 18:50:15,https://valentinobelgium.com
Otegemstraat 62,Zwevegem,2025-12-27 18:50:15,ZWEVEGEM - PRINCESS,ZWEVEGEM - PRINCESS,ZWEVEGEM - PRINCESS,ZWEVEGEM - PRINCESS,,,0,2423,50.8127589,/logo/valentino.jpg,3.3374307,Valentino Chocolatier,,,8550.0,West-Vlaanderen,,,,winkel,2025-12-27 18:50:15,https://valentinobelgium.com
Kapelstraat 27,Hove,2025-12-27 18:50:15,Belgische chocolatier,Artisan chocolate shop offering quality Belgian chocolates.,Chocolaterie artisanale offrant des chocolats belges de qualité.,Belgische chocolatier,Ambachtelijke chocolade,,0,2424,51.1539673,/logo/valentino.jpg,4.4695429,Valentino Chocolatier,,,2540.0,Antwerpen,Ambachtelijke chocolade,Artisan chocolate,Chocolat artisanal,winkel,2025-12-27 18:50:15,https://valentinobelgium.com
Bruggesteenweg 46,Ruiselede,2025-12-27 18:50:27,Belgische chocolatier - Van Bij Ons,Belgian chocolatier - Van Bij Ons,Chocolaterie belge - Van Bij Ons,Belgische chocolatier - Van Bij Ons,,,0,2743,51.0566342,,3.3776733,Van Bij Ons,,,8755.0,West-Vlaanderen,,,,winkel,2025-12-27 18:50:27,
Robert Dansaertlaan 17/J,Groot-Bijgaarden,2025-12-27 18:50:27,Belgische chocolatier - Van Dender Chocolates,Belgian chocolatier - Van Dender Chocolates,Chocolaterie belge - Van Dender Chocolates,Belgische chocolatier - Van Dender Chocolates,,,0,2744,50.8659071,,4.2580312,Van Dender Chocolates,,,1702.0,Vlaams-Brabant,,,,winkel,2025-12-27 18:50:27,
Chau. de Wavre 643,Etterbeek,2025-12-27 18:50:27,Belgische chocolatier,Belgian chocolatier,Chocolaterie belge,Belgische chocolatier,,,0,2745,50.8342326,,4.3943073,Vandenhende,,+32 2 644 63 00,1040.0,Brussels Hoofdstedelijk Gewest,,,,winkel,2025-12-27 18:50:27,http://www.chocolatier-vandenhende.be/
Wakkensesteenweg 34,Oeselgem,2025-12-27 18:50:27,Belgische chocolatier - Veronique Cottens,Belgian chocolatier - Veronique Cottens,Chocolaterie belge - Veronique Cottens,Belgische chocolatier - Veronique Cottens,,,0,2748,50.9335066,,3.428325,Veronique Cottens,,,8720.0,West-Vlaanderen,,,,winkel,2025-12-27 18:50:27,
Fin de Ville 33/B000,Houffalize,2025-12-27 18:50:27,Belgische chocolatier - Vincent Fontaine Chocolatier,Belgian chocolatier - Vincent Fontaine Chocolatier,Chocolaterie belge - Vincent Fontaine Chocolatier,Belgische chocolatier - Vincent Fontaine Chocolatier,,,0,2749,50.1277846,,5.788446,Vincent Fontaine Chocolatier,,,6660.0,Luxemburg,,,,winkel,2025-12-27 18:50:27,https://www.coeurdelardenne.be
Veurnseweg 153,Brielen,2025-12-27 18:50:28,Belgische chocolatier - Virgina Maertens,Belgian chocolatier - Virgina Maertens,Chocolaterie belge - Virgina Maertens,Belgische chocolatier - Virgina Maertens,,,0,2750,50.8674823,,2.8494303,Virgina Maertens,,,8900.0,West-Vlaanderen,,,,winkel,2025-12-27 18:50:28,
Kerkstraat 39,Tielen,2025-12-27 18:50:28,Belgische chocolatier,Artisan chocolate shop offering quality Belgian chocolates.,Chocolaterie artisanale offrant des chocolats belges de qualité.,Belgische chocolatier,Ambachtelijke chocolade,,0,2751,51.2432562,,4.9002959,Wendy's Shop,,,2460.0,Antwerpen,Ambachtelijke chocolade,Artisan chocolate,Chocolat artisanal,winkel,2025-12-27 18:50:28,https://wendysshop.be
"12, Place du Grand Sablon",Bruxelles,2025-12-27 18:50:15,"In de loop der decennia heeft Wittamer een uitzonderlijke internationale reputatie opgebouwd en is het uitgegroeid tot een absolute referentie in verfijnde ambachtelijke patisserie, geroemd om zijn ongeëvenaard vakmanschap en de uitmuntende kwaliteit van zijn creaties.","Over the decades, Wittamer has built an outstanding international reputation, becoming a true benchmark in exceptional artisanal pâtisserie, celebrated for its unparalleled craftsmanship and the remarkable quality of its creations.","Au fil des décennies, Wittamer s'est forgé une réputation internationale remarquable, devenant une véritable référence en pâtisserie artisanale d'exception, reconnue pour son savoir-faire inégalé et la qualité remarquable de ses créations.","In de loop der decennia heeft Wittamer een uitzonderlijke internationale reputatie opgebouwd en is het uitgegroeid tot een absolute referentie in verfijnde ambachtelijke patisserie, geroemd om zijn ongeëvenaard vakmanschap en de uitmuntende kwaliteit van zijn creaties.",,commande@wittamer.com,1,2425,50.8412312,/logo/wittamer.jpg,4.3550312,Wittamer,,+32 2 318 16 22,1000.0,Brussels Hoofdstedelijk Gewest,,,,winkel,2025-12-27 18:50:15,https://wittamer.com
"22, Rue Edith Cavell",Uccle,2025-12-27 18:50:15,"In de loop der decennia heeft Wittamer een uitzonderlijke internationale reputatie opgebouwd en is het uitgegroeid tot een absolute referentie in verfijnde ambachtelijke patisserie, geroemd om zijn ongeëvenaard vakmanschap en de uitmuntende kwaliteit van zijn creaties.","Over the decades, Wittamer has built an outstanding international reputation, becoming a true benchmark in exceptional artisanal pâtisserie, celebrated for its unparalleled craftsmanship and the remarkable quality of its creations.","Au fil des décennies, Wittamer s'est forgé une réputation internationale remarquable, devenant une véritable référence en pâtisserie artisanale d'exception, reconnue pour son savoir-faire inégalé et la qualité remarquable de ses créations.","In de loop der decennia heeft Wittamer een uitzonderlijke internationale reputatie opgebouwd en is het uitgegroeid tot een absolute referentie in verfijnde ambachtelijke patisserie, geroemd om zijn ongeëvenaard vakmanschap en de uitmuntende kwaliteit van zijn creaties.",,commande@wittamer.com,0,2426,50.813322,/logo/wittamer.jpg,4.3568866,Wittamer,,+32 2 315 55 97,1180.0,Brussels Hoofdstedelijk Gewest,,,,winkel,2025-12-27 18:50:15,https://wittamer.com
"1359A, Chaussée de Waterloo",Uccle,2025-12-27 18:50:15,"In de loop der decennia heeft Wittamer een uitzonderlijke internationale reputatie opgebouwd en is het uitgegroeid tot een absolute referentie in verfijnde ambachtelijke patisserie, geroemd om zijn ongeëvenaard vakmanschap en de uitmuntende kwaliteit van zijn creaties.","Over the decades, Wittamer has built an outstanding international reputation, becoming a true benchmark in exceptional artisanal pâtisserie, celebrated for its unparalleled craftsmanship and the remarkable quality of its creations.","Au fil des décennies, Wittamer s'est forgé une réputation internationale remarquable, devenant une véritable référence en pâtisserie artisanale d'exception, reconnue pour son savoir-faire inégalé et la qualité remarquable de ses créations.","In de loop der decennia heeft Wittamer een uitzonderlijke internationale reputatie opgebouwd en is het uitgegroeid tot een absolute referentie in verfijnde ambachtelijke patisserie, geroemd om zijn ongeëvenaard vakmanschap en de uitmuntende kwaliteit van zijn creaties.",,commande@wittamer.com,0,2427,50.7891713,/logo/wittamer.jpg,4.3747309,Wittamer,,+32 2 315 51 50,1180.0,Brussels Hoofdstedelijk Gewest,,,,winkel,2025-12-27 18:50:15,https://wittamer.com
Grand'Place 24,Chimay,2025-12-27 18:50:28,Belgische chocolatier - Xanys,Belgian chocolatier - Xanys,Chocolaterie belge - Xanys,Belgische chocolatier - Xanys,,,0,2752,50.0491243,,4.3162307,Xanys,,,6460.0,Henegouwen,,,,winkel,2025-12-27 18:50:28,https://www.petitcadeau.be
Onze-Lieve-Vrouwestraat 108,Mechelen,2025-12-27 18:50:28,Belgische chocolatier - ZOET,Belgian chocolatier - ZOET,Chocolaterie belge - ZOET,Belgische chocolatier - ZOET,,,0,2755,51.022569,,4.4813775,ZOET,,,2800.0,Antwerpen,,,,winkel,2025-12-27 18:50:28,http://www.myrads.be
Groenplaats 10,Antwerpen,2025-12-27 18:50:28,Boutique chocolatier in Antwerpen. Verse pralines dagelijks bereid.,Artisan chocolate shop offering quality Belgian chocolates.,Chocolaterie artisanale offrant des chocolats belges de qualité.,Boutique chocolatier in Antwerpen. Verse pralines dagelijks bereid.,Verse pralines,info@zabar.be,0,2753,51.2195367,,4.4008868,Zabar,,+32 3 231 78 45,2000.0,Antwerpen,Verse pralines,Chocolat artisanal,chocoladefondue,winkel,2025-12-27 18:50:28,https://www.zabar.be
Rue de Lisbonne 75C,l'Escaillère,2025-12-27 18:50:28,Belgische chocolatier - Zalig Zoet,Belgian chocolatier - Zalig Zoet,Chocolaterie belge - Zalig Zoet,Belgische chocolatier - Zalig Zoet,,,0,2754,49.9519474,,4.4220878,Zalig Zoet,,,6464.0,Henegouwen,,,,winkel,2025-12-27 18:50:28,
Lange Riddersstraat 51,Antwerpen,2025-12-27 18:50:17,Belgische chocolatier - catharine moortgat,Belgian chocolatier - catharine moortgat,Chocolaterie belge - catharine moortgat,Belgische chocolatier - catharine moortgat,,,0,2479,51.2159508,,4.3966478,catharine moortgat,,,2000.0,Antwerpen,,,,winkel,2025-12-27 18:50:17,
Adegem-Dorp 20,Adegem,2025-12-27 18:50:23,Belgische chocolatier - l'Une et l'autre,Belgian chocolatier - l'Une et l'autre,Chocolaterie belge - l'Une et l'autre,Belgische chocolatier - l'Une et l'autre,,,0,2617,51.2026286,,3.4862658,l'Une et l'autre,,,9991.0,Oost-Vlaanderen,,,,winkel,2025-12-27 18:50:23,http://www.lune-et-lautre.be
Rue du Progrès 42/b,Montigny-le-Tilleul,2025-12-27 18:50:26,Belgische chocolatier - save animals,Belgian chocolatier - save animals,Chocolaterie belge - save animals,Belgische chocolatier - save animals,,,0,2710,50.3813448,,4.3687707,save animals,,,6110.0,Henegouwen,,,,winkel,2025-12-27 18:50:26,
Molenstraat 42,Zolder,2025-12-27 18:50:27,Chocoladewinkel in Zolder,Artisan chocolate shop offering quality Belgian chocolates.,Chocolaterie artisanale offrant des chocolats belges de qualité.,Chocoladewinkel in Zolder,Ambachtelijke chocolade,,0,2727,51.0264945,,5.3129411,t Molentje,,,3550.0,Limburg,Ambachtelijke chocolade,Artisan chocolate,Chocolat artisanal,winkel,2025-12-27 18:50:27,
Kerkstraat 127,Anzegem,2025-12-27 18:50:27,Belgische chocolatier - tzoeteloetse,Belgian chocolatier - tzoeteloetse,Chocolaterie belge - tzoeteloetse,Belgische chocolatier - tzoeteloetse,,,0,2740,50.8396839,,3.4731442,tzoeteloetse,,,8570.0,West-Vlaanderen,,,,winkel,2025-12-27 18:50:27,
